Type,ModifyDate,Image,ListingID,Name,Description,ContactName,ContactEmail,ContactPhone,Website,Facebook,Twitter,Instagram,Pinterest,Youtube,Blog,Address,State,City,Street,Zip,Longitude,Latitude,Dates,Products
farmers market,,default-farmersmarket-4-3.jpg,313845,Ohio Valley Farmers' Market,,,,,,,,,,,,"67800 Mall Rd, Saint Clairsville, Ohio, 43950",Ohio,Saint Clairsville,67800 Mall Rd,43950,-80.863696463509,40.069469507567,,
farmers market,,default-farmersmarket-4-3.jpg,313856,Northside Farmers Market ,,,jwconverse@gmail.com,,,https://www.facebook.com/northsidefarmersmarkets/,,,,,,"901 Elm St, Youngstown, Ohio, 44505",Ohio,Youngstown,901 Elm St,44505,-80.645236019346,41.112536988739,,
farmers market,"Apr 4th, 2024",default-farmersmarket-4-3.jpg,300011,Loveland Farmers Market,,,,,http://www.lovelandfm.com/,,,,,,,"205 Broadway St, Loveland, Ohio, 45140",Ohio,Loveland,205 Broadway St,45140,-84.259985758056,39.266593038188,,
farmers market,"Apr 4th, 2024",default-farmersmarket-4-3.jpg,300066,Croghan Colonial Bank Farmers Market,,,,,https://nfmd.org/oh/fremont/1002470/,,,,,,,"S Front St & Garrison St, Fremont, Ohio, 43420",Ohio,Fremont,S Front St & Garrison St,43420,-83.113580021594,41.345400005274,,
farmers market,"Apr 4th, 2024",default-farmersmarket-4-3.jpg,300068,Lakewood Earth and Food (LEAF) Community Farmers' Market,,,,,No Website to Date,,,,,,,"15425 Detroit Ave, Lakewood, Ohio, 44107",Ohio,Lakewood,15425 Detroit Ave,44107,-81.804253990671,41.484694998471,,
farmers market,"Apr 4th, 2024",default-farmersmarket-4-3.jpg,300150,Athens Farmers Market,,,,,https://www.athensfarmersmarket.org/,,,,,,,"701 E State St, Athens, Ohio, 45701",Ohio,Athens,701 E State St,45701,-82.075942988543,39.336220011737,,
farmers market,"Apr 4th, 2024",default-farmersmarket-4-3.jpg,300506,Haymaker Farmers' Market,,,,,http://www.haymakermarket.com/,,,,,,,"Franklin Ave & W Summit St, Kent, Ohio, 44240",Ohio,Kent,Franklin Ave & W Summit St,44240,-81.360229962207,41.150120017654,,
farmers market,"Apr 4th, 2024",default-farmersmarket-4-3.jpg,300532,Farmers' gateway Market,,,,,https://www.facebook.com/profile.php?id=100064850281646,,,,,,,"4000 Sunset Blvd, Steubenville, Ohio, 43952",Ohio,Steubenville,4000 Sunset Blvd,43952,-80.672363965154,40.376321994875,,
farmers market,"Apr 4th, 2024",default-farmersmarket-4-3.jpg,300874,Westerville Saturday Farmers Market,,,,,https://www.uptownwestervilleinc.com/farmersmarket.html,,,,,,,"21 S State St, Westerville, Ohio, 43081",Ohio,Westerville,21 S State St,43081,-82.931752988571,40.125298998377,,
farmers market,"Apr 4th, 2024",default-farmersmarket-4-3.jpg,300924,Stow Community Farmers Market,,,,,https://www.stowfarmersmarket.com/,,,,,,,"1567 Pilgrim Dr, Stow, Ohio, 44224",Ohio,Stow,1567 Pilgrim Dr,44224,-81.451931000432,41.168689998411,,
farmers market,"Apr 4th, 2024",default-farmersmarket-4-3.jpg,301029,Main Street Wadsworth Farmers Market,,,,,https://www.wadsworthfarmersmarket.com/,,,,,,,"151 Main St, Wadsworth, Ohio, 44281",Ohio,Wadsworth,151 Main St,44281,-81.728517041415,41.024020989902,,
farmers market,"Apr 4th, 2024",default-farmersmarket-4-3.jpg,301041,Fibonacci's Mount Healthy Farmers Market,,,,,http://fibbrew.com/,,,,,,,"1445 Compton Rd, Cincinnati, Ohio, 45231",Ohio,Cincinnati,1445 Compton Rd,45231,-84.540945964186,39.231475013882,,
farmers market,"Apr 4th, 2024",default-farmersmarket-4-3.jpg,301056,Westgate Farmers Market,,,,,http://www.westgatefarmersmarket.com/home,,,,,,,"2925 W Broad St, Columbus, Ohio, 43204",Ohio,Columbus,2925 W Broad St,43204,-83.078550958577,39.954223013462,,
farmers market,"Apr 4th, 2024",default-farmersmarket-4-3.jpg,301063,Prairie Township Farmer's Market,,,,,https://www.prairietownship.org/219/Farmers-Market ,,,,,,,"5955 W Broad St, Galloway, Ohio, 43119",Ohio,Galloway,5955 W Broad St,43119,-83.158938020076,39.950255020498,,
farmers market,"Apr 4th, 2024",default-farmersmarket-4-3.jpg,301065,Canal Market District,,,,,https://www.canalmarketdistrict.org/,,,,,,,"36 E Canal St, Newark, Ohio, 43055",Ohio,Newark,36 E Canal St,43055,-82.400410890823,40.056709152313,,
farmers market,"Apr 4th, 2024",default-farmersmarket-4-3.jpg,301073,Saint Mary Farmers Market,,,,,https://nfmd.org/oh/columbus/1019825/,,,,,,,"700 S 3rd St, Columbus, Ohio, 43206",Ohio,Columbus,700 S 3rd St,43206,-82.994641989001,39.948103008768,,
farmers market,"Apr 4th, 2024",default-farmersmarket-4-3.jpg,301090,Lancaster Farmers Market,"Downtown Lancaster, Chestnut Street between Broad & Columbus in the Municipal Courts Parking Lot",,farmersmarket@kellermarkethouse.com,740-277-6305,https://kellermarkethouse.org/lancaster-ohio-farmers-market/,https://www.facebook.com/lancasterohfarmersmarket/ https://www.instagram.com/lancasterohfarmersmarket/,,,,,,"143 W Chestnut St, Lancaster, Ohio, 43130",Ohio,Lancaster,143 W Chestnut St,43130,-82.603709982989,39.712547311228,,
farmers market,"Apr 4th, 2024",default-farmersmarket-4-3.jpg,301095,Medina Square Farmers Market,,,,,https://www.medinafarmersmarket.com/,,,,,,,"39 Public Sq, Ste 305, Medina, Ohio, 44256",Ohio,Medina,39 Public Sq,44256,-81.863747985039,41.137790992455,,
farmers market,"Apr 4th, 2024",default-farmersmarket-4-3.jpg,301354,North Canton Farmers' Market,,,,,https://www.ncantonfarmersmarket.com/,,,,,,,"845 W Maple St, North Canton, Ohio, 44720",Ohio,North Canton,845 W Maple St,44720,-81.415559994716,40.876983004099,,
farmers market,"Apr 4th, 2024",default-farmersmarket-4-3.jpg,301422,Oxford Farmers Market,,,,,https://oxfordfarmersmarket.com/,,,,,,,"E Park Pl, Oxford, Ohio, 45056",Ohio,Oxford,E Park Pl,45056,-84.741776123275,39.510930012684,,
farmers market,"Apr 4th, 2024",default-farmersmarket-4-3.jpg,301427,Market on the Green,,,,,https://www.whmarketonthegreen.com/,,,,,,,"105 Norton Park Dr, Columbus, Ohio, 43213",Ohio,Columbus,105 Norton Park Dr,43213,-82.876365816687,39.975870990193,,
farmers market,"Apr 4th, 2024",default-farmersmarket-4-3.jpg,301428,Tremont Farmers Market,,,,,https://experiencetremont.com/featured-events/farmers-market/,,,,,,,"1200 Starkweather Ave, Cleveland, Ohio, 44113",Ohio,Cleveland,1200 Starkweather Ave,44113,-81.690426991177,41.477636011074,,
farmers market,"Apr 4th, 2024",default-farmersmarket-4-3.jpg,301429,North End Farmers Market,,,,,https://www.necic-ohio.org/programs/local-food-initiatives/north-end-farmers-market,,,,,,,"311 Bowman St, Mansfield, Ohio, 44903",Ohio,Mansfield,311 Bowman St,44903,-82.52331600642,40.766925011187,,
farmers market,"Apr 4th, 2024",default-farmersmarket-4-3.jpg,301443,Celina Farmers Market,,,,,http://celinafarmersmarket.com/,,,,,,,"1001 W Market St, Celina, Ohio, 45822",Ohio,Celina,1001 W Market St,45822,-84.583987959001,40.551375989128,,
farmers market,"Apr 4th, 2024",default-farmersmarket-4-3.jpg,301474,Ohio Valley Farmers' Market,,,,,http://ovfarmersmarket.org/,,,,,,,"67800 Mall Rd, Saint Clairsville, Ohio, 43950",Ohio,Saint Clairsville,67800 Mall Rd,43950,-80.863696463509,40.069469507567,,
farmers market,"Apr 4th, 2024",default-farmersmarket-4-3.jpg,301484,City of Seven Hills Farmers Market,,,,,http://www.sevenhillsohio.org/en-US/farmers-market.aspx,,,,,,,"7221 Broadview Rd, Independence, Ohio, 44131",Ohio,Independence,7221 Broadview Rd,44131,-81.684533687481,41.369442692862,,
farmers market,"Apr 4th, 2024",default-farmersmarket-4-3.jpg,301486,Canton Farmers' Market,,,,,https://www.facebook.com/CantonOhioFarmersMarket/,,,,,,,"330 Court Ave NW, Canton, Ohio, 44702",Ohio,Canton,330 Court Ave NW,44702,-81.375036487418,40.800259536732,,
farmers market,"Apr 4th, 2024",default-farmersmarket-4-3.jpg,301488,Adams County Farmer's Market,,,,,https://adams-county-farmers-market.business.site/?utm_source=gmb&utm_medium=referral,,,,,,,"110 W Main St, West Union, Ohio, 45693",Ohio,West Union,110 W Main St,45693,-83.546109024224,38.795424019357,,
farmers market,"Apr 4th, 2024",default-farmersmarket-4-3.jpg,301501,Fayette County Farmers Market,,,,,https://www.facebook.com/OHFCFM/,,,,,,,"101 E East St, Washington Court House, Ohio, 43160",Ohio,Washington Court House,101 E East St,43160,-83.438640704117,39.534896346524,,
farmers market,"Apr 4th, 2024",default-farmersmarket-4-3.jpg,301563,Oak Hill Hops,,,,,https://www.facebook.com/OakHillHops/,,,,,,,"3051 W Streetsboro Rd, Richfield, Ohio, 44286",Ohio,Richfield,3051 W Streetsboro Rd,44286,-81.599231968447,41.244976004234,,
farmers market,"Apr 4th, 2024",default-farmersmarket-4-3.jpg,301626,Franklin Park Conservatory and Botanical Gardens Farmers\' Market,,,,,https://www.fpconservatory.org/education-programs/outreach-programs/farmers-market/,,,,,,,"1777 E Broad St, Columbus, Ohio, 43203",Ohio,Columbus,1777 E Broad St,43203,-82.953180988763,39.965880019574,,
farmers market,"Apr 4th, 2024",default-farmersmarket-4-3.jpg,301635,Olde Pickerington Farmers' Market,,,pickfarmers@hotmail.com,614-681-1440,https://www.pickeringtonvillage.com/farmers-market,,,,,,,"89 N Center St, Pickerington, Ohio, 43147",Ohio,Pickerington,89 N Center St,43147,-82.753603482458,39.885759462391,,
farmers market,"Apr 4th, 2024",default-farmersmarket-4-3.jpg,301637,Healthy New Albany Farmers Market,,,,,https://healthynewalbany.org/,,,,,,,"200 Market St, New Albany, Ohio, 43054",Ohio,New Albany,200 Market St,43054,-82.814961980476,40.081952991934,,
farmers market,"Apr 4th, 2024",default-farmersmarket-4-3.jpg,301638,Healthy New Albany Indoor Farmers Market,,,,,https://healthynewalbany.org/,,,,,,,"150 W Main St, New Albany, Ohio, 43054",Ohio,New Albany,150 W Main St,43054,-82.812597026496,40.081449993924,,
farmers market,"Apr 4th, 2024",default-farmersmarket-4-3.jpg,301656,Hyde Park Farmers' Market,,,,,https://www.hydeparkfarmersmarket.com/,,,,,,,"2700 Erie Ave, Cincinnati, Ohio, 45208",Ohio,Cincinnati,2700 Erie Ave,45208,-84.443051034791,39.140034988122,,
farmers market,"Apr 4th, 2024",default-farmersmarket-4-3.jpg,301666,PC Sunday Farmers Market,,,,,https://www.facebook.com/pcsundaymarket/,,,,,,,"Madison St, Port Clinton, Ohio, 43452",Ohio,Port Clinton,Madison St,43452,-82.940894567597,41.496540286186,,
farmers market,"Apr 4th, 2024",default-farmersmarket-4-3.jpg,301768,Madeira Farmers Market,,,,,https://madeirafarmersmarket.com/,,,,,,,"Dawson Rd & Miami Ave, Cincinnati, Ohio, 45243",Ohio,Cincinnati,Dawson Rd & Miami Ave,45243,-84.363309966569,39.188089989679,,
farmers market,"Apr 4th, 2024",default-farmersmarket-4-3.jpg,301769,Clintonville Farmers Market,,,,,https://www.commongreensohio.org/clintonville-farmers-market,,,,,,,"3535 N High St, Columbus, Ohio, 43214",Ohio,Columbus,3535 N High St,43214,-83.016896025751,40.034149992296,,
farmers market,"Apr 4th, 2024",default-farmersmarket-4-3.jpg,301770,Upper Arlington Farmers Market,,,,,https://www.commongreensohio.org/upper-arlington-farmers-market,,,,,,,"2850 Tremont Rd, Columbus, Ohio, 43221",Ohio,Columbus,2850 Tremont Rd,43221,-83.06529799619,40.013939002535,,
farmers market,"Apr 4th, 2024",default-farmersmarket-4-3.jpg,301771,Bexley Farmers Market,,,,,https://www.commongreensohio.org/bexley-farmers-market,https://www.facebook.com/bexleyfarmersmarket/,,,,,,"S Dawson Ave & E Main St, Columbus, Ohio, 43209",Ohio,Columbus,S Dawson Ave & E Main St,43209,-82.935719975706,39.957139999586,,
farmers market,"Apr 4th, 2024",default-farmersmarket-4-3.jpg,301779,Hancock County Farmers' Market,,,,,https://www.facebook.com/HancockCountyFarmersMarket,,,,,,,"200 W Main Cross St, Findlay, Ohio, 45840",Ohio,Findlay,200 W Main Cross St,45840,-83.652682995262,41.039563008137,,
farmers market,"Apr 4th, 2024",default-farmersmarket-4-3.jpg,312155,2nd Street Market,,,,,https://www.metroparks.org/places-to-go/2nd-street-market/,,,,,,,"600 E 2nd St, Dayton, Ohio, 45402",Ohio,Dayton,600 E 2nd St,45402,-84.180781032974,39.762630015501,,
farmers market,"Apr 4th, 2024",default-farmersmarket-4-3.jpg,312156,400 Farmers Market,,,,,https://www.facebook.com/events/693042574116691/?privacy_mutation_token=eyJ0eXBlIjowLCJjcmVhdGlvbl90aW1lIjoxNjU2ODAzNTc1LCJjYWxsc2l0ZV9pZCI6MzU5MDM2MDAxOTY4NDMyfQ%3D%3D&acontext=%7B%22source%22%3A%22108%22%2C%22action_history%22%3A%22null%22%7D&paipv=0&eav=AfYMt_hbL0Eyhd2fjpqzeKd4BcC0ppyYloGLbZCm2b3vzVmpDlFOU5LOATkDyEA8kgQ&_rdr,,,,,,,"400 W Rich St, Columbus, Ohio, 43215",Ohio,Columbus,400 W Rich St,43215,-83.010698027448,39.956857990453,,
farmers market,"Apr 4th, 2024",default-farmersmarket-4-3.jpg,312157,A Taste of Summer Farm Market,,,,,https://www.atasteofsummer.com/,,,,,,,"314 Pearl Rd, Brunswick, Ohio, 44212",Ohio,Brunswick,314 Pearl Rd,44212,-81.847119965519,41.266414984719,,
farmers market,"Apr 4th, 2024",default-farmersmarket-4-3.jpg,312160,Archbold Area Farmers Market,,,,,https://bestthingsoh.com/place/archbold-area-farmers-market-archbold-oh.html,,,,,,,"200 Depot St, Archbold, Ohio, 43502",Ohio,Archbold,200 Depot St,43502,-84.304830913272,41.521902211176,,
farmers market,"Apr 4th, 2024",default-farmersmarket-4-3.jpg,312161,Ashtabula Farmers Market,,,,,https://www.facebook.com/AshtabulaFarmersMarket/,,,,,,,"1119 Bridge St, Ashtabula, Ohio, 44004",Ohio,Ashtabula,1119 Bridge St,44004,-80.800014986098,41.899608006654,,
farmers market,"Apr 4th, 2024",default-farmersmarket-4-3.jpg,312162,Auglaize Farmers Market,,,,,https://bestfarmersmarkets.org/place/auglaize-farmers-market-wapakoneta-oh.html,,,,,,,"208 S Blackhoof St, Wapakoneta, Ohio, 45895",Ohio,Wapakoneta,208 S Blackhoof St,45895,-84.195963006558,40.56840198141,,
farmers market,"Apr 4th, 2024",default-farmersmarket-4-3.jpg,312163,Aurora Farmers Market,,,,,https://www.facebook.com/theaurorafarmersmarket/,,,,,,,"146 S Chillicothe Rd, Aurora, Ohio, 44202",Ohio,Aurora,146 S Chillicothe Rd,44202,-81.346348021806,41.313138981961,,
farmers market,"Apr 4th, 2024",default-farmersmarket-4-3.jpg,312164,Avon Lake Farmers' Market,,,,,http://ohioproud.org/farm-markets-all/farmers-market-search/find-a-farmers-market/#!biz/id/5adf2a1ef033bf56744f879a,,,,,,,"32747 Lake Rd, Avon Lake, Ohio, 44012",Ohio,Avon Lake,32747 Lake Rd,44012,-82.017526990742,41.512625008595,,
farmers market,"Apr 4th, 2024",default-farmersmarket-4-3.jpg,312168,Beavercreek Farmers' Market,,,,,,,,,,,,"4480 Indian Ripple Rd, Beavercreek, Ohio, 45440",Ohio,Beavercreek,4480 Indian Ripple Rd,45440,-84.103309867952,39.697828683861,,
farmers market,"Apr 4th, 2024",default-farmersmarket-4-3.jpg,312169,Bellville Farmers Market,,,,,https://www.facebook.com/search/top?q=bellville%20farmers%20market,,,,,,,"142 Park Pl, Bellville, Ohio, 44813",Ohio,Bellville,142 Park Pl,44813,-82.5121020258,40.619881996242,,
farmers market,"Apr 4th, 2024",default-farmersmarket-4-3.jpg,312170,Bessemer Farm Market,,,,,https://l.facebook.com/l.php?u=http%3A%2F%2Fwww.bessemerfarmersmarket.com%2F%3Ffbclid%3DIwAR0UoAeuVAoSuDy5uwu0ZzPkI2skfaQX0hrOTMEaRKMtZCiNjFDoAU0DFJE&h=AT1riIIL7xonTxV4PbBTVafEojWD-X0fVIIbmOqle-5m77dRu7Hqav-dQ8VNRasisjwmThnVErVLyunB8y2FSroZg9Ajb6EQGAKddaUFTL08YVl3iknrxxWKuoqIIIf4-1AaEkhhpxzlTutVG2a2Dg,,,,,,,"1410 Saint Michaels Ave, Akron, Ohio, 44320",Ohio,Akron,1410 Saint Michaels Ave,44320,-81.582849035777,41.072441987261,,
farmers market,"Apr 4th, 2024",default-farmersmarket-4-3.jpg,312171,Black River Landing Farmers' Market,,,,,https://www.facebook.com/profile.php?id=100057615521349&eav=AfaFDblskULaEvnFS4F3-HAY92-qScc9lsQB5TN6g_TcM6cVgH25i6S6dtF856QmAws&sk=about&paipv=0&_rdr,,,,,,,"421 Black River Rd, Lorain, Ohio, 44052",Ohio,Lorain,421 Black River Rd,44052,-82.174066995352,41.467014002366,,
farmers market,"Apr 4th, 2024",default-farmersmarket-4-3.jpg,312172,Blendon Township Farmers Market,,,,,https://farmersmarket.country/market/westerville-ohio-blendon-township-farmers-market/,,,,,,,"6350 S Hempstead Rd, Westerville, Ohio, 43081",Ohio,Westerville,6350 S Hempstead Rd,43081,-82.904380961742,40.097973994025,,
farmers market,"Apr 4th, 2024",default-farmersmarket-4-3.jpg,312176,Byler Flea Market,,,,,https://farmersmarket.country/market/hartville-ohio-byler-flea-market/,,,,,,,"960 Edison St NW, Hartville, Ohio, 44632",Ohio,Hartville,960 Edison St NW,44632,-81.358429026491,40.969142993432,,
farmers market,"Apr 4th, 2024",default-farmersmarket-4-3.jpg,312177,Canal Fulton Farmers' Market,,,,,https://nfmd.org/oh/canal-fulton/1009967/,,,,,,,"853 Locust St S, Canal Fulton, Ohio, 44614",Ohio,Canal Fulton,853 Locust St S,44614,-81.589799980442,40.88739098091,,
farmers market,"Apr 4th, 2024",default-farmersmarket-4-3.jpg,312178,Carrollton Farmers Market,,,,,https://www.facebook.com/carrollfarmmarket/,,,,,,,"1305 Canton Rd NW, Carrollton, Ohio, 44615",Ohio,Carrollton,1305 Canton Rd NW,44615,-81.095336005602,40.59289201656,,
farmers market,"Apr 4th, 2024",default-farmersmarket-4-3.jpg,312179,Carrollton Weekly Farmers Market,,,,,https://nfmd.org/oh/carrollton/1006098/,,,,,,,"1117 Canton Rd NW, Carrollton, Ohio, 44615",Ohio,Carrollton,1117 Canton Rd NW,44615,-81.093041962522,40.587940993993,,
farmers market,"Apr 4th, 2024",default-farmersmarket-4-3.jpg,312180,Centerville Farmers Market,,,,,https://www.centervillefarmersmarket.com/index.php/directions,,,,,,,"221 N Main St, Centerville, Ohio, 45459",Ohio,Centerville,221 N Main St,45459,-84.161728967056,39.635449009778,,
farmers market,"Apr 4th, 2024",default-farmersmarket-4-3.jpg,312181,Chillicothe Farmers' Market,,,,,https://chillicothefarmersmarket.org/,,,,,,,"475 Western Ave, Chillicothe, Ohio, 45601",Ohio,Chillicothe,475 Western Ave,45601,-83.003462014256,39.335454995434,,
farmers market,"Apr 4th, 2024",default-farmersmarket-4-3.jpg,312182,Christ United Methodist Church Farmers' Market,,,,,https://www.eatwellguide.org/listings/76296/locations/32224,,,,,,,"1140 Claremont Ave, Ashland, Ohio, 44805",Ohio,Ashland,1140 Claremont Ave,44805,-82.329754979503,40.858443994475,,
farmers market,"Apr 4th, 2024",default-farmersmarket-4-3.jpg,312183,City of Wooster Farmers Market,,,,,https://www.mainstreetwooster.org/farmers-market?fbclid=IwAR3JAepFHYdymxcz9-URebd7jV7i0d22xuIl5SLUEPXNMDf2pZrJy0N4oPQ,,,,,,,"241 S Bever St, Wooster, Ohio, 44691",Ohio,Wooster,241 S Bever St,44691,-81.936694011994,40.796487019768,,
farmers market,"Apr 4th, 2024",default-farmersmarket-4-3.jpg,312185,Clinton County Farmers' Market,,,,,http://www.clintoncountyfarmersmarket.com/,,,,,,,"111 S Nelson Ave, Wilmington, Ohio, 45177",Ohio,Wilmington,111 S Nelson Ave,45177,-83.852444032138,39.44317100078,,
farmers market,"Apr 4th, 2024",default-farmersmarket-4-3.jpg,312187,Coit Road Farmers' Market,,,,,https://www.coitmarket.org/,,,,,,,"15000 Woodworth Rd, Cleveland, Ohio, 44110",Ohio,Cleveland,15000 Woodworth Rd,44110,-81.577169961099,41.544831004713,,
farmers market,"Apr 4th, 2024",default-farmersmarket-4-3.jpg,312188,Columbus North Market,,,,,https://northmarket.org/,,,,,,,"59 Spruce St, Columbus, Ohio, 43215",Ohio,Columbus,59 Spruce St,43215,-83.004326020835,39.971884982647,,
farmers market,"Apr 4th, 2024",default-farmersmarket-4-3.jpg,312189,Columbus Public Health Urban Farmers Market,,,,,https://nfmd.org/oh/columbus/1006256/,,,,,,,"240 Parsons Ave, Columbus, Ohio, 43215",Ohio,Columbus,240 Parsons Ave,43215,-82.980692993375,39.959410992432,,
farmers market,"Apr 4th, 2024",default-farmersmarket-4-3.jpg,312190,Columbus Winter Farmers' Market,,,,,https://l.facebook.com/l.php?u=http%3A%2F%2Fcolumbuswinterfarmersmarket.com%2F%3Ffbclid%3DIwAR0VONE-zMa5lYxjxn9dBFLOHL45jwffLN0C7FxQY-8SOPY4FKBDL6IZ-Yo&h=AT1qGAG29hKbmGFfw4jidhEWwST2iEZQUNHydrUTjnSxwH-5YaqYzgC1bz3808vDoY5RvX6te-mU1FhEEsIJfLKKQMKMvdvlp8KSJzT1tzmQBop9rQq8twTavtApifyR6TWZWwWRaBnqZYbgU21TkA,,,,,,,"3923 N High St, Columbus, Ohio, 43214",Ohio,Columbus,3923 N High St,43214,-83.019372961959,40.041805980747,,
farmers market,"Apr 4th, 2024",default-farmersmarket-4-3.jpg,312191,Conneaut Farmers' Market,,,,(440) 599-8684,https://www.facebook.com/conneautfarmersmarket/,,,,,,,"280 Park Ave, Conneaut, Ohio, 44030",Ohio,Conneaut,280 Park Ave,44030,-80.553993974139,41.966325986183,,
farmers market,"Apr 4th, 2024",default-farmersmarket-4-3.jpg,312192,Corn on the Curb Farmers Market,,,,,http://www.neighborhoodlink.com/Corn_On_The_Curb_Farmers_Market,,,,,,,"224 W Crawford St, Findlay, Ohio, 45840",Ohio,Findlay,224 W Crawford St,45840,-83.652455693488,41.037844608007,,
farmers market,"Apr 4th, 2024",default-farmersmarket-4-3.jpg,312193,Coshocton Farmers Market,,,,,https://www.facebook.com/coshoctonfarmersmarket/,,,,,,,"300 Block of Main St, Coshocton, Ohio, 43812",Ohio,Coshocton,300 Block of Main St,43812,-81.865591706239,40.273698947834,,
farmers market,"Apr 4th, 2024",default-farmersmarket-4-3.jpg,312194,Countryside Farmers Market,,,,,http://cuyahogavalleyfarmersmarket.org/,,,,,,,"714 N Portage Path, Akron, Ohio, 44303",Ohio,Akron,714 N Portage Path,44303,-81.54908203592,41.118653012029,,
farmers market,"Apr 4th, 2024",default-farmersmarket-4-3.jpg,312195,Countryside Farmers' Market at Howe Meadow,,,,,http://cuyahogavalleyfarmersmarket.org/,,,,,,,"4040 Riverview Rd, Peninsula, Ohio, 44264",Ohio,Peninsula,4040 Riverview Rd,44264,-81.583575998239,41.189307007561,,
farmers market,"Apr 4th, 2024",default-farmersmarket-4-3.jpg,312196,Countryside Farmers Market at Old Trail Sc...,,,,,http://cuyahogavalleyfarmersmarket.org/,,,,,,,"2315 Ira Rd, Akron, Ohio, 44333",Ohio,Akron,2315 Ira Rd,44333,-81.587950010592,41.186519018927,,
farmers market,"Apr 4th, 2024",default-farmersmarket-4-3.jpg,312197,Courthouse Square Farmers Market,,,,,https://www.eatwellguide.org/listings/76305/locations/32233?latitude=39.745629&longitude=-84.308365,,,,,,,"25 N Main St, Dayton, Ohio, 45423",Ohio,Dayton,25 N Main St,45423,-84.192053158369,39.760650300677,,
farmers market,"Apr 4th, 2024",default-farmersmarket-4-3.jpg,312198,Creekside Farm Market,,,,,http://eaglecreekwholesale.com/,,,,,,,"18548 Chillicothe Rd, Chagrin Falls, Ohio, 44023",Ohio,Chagrin Falls,18548 Chillicothe Rd,44023,-81.341056023418,41.364931013139,,
farmers market,"Apr 4th, 2024",default-farmersmarket-4-3.jpg,312199,Crestline Farmers Market,,,,,https://www.facebook.com/crestlinefarmersmarket/,,,,,,,"202 N Thoman St, Crestline, Ohio, 44827",Ohio,Crestline,202 N Thoman St,44827,-82.738526986324,40.785334017493,,
farmers market,"Apr 4th, 2024",default-farmersmarket-4-3.jpg,312200,Deerfield Farmers' Market,,,,,http://www.deerfieldfarmersmarket.com/location--hours.html,,,,,,,"4188 Irwin Simpson Rd, Mason, Ohio, 45040",Ohio,Mason,4188 Irwin Simpson Rd,45040,-84.296191038702,39.315821015889,,
farmers market,"Apr 4th, 2024",default-farmersmarket-4-3.jpg,312201,Delaware County Farmers Market,,,,,https://www.facebook.com/MainStreetDelawareFarmersMarket/,,,,,,,"20 E Winter St, Delaware, Ohio, 43015",Ohio,Delaware,20 E Winter St,43015,-83.066624013272,40.299871997116,,
farmers market,"Apr 4th, 2024",default-farmersmarket-4-3.jpg,312202,Delta Farmers' Market,,,,,https://www.facebook.com/deltafarmermarket,,,,,,,"313 W Main St, Delta, Ohio, 43515",Ohio,Delta,313 W Main St,43515,-84.019793003807,41.573282997857,,
farmers market,"Apr 4th, 2024",default-farmersmarket-4-3.jpg,312203,Downtown Ashtabula Farmers' Market,,,,,https://www.localharvest.org/downtown-ashtabula-farmers-market-M59118,,,,,,,"4125 Main Ave, Ashtabula, Ohio, 44004",Ohio,Ashtabula,4125 Main Ave,44004,-80.781073980397,41.869994994192,,
farmers market,"Apr 4th, 2024",default-farmersmarket-4-3.jpg,312204,Downtown Bowling Green Farmers' Market,,,,,https://bowling-market.edan.io/,,,,,,,"111 Clough St, Bowling Green, Ohio, 43402",Ohio,Bowling Green,111 Clough St,43402,-83.649848989979,41.373237018182,,
farmers market,"Apr 4th, 2024",default-farmersmarket-4-3.jpg,312205,Downtown Farmers Market,,,,,https://bowling-market.edan.io/,,,,,,,"201 S Main St, Bowling Green, Ohio, 43402",Ohio,Bowling Green,201 S Main St,43402,-83.649849995808,41.372957984625,,
farmers market,"Apr 4th, 2024",default-farmersmarket-4-3.jpg,312206,Downtown Farmers' Market at Public Square,,,,,https://www.eatwellguide.org/listings/76313/locations/32242?latitude=41.4993921&longitude=-81.6913909,,,,,,,"530 Euclid Ave, Cleveland, Ohio, 44115",Ohio,Cleveland,530 Euclid Ave,44115,-81.689301972133,41.49964802037,,
farmers market,"Apr 4th, 2024",default-farmersmarket-4-3.jpg,312207,Downtown Fremont Farmers' Market,,,,,https://downtownfremontohio.org/farmers-market/,,,,,,,"101 S Front St, Fremont, Ohio, 43420",Ohio,Fremont,101 S Front St,43420,-83.112963029702,41.346366983534,,
farmers market,"Apr 4th, 2024",default-farmersmarket-4-3.jpg,312208,Downtown Greenville Farmers' Market,,,,,https://www.localharvest.org/downtown-greenville-farmers-market-M57205,,,,,,,"W 4th St & S Broadway, Greenville, Ohio, 45331",Ohio,Greenville,W 4th St & S Broadway,45331,-84.63150002278,40.100780003751,,
farmers market,"Apr 4th, 2024",default-farmersmarket-4-3.jpg,312209,Downtown Lima Farmers' Market,,,limafarmersmarket@gmail.com,419-222-6045,https://www.allenswcd.com/farmers-market/?fbclid=IwAR3Zi7K0lRcXZbbhOFkSyjYIJRJH-z1fOKXaH-c9G4-9xjYsohizE1c5tJw,https://www.facebook.com/DowntownLimaFarmersMarket/,,,,,,"45801, Lima, Ohio",Ohio,Lima,,45801,-84.10681,40.743355,,
farmers market,"Apr 4th, 2024",default-farmersmarket-4-3.jpg,312211,Downtown Wooster Farmers Market,,,,,https://www.mainstreetwooster.org/farmers-market,,,,,,,"105 W Liberty St, Wooster, Ohio, 44691",Ohio,Wooster,105 W Liberty St,44691,-81.940138855091,40.798222767458,,
farmers market,"Apr 4th, 2024",default-farmersmarket-4-3.jpg,312212,Doylestown Farmers Market,,,,,https://www.doylestown.com/2182/Farmers-Market,,,,,,,"177 N Portage St, Doylestown, Ohio, 44230",Ohio,Doylestown,177 N Portage St,44230,-81.695383915256,40.970754227978,,
farmers market,"Apr 4th, 2024",default-farmersmarket-4-3.jpg,312213,Dublin Farmers' Market,,,,,https://www.facebook.com/DublinFarmersMarket,,,,,,,"4261 W Dublin Granville Rd, Dublin, Ohio, 43017",Ohio,Dublin,4261 W Dublin Granville Rd,43017,-83.103636988953,40.098446984821,,
farmers market,"Apr 4th, 2024",default-farmersmarket-4-3.jpg,312214,Edible Saturdays Farmers Market,,,,,https://nfmd.org/oh/lewis-center/1008798/,,,,,,,"100 Green Meadows Dr, Lewis Center, Ohio, 43035",Ohio,Lewis Center,100 Green Meadows Dr,43035,-83.013106268718,40.157492034356,,
farmers market,"Apr 4th, 2024",default-farmersmarket-4-3.jpg,312215,Edible Thursdays Farmers Market,,,,,https://nfmd.org/oh/columbus/1008799/,,,,,,,"4300 Indianola Ave, Columbus, Ohio, 43214",Ohio,Columbus,4300 Indianola Ave,43214,-82.999537020456,40.052358000564,,
farmers market,"Apr 4th, 2024",default-farmersmarket-4-3.jpg,312218,Farm Market of College hill,,,,,https://www.facebook.com/groups/69791386959/,,,,,,,"5742 Hamilton Ave, Cincinnati, Ohio, 45224",Ohio,Cincinnati,5742 Hamilton Ave,45224,-84.545328023166,39.196020988373,,
farmers market,"Apr 4th, 2024",default-farmersmarket-4-3.jpg,312219,Farmers and Artisans Market,,,,,https://www.facebook.com/lancasterohfarmersmarket/,,,,,,,"4309 Lancaster Rd, Granville, Ohio, 43023",Ohio,Granville,4309 Lancaster Rd,43023,-82.521308959704,40.026266979997,,
farmers market,"Apr 4th, 2024",default-farmersmarket-4-3.jpg,312220,Farmers' Market in the Falls,,,,,https://www.cityofcf.com/farmers-market-falls,,,,,,,"1201 Grant Ave, Cuyahoga Falls, Ohio, 44223",Ohio,Cuyahoga Falls,1201 Grant Ave,44223,-81.497707004425,41.127544995922,,
farmers market,"Apr 4th, 2024",default-farmersmarket-4-3.jpg,312222,Farmers' Market of Toledo,,,,,https://www.toledofarmersmarket.com/,,,,,,,"525 Market St, Toledo, Ohio, 43604",Ohio,Toledo,525 Market St,43604,-83.541899967725,41.645191009923,,
farmers market,"Apr 4th, 2024",default-farmersmarket-4-3.jpg,312223,Farmers Market Sweet Shop,,,,,https://www.menupix.com/ohio/restaurants/380007149/Farmers-Market-Sweet-Shop-Greenfield-OH,,,,,,,"116 N Washington St, Greenfield, Ohio, 45123",Ohio,Greenfield,116 N Washington St,45123,-83.383378984119,39.352009002749,,
farmers market,"Apr 4th, 2024",default-farmersmarket-4-3.jpg,312224,First Baptist Church Farmer's Market,,,,,https://sall02.wixsite.com/fbc-farmers-market,,,,,,,"3630 Fairmount Blvd, Cleveland, Ohio, 44118",Ohio,Cleveland,3630 Fairmount Blvd,44118,-81.549407002306,41.485847007244,,
farmers market,"Apr 4th, 2024",default-farmersmarket-4-3.jpg,312225,Fostoria Farmers' & Artisans' Market,,,,,https://ohio.org/things-to-do/destinations/fostoria-farmers-market,,,,,,,"100 E Tiffin St, Fostoria, Ohio, 44830",Ohio,Fostoria,100 E Tiffin St,44830,-83.412714640248,41.15666228637,,
farmers market,"Apr 4th, 2024",default-farmersmarket-4-3.jpg,312227,French 500 Flea Market,,,,,https://galliacountyfair.org/flea-market/,,,,,,,"189 Jackson Pike, Gallipolis, Ohio, 45631",Ohio,Gallipolis,189 Jackson Pike,45631,-82.239462017193,38.84096801227,,
farmers market,"Apr 4th, 2024",default-farmersmarket-4-3.jpg,312228,Friends of the Germantown Library Farmers Market,,,,,https://www.localharvest.org/friends-of-the-germantown-library-farmers-market-M32101,,,,,,,"51 N Plum St, Germantown, Ohio, 45327",Ohio,Germantown,51 N Plum St,45327,-84.372302994305,39.625794985157,,
farmers market,"Apr 4th, 2024",default-farmersmarket-4-3.jpg,312229,Frostville Museum Farmers Market,,,,,https://www.frostvillefarmersmarket.com/about/,,,,,,,"24101 Cedar Point Rd, North Olmsted, Ohio, 44070",Ohio,North Olmsted,24101 Cedar Point Rd,44070,-81.890492039682,41.40588800954,,
farmers market,"Apr 4th, 2024",default-farmersmarket-4-3.jpg,312230,Gallia County Farmers Market,,,galliafarmersmarket@yahoo.com,,https://www.facebook.com/profile.php?id=100064710605073&sk=about,,,,,,,"18 Locust St, Ste 1268, Gallipolis, Ohio, 45631",Ohio,Gallipolis,18 Locust St,45631,-82.202435965744,38.808995996979,,
farmers market,"Apr 4th, 2024",default-farmersmarket-4-3.jpg,312231,Garden Station Sunday Market,,,,,https://www.facebook.com/GardenStation/,,,,,,,"509 E 4th St, Dayton, Ohio, 45402",Ohio,Dayton,509 E 4th St,45402,-84.185297923009,39.759306820457,,
farmers market,"Apr 4th, 2024",default-farmersmarket-4-3.jpg,312232,Garrettsville Farmers' Market,,,,,https://www.garrettsvillefarmersmarket.com/,,,,,,,"8119 Main St, Garrettsville, Ohio, 44231",Ohio,Garrettsville,8119 Main St,44231,-81.097067036246,41.284620017411,,
farmers market,"Apr 4th, 2024",default-farmersmarket-4-3.jpg,312233,Gateway 105 Farmers' Market,,,,,https://www.facebook.com/Gateway105/,,,,,,,"1322 E 105th St, Cleveland, Ohio, 44106",Ohio,Cleveland,1322 E 105th St,44106,-81.615899969645,41.521017011963,,
farmers market,"Apr 4th, 2024",default-farmersmarket-4-3.jpg,312234,Geneva Farmers Market,,,,,https://visitashtabulacounty.com/events/geneva-farmers-market/,,,,,,,"89 S Broadway, Geneva, Ohio, 44041",Ohio,Geneva,89 S Broadway,44041,-80.947329029882,41.803808008229,,
farmers market,"Apr 4th, 2024",default-farmersmarket-4-3.jpg,312235,Genoa FFA Farmers Market,,,,,,,,,,,,"509 Main St, Genoa, Ohio, 43430",Ohio,Genoa,509 Main St,43430,-83.358196980952,41.517875013648,,
farmers market,"Apr 4th, 2024",default-farmersmarket-4-3.jpg,312236,Germantown Farmers' Market,,,,,https://www.facebook.com/people/Germantown-Farmers-Market/100063675413697/,,,,,,,"51 N Plum St, Germantown, Ohio, 45327",Ohio,Germantown,51 N Plum St,45327,-84.372302994305,39.625794985157,,
farmers market,"Apr 4th, 2024",default-farmersmarket-4-3.jpg,312237,Gnadenhutten Farmers Market,,,,,https://www.facebook.com/GnadenhuttenFarmersMarket/,,,,,,,"131 S Walnut St, Gnadenhutten, Ohio, 44629",Ohio,Gnadenhutten,131 S Walnut St,44629,-81.434275024307,40.358293987977,,
farmers market,"Apr 4th, 2024",default-farmersmarket-4-3.jpg,312238,God's Little Acre Farmers' Market,,,,,https://www.facebook.com/profile.php?id=100081984215138,,,,,,,"240 S Market St, Galion, Ohio, 44833",Ohio,Galion,240 S Market St,44833,-82.790051970067,40.731527018701,,
farmers market,"Apr 4th, 2024",default-farmersmarket-4-3.jpg,312239,Greater Goshen Farmers' Market,,,,,https://bestfarmersmarkets.org/place/greater-goshen-farmers-market-goshen-oh.html,,,,,,,"6662 Goshen Rd, Goshen, Ohio, 45122",Ohio,Goshen,6662 Goshen Rd,45122,-84.147322990069,39.225118010875,,
farmers market,"Apr 4th, 2024",default-farmersmarket-4-3.jpg,312240,Greater Powell Area Chamber of Commerce Farmers Market,,,,,https://www.facebook.com/PowellChamberFarmersMarket/,,,,,,,"240 N Liberty St, Powell, Ohio, 43065",Ohio,Powell,240 N Liberty St,43065,-83.07483601527,40.162768997328,,
farmers market,"Apr 4th, 2024",default-farmersmarket-4-3.jpg,312241,Green Farmers Market,,,,,http://ohioproud.org/farm-markets-all/farmers-market-search/find-a-farmers-market/#!biz/id/57f56c58178f4e557a7b2653,,,,,,,"1781 Town Park Blvd, Uniontown, Ohio, 44685",Ohio,Uniontown,1781 Town Park Blvd,44685,-81.468486871833,40.950776411011,,
farmers market,"Apr 4th, 2024",default-farmersmarket-4-3.jpg,312242,Green Machine Farmers' Market,,,,,,,,,,,,"4465 Coonpath Rd, Carroll, Ohio, 43112",Ohio,Carroll,4465 Coonpath Rd,43112,-82.68475397615,39.771361988863,,
farmers market,"Apr 4th, 2024",default-farmersmarket-4-3.jpg,312243,Green Road Farmers' Market,,,,,https://www.localharvest.org/green-road-farmers-market-M29708,,,,,,,"1534 S Green Rd, Cleveland, Ohio, 44121",Ohio,Cleveland,1534 S Green Rd,44121,-81.520257006176,41.518044998645,,
farmers market,"Apr 4th, 2024",default-farmersmarket-4-3.jpg,312244,Greenfield Farmers' Market,,,,,https://farmersmarket.country/market/greenfield-ohio-farmer-market/,,,,,,,"1355 Jefferson St, Greenfield, Ohio, 45123",Ohio,Greenfield,1355 Jefferson St,45123,-83.40103102075,39.34832800615,,
farmers market,"Apr 4th, 2024",default-farmersmarket-4-3.jpg,312245,Grove City Chamber Farmers' Market,,,,,https://www.facebook.com/grovecityfarmersmarket/,,,,,,,"4035 Broadway, Grove City, Ohio, 43123",Ohio,Grove City,4035 Broadway,43123,-83.09411296765,39.882146986147,,
farmers market,"Apr 4th, 2024",default-farmersmarket-4-3.jpg,312246,Groveport Farmers Market,,,,,https://www.groveport.org/565/Farmers-Market,,,,,,,"551 Wirt Rd, Groveport, Ohio, 43125",Ohio,Groveport,551 Wirt Rd,43125,-82.886175614702,39.849558316723,,
farmers market,"Apr 4th, 2024",default-farmersmarket-4-3.jpg,312247,Guernsey County Farmers Market,,,,,https://nfmd.org/oh/cambridge/1003607/,,,,,,,"801 Wheeling Ave, Cambridge, Ohio, 43725",Ohio,Cambridge,801 Wheeling Ave,43725,-81.589907017345,40.025374013942,,
farmers market,"Apr 4th, 2024",default-farmersmarket-4-3.jpg,312248,Hamilton's Historic Farmers' Market,,,,,https://www.facebook.com/hamiltonshistoricfarmersmarket/,,,,,,,"101 S Monument Ave, Hamilton, Ohio, 45011",Ohio,Hamilton,101 S Monument Ave,45011,-84.565531008209,39.399613016005,,
farmers market,"Apr 4th, 2024",default-farmersmarket-4-3.jpg,312250,Hartville MarketPlace,,,,,https://hartvillemarketplace.com/,,,,,,,"1289 Edison St NW, Hartville, Ohio, 44632",Ohio,Hartville,1289 Edison St NW,44632,-81.361408960708,40.97538298507,,
farmers market,"Apr 4th, 2024",default-farmersmarket-4-3.jpg,312251,Hebron Business Association/Farmers Market,,,,,https://www.facebook.com/2180103322069691/posts/d41d8cd9/4962576720488990/,,,,,,,"134 E Main St, Hebron, Ohio, 43025",Ohio,Hebron,134 E Main St,43025,-82.490011017066,39.961656001379,,
farmers market,"Apr 4th, 2024",default-farmersmarket-4-3.jpg,312252,Henry County Farmers Market,,,,,https://www.facebook.com/HCOhioFarmersMarket/,,,,,,,"1853 Oakwood Ave, Napoleon, Ohio, 43545",Ohio,Napoleon,1853 Oakwood Ave,43545,-84.123015973774,41.408551987916,,
farmers market,"Apr 4th, 2024",default-farmersmarket-4-3.jpg,312253,Hilliard Farm Market,,,,,https://hilliardfarmmarket.com/,,,,,,,"5445 Scioto Darby Rd, Hilliard, Ohio, 43026",Ohio,Hilliard,5445 Scioto Darby Rd,43026,-83.161934969556,40.028724009185,,
farmers market,"Apr 4th, 2024",default-farmersmarket-4-3.jpg,312255,Hocking Hills Farmers Market,,,,,https://www.facebook.com/profile.php?id=100069757075307,,,,,,,"1593 E Front St, Logan, Ohio, 43138",Ohio,Logan,1593 E Front St,43138,-82.383290027447,39.530978016337,,
farmers market,"Apr 4th, 2024",default-farmersmarket-4-3.jpg,312256,Holy Trinity Farmers' Market,,,,,https://www.facebook.com/holytrinityfarmersmarket/,,,,,,,"525 W Cook Rd, Mansfield, Ohio, 44907",Ohio,Mansfield,525 W Cook Rd,44907,-82.535655599769,40.732632712068,,
farmers market,"Apr 4th, 2024",default-farmersmarket-4-3.jpg,312257,Howland Farmers Market,,,,,https://www.facebook.com/HowlandFarmersMarket/,,,,,,,"205 Niles Cortland Rd NE, Warren, Ohio, 44484",Ohio,Warren,205 Niles Cortland Rd NE,44484,-80.741064977246,41.239765980858,,
farmers market,"Apr 4th, 2024",default-farmersmarket-4-3.jpg,312258,Idora Neighborhood Farmers Market,,,,,https://nfmd.org/oh/youngstown/1011367/,,,,,,,"2600 Glenwood Ave, Youngstown, Ohio, 44511",Ohio,Youngstown,2600 Glenwood Ave,44511,-80.675405987622,41.073692687553,,
farmers market,"Apr 4th, 2024",default-farmersmarket-4-3.jpg,312259,Jackson Township Farmers' Market,,,,,http://ohioproud.org/farm-markets-all/farmers-market-search/find-a-farmers-market/#!biz/id/58ef67a507ac80312fa958c0,,,,,,,"7660 Fulton Dr NW, Massillon, Ohio, 44646",Ohio,Massillon,7660 Fulton Dr NW,44646,-81.491675841017,40.860830499583,,
farmers market,"Apr 4th, 2024",default-farmersmarket-4-3.jpg,312261,Jefferson Farmers Market,,,,,https://www.facebook.com/JeffersonOhioFarmersMarket/,,,,,,,"42 E Jefferson St, Jefferson, Ohio, 44047",Ohio,Jefferson,42 E Jefferson St,44047,-80.767169995591,41.737937983935,,
farmers market,"Apr 4th, 2024",default-farmersmarket-4-3.jpg,312262,Josephine's Harvest Market,,,,,https://www.localharvest.org/josephines-harvest-market-M35363,,,,,,,"628 Lock Ave, Columbus, Ohio, 43207",Ohio,Columbus,628 Lock Ave,43207,-82.97851101634,39.915285007989,,
farmers market,"Apr 4th, 2024",default-farmersmarket-4-3.jpg,312263,Lake Metroparks Farmpark Farmers' Market,,,,,https://nfmd.org/oh/kirtland/1008131/,,,,,,,"8800 Euclid Chardon Rd, Kirtland, Ohio, 44094",Ohio,Kirtland,8800 Euclid Chardon Rd,44094,-81.328541003786,41.576507013094,,
farmers market,"Apr 4th, 2024",default-farmersmarket-4-3.jpg,312264,Lakeland Local Market,,,,,http://ohioproud.org/farm-markets-all/farmers-market-search/find-a-farmers-market/#!biz/id/57f56c58178f4e557a7b2685/Contact,,,,,,,"7700 Clocktower Dr, Willoughby, Ohio, 44094",Ohio,Willoughby,7700 Clocktower Dr,44094,-81.365283998365,41.637334987352,,
farmers market,"Apr 4th, 2024",default-farmersmarket-4-3.jpg,312265,LCCC Farmer's Market,,,,,https://www.facebook.com/events/559957317865402/559957354532065/?active_tab=about,,,,,,,"1005 N Abbe Rd, Elyria, Ohio, 44035",Ohio,Elyria,1005 N Abbe Rd,44035,-82.077043576279,41.413827349884,,
farmers market,"Apr 4th, 2024",default-farmersmarket-4-3.jpg,312266,Lebanon Ohio Farmers Market,,,,,https://www.facebook.com/lebanonohiofarmersmarket?paipv=0&eav=AfagYu-aBAEsWcWracarUxrCDp4tVXqUQz4OkNSTrgMeWYQWdLoCufszT7w-xI9MKtg,,,,,,,"120 W South St, Lebanon, Ohio, 45036",Ohio,Lebanon,120 W South St,45036,-84.211019000137,39.43272400621,,
farmers market,"Apr 4th, 2024",default-farmersmarket-4-3.jpg,312267,Leipsic Farmers' Market,,,,,https://www.eatwellguide.org/listings/76366/locations/32296?latitude=40.976015&longitude=-83.919073,,,,,,,"10 W Main St, Leipsic, Ohio, 45856",Ohio,Leipsic,10 W Main St,45856,-83.986647019157,41.100353012374,,
farmers market,"Apr 4th, 2024",default-farmersmarket-4-3.jpg,312268,Lettuce Eat Well Farmers' Market,,,,,https://lewfm.org/,,,,,,,"3820 Westwood Northern Blvd, Cincinnati, Ohio, 45211",Ohio,Cincinnati,3820 Westwood Northern Blvd,45211,-84.611556960555,39.166166996195,,
farmers market,"Apr 4th, 2024",default-farmersmarket-4-3.jpg,312269,Lytle Market,,,,,https://www.localharvest.org/lytle-market-M31365,,,,,,,"210 W Forest Ave, South Lebanon, Ohio, 45065",Ohio,South Lebanon,210 W Forest Ave,45065,-84.218299018321,39.372289981401,,
farmers market,"Apr 4th, 2024",default-farmersmarket-4-3.jpg,312270,Madeira Winter Farmers' Market,,,,,https://madeirafarmersmarket.com/,,,,,,,"8000 Miami Ave, Cincinnati, Ohio, 45243",Ohio,Cincinnati,8000 Miami Ave,45243,-84.360936965961,39.202521992476,,
farmers market,"Apr 4th, 2024",default-farmersmarket-4-3.jpg,312271,Main Street Market,,,,,http://ohioproud.org/farm-markets-all/farmers-market-search/find-a-farmers-market/#!biz/id/57f56c58178f4e557a7b2691/Contact,,,,,,,"44 1/2 S Main St, Mount Gilead, Ohio, 43338",Ohio,Mount Gilead,44 1/2 S Main St,43338,-82.82841602472,40.54794598862,,
farmers market,"Apr 4th, 2024",default-farmersmarket-4-3.jpg,312272,Main Street Orrville Farmers' Market,,,,,https://nfmd.org/oh/orrville/1002702/,,,,,,,"142 Depot St, Orrville, Ohio, 44667",Ohio,Orrville,142 Depot St,44667,-81.767246966142,40.840057996493,,
farmers market,"Apr 4th, 2024",default-farmersmarket-4-3.jpg,312273,Maize Valley Winery & Market,,,,,https://www.maizevalley.com/,,,,,,,"6193 Edison St NE, Hartville, Ohio, 44632",Ohio,Hartville,6193 Edison St NE,44632,-81.279144017621,40.95382498156,,
farmers market,"Apr 4th, 2024",default-farmersmarket-4-3.jpg,312274,Market Central,,,,,http://ohioproud.org/farm-markets-all/farmers-market-search/find-a-farmers-market/#!biz/id/57f56c58178f4e557a7b2696/Contact,,,,,,,"17 Ridge Rd N, Mansfield, Ohio, 44905",Ohio,Mansfield,17 Ridge Rd N,44905,-82.469283995437,40.758722983654,,
farmers market,"Apr 4th, 2024",default-farmersmarket-4-3.jpg,312275,Massillon Farmers Market,,,,,https://www.eatwellguide.org/listings/76395/locations/32325?latitude=40.7951879&longitude=-81.5500374,,,,,,,"505 Erie St N, Massillon, Ohio, 44646",Ohio,Massillon,505 Erie St N,44646,-81.526184017549,40.799990990572,,
farmers market,"Apr 4th, 2024",default-farmersmarket-4-3.jpg,312278,Miamisburg Farmers' Market,,,,,https://www.facebook.com/miamisburgfarmersmarket/,,,,,,,"1146 E Central Ave, Miamisburg, Ohio, 45342",Ohio,Miamisburg,1146 E Central Ave,45342,-84.270846007518,39.639338003304,,
farmers market,"Apr 4th, 2024",default-farmersmarket-4-3.jpg,312279,Middlefield Market,,,,,https://nfmd.org/oh/middlefield/1002020/,,,,,,,"15864 Nauvoo Rd, Middlefield, Ohio, 44062",Ohio,Middlefield,15864 Nauvoo Rd,44062,-81.073206021019,41.480345000271,,
farmers market,"Apr 4th, 2024",default-farmersmarket-4-3.jpg,312280,Montgomery Farmers' Market,,,,,https://montgomeryfarmersmarket.org/,,,,,,,"9609 Montgomery Rd, Montgomery, Ohio, 45242",Ohio,Montgomery,9609 Montgomery Rd,45242,-84.353905974121,39.231439013608,,
farmers market,"Apr 4th, 2024",default-farmersmarket-4-3.jpg,312281,Mount Gilead Saturday Farmers' Market,,,,,https://www.eatwellguide.org/listings/76404/locations/32334,,,,,,,"W High St, Morrow County, Mount Gilead, Ohio 43338",Ohio,Mount Gilead,W High St,43338,-82.83085,40.54925,,
farmers market,"Apr 4th, 2024",default-farmersmarket-4-3.jpg,312282,Mount Vernon Farmers' Market,,,,,https://www.facebook.com/mountvernonfarmersmarket/,,,,,,,"1 Public Sq, Mount Vernon, Ohio, 43050",Ohio,Mount Vernon,1 Public Sq,43050,-82.484525983447,40.393382981603,,
farmers market,"Apr 4th, 2024",default-farmersmarket-4-3.jpg,312285,NEOMED Farmers' Market,,,,,http://ohioproud.org/farm-markets-all/farmers-market-search/find-a-farmers-market/#!biz/id/57f56c59178f4e557a7b26ae/Contact,,,,,,,"4209 State Route 44, Rootstown, Ohio, 44272",Ohio,Rootstown,4209 State Route 44,44272,-81.245151041655,41.103171008221,,
farmers market,"Apr 4th, 2024",default-farmersmarket-4-3.jpg,312286,New Carlisle Farmers Market,,,,,https://www.facebook.com/NewCarlisleFarmersMarket/,,,,,,,"113 W Jefferson St, New Carlisle, Ohio, 45344",Ohio,New Carlisle,113 W Jefferson St,45344,-84.025447016594,39.936192994908,,
farmers market,"Apr 4th, 2024",default-farmersmarket-4-3.jpg,312287,New Concord Farmers' Market,Located between the New Concord Elementary School and the Library,,,,https://www.facebook.com/events/1388643117955968/1388643161289297/,,,,,,,"75 W Main St, New Concord, Ohio, 43762",Ohio,New Concord,75 W Main St,43762,-81.736507006798,39.993981020522,,
farmers market,"Apr 4th, 2024",default-farmersmarket-4-3.jpg,312288,New Lexington Farmers' Market,,,,,http://www.farmsandmarkets.com/ohio/new-lexington/farmers-markets/new-lexington-farmers-market/1001059,,,,,,,"105 N Main St, New Lexington, Ohio, 43764",Ohio,New Lexington,105 N Main St,43764,-82.208205984071,39.714013007336,,
farmers market,"Apr 4th, 2024",default-farmersmarket-4-3.jpg,312289,North Union Farmers Market - Shaker Square,"Award-winning Shaker Square Market will be on East and West Bound Shaker Blvd. You will find farms and food producers with fresh produce, meats, dairy, baked goods and more.",,northunionfarmersmarket@yahoo.com,216-751-7656,http://www.northunionfarmersmarket.org/markets/shaker-square-2/,,,,,,,"13209 Shaker Sq, Cleveland, Ohio, 44120",Ohio,Cleveland,13209 Shaker Sq,44120,-81.589576015989,41.484519020414,,
farmers market,"Apr 4th, 2024",default-farmersmarket-4-3.jpg,312290,North Union Farmers Market - Chagrin Falls Market,"Located in the beautiful village of Chagrin Falls, this market is filled with Northeast Ohioâ€™s finest farmers. Chagrin Falls Market is located on at Bandstand Triangle Park. You will find farms and food producers with fresh produce, meats, dairy, baked goods and more.
",,northunionfarmersmarket@yahoo.com,216-751-7656,http://www.northunionfarmersmarket.org/markets/chagrin-falls/,,,,,,,"11 N Franklin St, Chagrin Falls, Ohio, 44022",Ohio,Chagrin Falls,11 N Franklin St,44022,-81.391925039418,41.430166988368,,
farmers market,"Apr 4th, 2024",default-farmersmarket-4-3.jpg,312293,Northside Farmers Market ,,,jwconverse@gmail.com,330-518-6971,https://www.facebook.com/northsidefarmersmarkets/,https://www.facebook.com/northsidefarmersmarket/,,,,,,"901 Elm St, Youngstown, Ohio, 44505",Ohio,Youngstown,901 Elm St,44505,-80.645236019346,41.112536988739,,
farmers market,"Apr 4th, 2024",default-farmersmarket-4-3.jpg,312294,Norwalk Farmers Market OH,,,,,https://www.norwalkfarmersmarket.com/index.html,,,,,,,"319 E Main St, Norwalk, Ohio, 44857",Ohio,Norwalk,319 E Main St,44857,-82.591017979472,41.254414991128,,
farmers market,"Apr 4th, 2024",default-farmersmarket-4-3.jpg,312295,Oberlin Farmers' Market,,,,,https://www.oberlinfarmersmarket.info/,,,,,,,"85 S Main St, Oberlin, Ohio, 44074",Ohio,Oberlin,85 S Main St,44074,-82.216930036534,41.289316020575,,
farmers market,"Apr 4th, 2024",default-farmersmarket-4-3.jpg,312296,Oberlin Winter Market,,,,,https://www.facebook.com/OberlinWinterMarket/,,,,,,,"198 E College St, Oberlin, Ohio, 44074",Ohio,Oberlin,198 E College St,44074,-82.20980499974,41.292338995865,,
farmers market,"Apr 4th, 2024",default-farmersmarket-4-3.jpg,312299,Old Brooklyn Farmers Market,,,,,https://www.facebook.com/oldbrooklynfarmersmarket/,,,,,,,"4200 Pearl Rd, Cleveland, Ohio, 44109",Ohio,Cleveland,4200 Pearl Rd,44109,-81.705896966954,41.441333988421,,
farmers market,"Apr 4th, 2024",default-farmersmarket-4-3.jpg,312300,Original Portsmouth Farmers' Market,,,,,https://sites.google.com/view/portsmouthfarmersmarket/home,,,,,,,"Market St & 2nd St, Portsmouth, Ohio, 45662",Ohio,Portsmouth,Market St & 2nd St,45662,-83.003069992644,38.731670006519,,
farmers market,"Apr 4th, 2024",default-farmersmarket-4-3.jpg,312301,Orrville Farmers Market,,,,,https://www.local-farmers-markets.com/market/3849/orrville/orrville-farmers-market,,,,,,,"315 W Market St, Orrville, Ohio, 44667",Ohio,Orrville,315 W Market St,44667,-81.766904984492,40.840707306013,,
farmers market,"Apr 4th, 2024",default-farmersmarket-4-3.jpg,312303,Oxford Original Farmers Market,,,,,https://oxfordfarmersmarket.com/,,,,,,,"45056, Oxford, Ohio",Ohio,Oxford,,45056,-84.74242,39.509195,,
farmers market,"Apr 4th, 2024",default-farmersmarket-4-3.jpg,312304,Painesville Farmers Market,,,,,https://www.facebook.com/PainesvilleFM/,,,,,,,"44077, Painesville, Ohio",Ohio,Painesville,,44077,-81.2457841,41.7247673,,
farmers market,"Apr 4th, 2024",default-farmersmarket-4-3.jpg,312305,Pearl Market,,,,,https://nfmd.org/oh/columbus/1000012/,,,,,,,"30 E Broad St, Columbus, Ohio, 43215",Ohio,Columbus,30 E Broad St,43215,-82.999397964682,39.96279598212,,
farmers market,"Apr 4th, 2024",default-farmersmarket-4-3.jpg,312306,"Pleasant Plain Farmers Market, LLC",,,,,https://www.facebook.com/PleasantPlainFarmersMarket/,,,,,,,"9120 Morrow Rossburg Rd, Pleasant Plain, Ohio, 45162",Ohio,Pleasant Plain,9120 Morrow Rossburg Rd,45162,-84.098317019687,39.293756996884,,
farmers market,"Apr 4th, 2024",default-farmersmarket-4-3.jpg,312307,PNC 2nd Street Market,,,,,https://www.metroparks.org/places-to-go/2nd-street-market/,,,,,,,"600 E 2nd St, Dayton, Ohio, 45402",Ohio,Dayton,600 E 2nd St,45402,-84.180781032974,39.762630015501,,
farmers market,"Apr 4th, 2024",default-farmersmarket-4-3.jpg,312309,Powell Chamber Farmers' Market,,,,,https://www.facebook.com/PowellChamberFarmersMarket/,,,,,,,"240 N Liberty St, Powell, Ohio, 43065",Ohio,Powell,240 N Liberty St,43065,-83.07483601527,40.162768997328,,
farmers market,"Apr 4th, 2024",default-farmersmarket-4-3.jpg,312311,"Reading Farmers Market, LLC",,,,,https://www.facebook.com/ReadingFarmerMarket/,,,,,,,"9150 Reading Rd, Cincinnati, Ohio, 45215",Ohio,Cincinnati,9150 Reading Rd,45215,-84.439280016552,39.224911983695,,
farmers market,"Apr 4th, 2024",default-farmersmarket-4-3.jpg,312312,Red Barn Market,,,,,https://nfmd.org/oh/belpre/1007235/,,,,,,,"2100 Washington Blvd, Belpre, Ohio, 45714",Ohio,Belpre,2100 Washington Blvd,45714,-81.603849978002,39.278243980034,,
farmers market,"Apr 4th, 2024",default-farmersmarket-4-3.jpg,312313,Red Rock Farmers Market,,,,,https://nfmd.org/oh/aurora/10000223/,,,,,,,"146 S Chillicothe Rd, Aurora, Ohio, 44202",Ohio,Aurora,146 S Chillicothe Rd,44202,-81.346348021806,41.313138981961,,
farmers market,"Apr 4th, 2024",default-farmersmarket-4-3.jpg,312314,Reynoldsburg Farmers' Market,,,,,https://www.facebook.com/reynoldsburgfarmersmarket/,,,,,,,"7232 E Main St, Reynoldsburg, Ohio, 43068",Ohio,Reynoldsburg,7232 E Main St,43068,-82.805759991894,39.955607997233,,
farmers market,"Apr 4th, 2024",default-farmersmarket-4-3.jpg,312315,Richwood Farmers' Market,Located on Franklin St. in front of the library,,,,https://www.facebook.com/richwoodfarmersmarket/,,,,,,,"4 E Ottawa St, Richwood, Ohio, 43344",Ohio,Richwood,4 E Ottawa St,43344,-83.29608297129,40.426296997083,,
farmers market,"Apr 4th, 2024",default-farmersmarket-4-3.jpg,312316,Rinky Dinks Flea & Farmers Market,,,,,https://www.menupix.com/ohio/restaurants/380009102/Rinky-Dinks-Flea-and-Farmers-Market-Marietta-OH,,,,,,,"404 Fort Harmar Dr, Marietta, Ohio, 45750",Ohio,Marietta,404 Fort Harmar Dr,45750,-81.464145798605,39.414051857688,,
farmers market,"Apr 4th, 2024",default-farmersmarket-4-3.jpg,312317,Ripley Farmer's Market,,,,,https://nfmd.org/oh/ripley/1005643/,,,,,,,"116 Main St, Ripley, Ohio, 45167",Ohio,Ripley,116 Main St,45167,-83.844692028987,38.746081012649,,
farmers market,"Apr 4th, 2024",default-farmersmarket-4-3.jpg,312318,Rittberger Meats Farmers Market,,,,,https://www.localharvest.org/rittberger-meats-farm-fresh-market-M33847,,,,,,,"1900 Lutz Ln, Zanesville, Ohio, 43701",Ohio,Zanesville,1900 Lutz Ln,43701,-81.978036995036,39.924126993829,,
farmers market,"Apr 4th, 2024",default-farmersmarket-4-3.jpg,312319,Rogers Community Auction & Open Air Market,,,,,https://rogersohio.com/,,,,,,,"45625 State Route 154, New Waterford, Ohio, 44445",Ohio,New Waterford,45625 State Route 154,44445,-80.641190565911,40.792404243675,,
farmers market,"Apr 4th, 2024",default-farmersmarket-4-3.jpg,312320,Roseville Community Farmer's Market,,,,,https://www.whiznews.com/roseville-farmers-market-returns/,,,,,,,"41 N Main St, Roseville, Ohio, 43777",Ohio,Roseville,41 N Main St,43777,-82.072999012691,39.804889014831,,
farmers market,"Apr 4th, 2024",default-farmersmarket-4-3.jpg,312321,St. Paris Farmers Market,,,,,https://stparisfarmersmarket-farmersmarket.business.site/,,,,,,,"135 W Main St, Saint Paris, Ohio, 43072",Ohio,Saint Paris,135 W Main St,43072,-83.960363969188,40.128466980592,,
farmers market,"Apr 4th, 2024",default-farmersmarket-4-3.jpg,312322,Sayler Park Farmers' Market,,,,,https://www.facebook.com/Saylerparkfarmersmarket,,,,,,,"6610 Parkland Ave, Cincinnati, Ohio, 45233",Ohio,Cincinnati,6610 Parkland Ave,45233,-84.691644033739,39.113357988705,,
farmers market,"Apr 4th, 2024",default-farmersmarket-4-3.jpg,312323,Shelby Farmers' Market,,,,,https://www.facebook.com/Shelby-Farmers-Market-269675866394028/,,,,,,,"Blackfork Ct, Shelby, Ohio, 44875",Ohio,Shelby,Blackfork Ct,44875,-82.655345021121,40.867075007813,,
farmers market,"Apr 4th, 2024",default-farmersmarket-4-3.jpg,312324,Shiloh Farmers' Market,,,,,https://www.facebook.com/ShilohFarmersMarket/,,,,,,,"5300 Philadelphia Dr, Dayton, Ohio, 45415",Ohio,Dayton,5300 Philadelphia Dr,45415,-84.234705001225,39.818487982181,,
farmers market,"Apr 4th, 2024",default-farmersmarket-4-3.jpg,312325,Spencerville OH Farmers Market,,,,,https://www.givinggarden.io/farmers-markets/7097/ohio/spencerville/spencerville-oh-farmers-market,,,,,,,"W North St & OH-66, Spencerville, Ohio, 45887",Ohio,Spencerville,W North St & OH-66,45887,-84.349080009549,40.714199990367,,
farmers market,"Apr 4th, 2024",default-farmersmarket-4-3.jpg,312327,Springdale Farmers' Market,,,,,https://www.eatwellguide.org/listings/76454/locations/32385?latitude=39.3030397&longitude=-84.5227361,,,,,,,"11494 Walnut St, Cincinnati, Ohio, 45246",Ohio,Cincinnati,11494 Walnut St,45246,-84.483864030095,39.284183019439,,
farmers market,"Apr 4th, 2024",default-farmersmarket-4-3.jpg,312328,Springfield Farmers Market,,,,,https://www.facebook.com/SpringfieldFarmMarket/,,,,,,,"117 S Fountain Ave, Springfield, Ohio, 45502",Ohio,Springfield,117 S Fountain Ave,45502,-83.811488041566,39.922841000335,,
farmers market,"Apr 4th, 2024",default-farmersmarket-4-3.jpg,312330,StarkFresh Corridor Farmers' Market,,,,,https://www.eatwellguide.org/listings/73108/locations/28699,,,,,,,"1500 Superior Ave NE, Canton, Ohio, 44705",Ohio,Canton,1500 Superior Ave NE,44705,-81.342971036836,40.81257901658,,
farmers market,"Apr 4th, 2024",default-farmersmarket-4-3.jpg,312332,Stimmel's Saturday Farmer's Market,,,,,https://nfmd.org/oh/bowling-green/1009177/,,,,,,,"1220 W Wooster St, Bowling Green, Ohio, 43402",Ohio,Bowling Green,1220 W Wooster St,43402,-83.672195982035,41.372712981595,,
farmers market,"Apr 4th, 2024",default-farmersmarket-4-3.jpg,312333,Strongsville Farmers' Market,,,,,http://ohioproud.org/farm-markets-all/farmers-market-search/find-a-farmers-market/#!biz/id/57f56c59178f4e557a7b26fa/Contact,,,,,,,"18100 Royalton Rd, Strongsville, Ohio, 44136",Ohio,Strongsville,18100 Royalton Rd,44136,-81.827186039568,41.318654986712,,
farmers market,"Apr 4th, 2024",default-farmersmarket-4-3.jpg,312334,Swiss Country Market,,,,,https://yellow.place/en/swiss-country-market-elida-usa,,,,,,,"7125 N West St, Lima, Ohio, 45807",Ohio,Lima,7125 N West St,45807,-84.138316970383,40.840421016719,,
farmers market,"Apr 4th, 2024",default-farmersmarket-4-3.jpg,312336,Tallmadge Farmers Market,,,,,https://tallmadge-ohio.org/190/Farmers-Market,,,,,,,"46 N Munroe Rd, Tallmadge, Ohio, 44278",Ohio,Tallmadge,46 N Munroe Rd,44278,-81.412723977777,41.104848981418,,
farmers market,"Apr 4th, 2024",default-farmersmarket-4-3.jpg,312337,The Great Sidney Farmers' Market,,,,,https://www.facebook.com/sidneyfarmersmarketoh/,,,,,,,"100 E Court St, Sidney, Ohio, 45365",Ohio,Sidney,100 E Court St,45365,-84.15588099703,40.285014989919,,
farmers market,"Apr 4th, 2024",default-farmersmarket-4-3.jpg,312338,The Heights Farmers Market,,,,,https://www.hhoh.org/542/Farmers-Market-at-The-Heights,,,,,,,"8625 Brandt Pike, Dayton, Ohio, 45424",Ohio,Dayton,8625 Brandt Pike,45424,-84.102129025432,39.878701018113,,
farmers market,"Apr 4th, 2024",default-farmersmarket-4-3.jpg,312339,The Indoor Winter Market at Crocker Park,,,,,http://www.northunionfarmersmarket.org/markets/crocker-park/,,,,,,,"292 Main St, Westlake, Ohio, 44145",Ohio,Westlake,292 Main St,44145,-81.951712367278,41.457261524551,,
farmers market,"Apr 4th, 2024",default-farmersmarket-4-3.jpg,312340,The Market on Michigan Avenue,,,,,https://www.localharvest.org/the-market-on-michigan-avenue-M72268,,,,,,,"104 S Michigan Ave, Edgerton, Ohio, 43517",Ohio,Edgerton,104 S Michigan Ave,43517,-84.748157490882,41.448635681773,,
farmers market,"Apr 4th, 2024",default-farmersmarket-4-3.jpg,312341,The Original Delaware Farmer's Market,,,,,,,,,,,,"236 Pennsylvania Ave, Delaware, Ohio, 43015",Ohio,Delaware,236 Pennsylvania Ave,43015,-83.075214039104,40.314262006578,,
farmers market,"Apr 4th, 2024",default-farmersmarket-4-3.jpg,312343,The Raven's Farmers' Market,,,,,https://www.eatwellguide.org/listings/76473/locations/32407,,,,,,,"1555 S James Rd, Columbus, Ohio, 43227",Ohio,Columbus,1555 S James Rd,43227,-82.915980006995,39.93895001241,,
farmers market,"Apr 4th, 2024",default-farmersmarket-4-3.jpg,312344,TriPoint Farmers' Market,,,,,https://www.localharvest.org/tripoint-farmers-market-M38736,,,,,,,"7590 Auburn Rd, Concord Township, Ohio, 44077",Ohio,Concord Township,7590 Auburn Rd,44077,-81.246880982652,41.663274002105,,
farmers market,"Apr 4th, 2024",default-farmersmarket-4-3.jpg,312345,Tuscarawas Valley Farmers' Market,,,,,https://www.tvffm.org/,,,,,,,"259 S Tuscarawas Ave, Dover, Ohio, 44622",Ohio,Dover,259 S Tuscarawas Ave,44622,-81.472116072678,40.513843329011,,
farmers market,"Apr 4th, 2024",default-farmersmarket-4-3.jpg,312346,Twinsburg Farmers' Market,,,,,,,,,,,,"10075 Ravenna Rd, Twinsburg, Ohio, 44087",Ohio,Twinsburg,10075 Ravenna Rd,44087,-81.447455986146,41.318828995022,,
farmers market,"Apr 4th, 2024",default-farmersmarket-4-3.jpg,312349,Uptown Farmers Market At Garden Park,,,,,https://www.localharvest.org/uptown-farmers-market-at-garden-park-M29795,,,,,,,"3581 W Galbraith Rd, Cincinnati, Ohio, 45239",Ohio,Cincinnati,3581 W Galbraith Rd,45239,-84.600186992716,39.220200013006,,
farmers market,"Apr 4th, 2024",default-farmersmarket-4-3.jpg,312350,Valley City Farmers Market,,,,,https://www.localharvest.org/valley-city-farmers-market-M54013,,,,,,,"6615 Center Rd, Valley City, Ohio, 44280",Ohio,Valley City,6615 Center Rd,44280,-81.925646998885,41.238034992124,,
farmers market,"Apr 4th, 2024",default-farmersmarket-4-3.jpg,312351,Vandalia Community Farmers Market,,,,,https://nfmd.org/oh/vandalia/1010596/,,,,,,,"Kenbrook Dr & S Perry St, Vandalia, Ohio, 45377",Ohio,Vandalia,Kenbrook Dr & S Perry St,45377,-84.197209982293,39.890029998445,,
farmers market,"Apr 4th, 2024",default-farmersmarket-4-3.jpg,312352,Village of Grafton Farmers' Market,,,,,https://www.clevescene.com/cleveland/grafton-farmers-market/Location?oid=1434101,,,,,,,"960 Main St, Grafton, Ohio, 44044",Ohio,Grafton,960 Main St,44044,-82.05524999744,41.273252983239,,
farmers market,"Apr 4th, 2024",default-farmersmarket-4-3.jpg,312353,Wakeman Farmers' Market,,,,,https://www.eatwellguide.org/listings/76503/locations/32465,,,,,,,"10 E Main St, Wakeman, Ohio, 44889",Ohio,Wakeman,10 E Main St,44889,-82.401806992666,41.254480998616,,
farmers market,"Apr 4th, 2024",default-farmersmarket-4-3.jpg,312354,Warren County Farmers' Market,,,,,https://www.facebook.com/WarrenOhioFarmersMarket/,,,,,,,Perkins Park,Ohio,Warren,Perkins Dr NW,44483,-80.82531,41.23835,,
farmers market,"Apr 4th, 2024",default-farmersmarket-4-3.jpg,312356,Wellington Farmers' Market,,,,,https://nfmd.org/oh/wellington/1008196/,,,,,,,"115 Willard Memorial Sq, Wellington, Ohio, 44090",Ohio,Wellington,115 Willard Memorial Sq,44090,-82.216875973259,41.169261015565,,
farmers market,"Apr 4th, 2024",default-farmersmarket-4-3.jpg,312357,West Elm Street Farmers Market,,,,,https://www.landcan.org/local-resources/West-Elm-Street-Farmers-Market/48060,,,,,,,"3000 W Elm St, Lima, Ohio, 45805",Ohio,Lima,3000 W Elm St,45805,-84.159287989214,40.73839800001,,
farmers market,"Apr 4th, 2024",default-farmersmarket-4-3.jpg,312358,West Jefferson Farmer's Market+,,,,,https://nfmd.org/oh/west-jefferson/1009539/,,,,,,,"55 E Main St, West Jefferson, Ohio, 43162",Ohio,West Jefferson,55 E Main St,43162,-83.267341006206,39.944662991885,,
farmers market,"Apr 4th, 2024",default-farmersmarket-4-3.jpg,312359,Wild Oats Farmer's Market,,,,,https://bestfarmersmarkets.org/place/wild-oats-farmers-market-columbus-oh.html,,,,,,,"1555 W Lane Ave, Columbus, Ohio, 43221",Ohio,Columbus,1555 W Lane Ave,43221,-83.053043989024,40.006556012671,,
farmers market,"Apr 4th, 2024",default-farmersmarket-4-3.jpg,312360,Williams County Farmers' Market,,,,,https://www.facebook.com/WilliamsCoFarmersMarket/,,,,,,,"43506, Bryan, Ohio",Ohio,Bryan,,43506,-84.54906,41.47594,,
farmers market,"Apr 4th, 2024",default-farmersmarket-4-3.jpg,312361,Willoughby Outdoor Market,,,,,https://www.facebook.com/WilloughbyOutdoorMarket/,,,,,,,"1 E Spaulding St, Willoughby, OH 44094, USA",Ohio,Willoughby,1 East Spaulding Street,44094,-81.4051327,41.6394533,,
farmers market,"Apr 4th, 2024",default-farmersmarket-4-3.jpg,312362,Woodsfield Farmers Market,,,,,https://www.facebook.com/people/Woodsfield-Ohio-Farmers-Market/100063583390761/?paipv=0&eav=AfY4DGWuTCJB-fzpYekTLcAXMHmQb-er2sPEqFBOqP92H6ITNf1WL1B2HBhqaSF2QhQ&_rdr,,,,,,,"47029 Moore Ridge Rd, Woodsfield, Ohio, 43793",Ohio,Woodsfield,47029 Moore Ridge Rd,43793,-81.110814028005,39.776580980875,,
farmers market,"Apr 4th, 2024",default-farmersmarket-4-3.jpg,312363,Worthington Farmers Market,,,,,https://www.worthingtonfarmersmarket.com/,,,,,,,"7227 N High St, Worthington, Ohio, 43085",Ohio,Worthington,7227 N High St,43085,-83.019344966402,40.108651993847,,
farmers market,"Apr 4th, 2024",default-farmersmarket-4-3.jpg,312364,Wyandot County Farmers Market,,,,,https://www.facebook.com/Wyandotcofarmersmarkry/,,,,,,,"5742 County Highway 43, Upper Sandusky, Ohio, 43351",Ohio,Upper Sandusky,5742 County Highway 43,43351,-83.221172980602,40.89121899609,,
farmers market,"Apr 4th, 2024",default-farmersmarket-4-3.jpg,312366,Your Ohio MarketMaker Team,,,,,https://southcenters.osu.edu/direct-marketing,,,,,,,"1864 Shyville Rd, Piketon, Ohio, 45661",Ohio,Piketon,1864 Shyville Rd,45661,-82.993258974977,39.049791981955,,
farmers market,"Apr 4th, 2024",default-farmersmarket-4-3.jpg,312367,Zayneville Farmers Market,,,,,,,,,,,,"2620 Ford Rd, Mount Perry, Ohio, 43760",Ohio,Mount Perry,2620 Ford Rd,43760,-82.139192997543,39.900532984128,,
farmers market,"Apr 4th, 2024",default-farmersmarket-4-3.jpg,312368,Zimmerman Farms at Old School Marketplace,,,,,https://www.localharvest.org/zimmerman-farms-at-old-school-marketplace-M66258,,,,,,,"11836 South Ave, North Lima, Ohio, 44452",Ohio,North Lima,11836 South Ave,44452,-80.661431029747,40.946798013033,,
farmers market,"Apr 4th, 2024",default-farmersmarket-4-3.jpg,313836,North Union Farmers Market - Cleveland Clinic Main Campus,"The Cleveland Clinic Main Campus Market has become a vibrant community gathering place filled with local farmers and artisan food producers. Health screenings and live music make this an educational and fun destination. Located at Crile Mall (across the street from the Crile Building at 2049 E. 100th Street between Carnegie Avenue and Euclid Avenue). You will find farms and food producers with fresh produce, meats, dairy, baked goods and more.",,northunionfarmersmarket@yahoo.com,216-751-7656,http://www.northunionfarmersmarket.org/markets/cleveland-clinic-main-campus/,,,,,,,"2049 E 100th St, Cleveland, Ohio, 44106",Ohio,Cleveland,2049 E 100th St,44106,-81.616662974291,41.503192014761,,
farmers market,"Apr 4th, 2024",default-farmersmarket-4-3.jpg,313837,North Union Farmers Market - University Hospitals,"Introducing our market at University Hospitals Cleveland Medical Center at Lakeside! Locally sourced lunch is served while you shop at this world-class medical and educational facility, Free parking 30 steps from farm-fresh produce!",,northunionfarmersmarket@yahoo.com,216-751-7656,http://www.northunionfarmersmarket.org/markets/university-hospitals/,,,,,,,"2074 Adelbert Rd, Cleveland, Ohio, 44106",Ohio,Cleveland,2074 Adelbert Rd,44106,-81.607329976562,41.504072994694,,
farmers market,"Apr 4th, 2024",default-farmersmarket-4-3.jpg,313838,Barberton Farmersâ€™ Market,"Seasonal Farmers Market located in the parking lot on West Hopocan Avenue, across from McDonaldâ€™s. ",,bhurbean@gmail.com ,330-807-1374 or 330-,www.Barbertonfarmersmarket.com,,,,,,,"489 W Hopocan Ave, Barberton, Ohio, 44203",Ohio,Barberton,489 W Hopocan Ave,44203,-81.607338023189,41.018072017943,,
farmers market,"Apr 4th, 2024",default-farmersmarket-4-3.jpg,313839,North Union Farmers Market - Crocker Park Indoor Winter Market,"Support your local farms year-round at Crocker Parkâ€™s Winter Farmers Market! Items to look forward to include antibiotic and hormone-free beef, pork, poultry and dairy products, organic maple syrup, honey, farm-fresh eggs, cheeses, winter greens, herbs, apples, potatoes, lettuces, organic grains, specialty goods, and root vegetables. Free parking is available and within close proximity to the market.  We look forward to seeing you soon!",,northunionfarmersmarket@yahoo.com,216-751-7656,http://www.northunionfarmersmarket.org/markets/crocker-park-2/,,,,,,,"292 Main St, Westlake, Ohio, 44145",Ohio,Westlake,292 Main St,44145,-81.951712367278,41.457261524551,,
farmers market,"Apr 4th, 2024",default-farmersmarket-4-3.jpg,313840,North Union Farmers Market - Van Aken District Indoor Winter Market,"Join us in The Van Aken District in the Van Aken Market Hall at the Indoor Winter Farmers Market and enjoy the magnificence of Ohio produce and products. Items to look forward to, including antibiotic and hormone free beef, pork, poultry and dairy products, organic maple syrup, honey, farm-fresh eggs, cheeses, winter greens, herb, apples, potatoes, lettuces, organic grains, specialty goods and root vegetables. Over 20 farms, bakers and artists will participate at the market. ",,northunionfarmersmarket@yahoo.com,216-751-7656,http://www.northunionfarmersmarket.org/markets/sunset-market-at-the-van-aken-district/,,,,,,,"3441 Tuttle Rd, Beachwood, Ohio, 44122",Ohio,Beachwood,3441 Tuttle Rd,44122,-81.537371479387,41.466134184224,,
farmers market,"Apr 4th, 2024",default-farmersmarket-4-3.jpg,313841,North Union Farmers Market - Crocker Park,"Crocker Park Market is conveniently located at Crocker Park in Westlake on the corner of Crocker Road and Detroit Road in front of Fidelity Investments. Find farms and food producers with fresh produce, meats, dairy, baked goods and more.",,northunionfarmersmarket@yahoo.com,216-751-7656,http://www.northunionfarmersmarket.org/markets/crocker-park/,,,,,,,"1800 Crocker Rd, Westlake, Ohio, 44145",Ohio,Westlake,1800 Crocker Rd,44145,-81.951132441537,41.463633865222,,
farmers market,"Apr 4th, 2024",default-farmersmarket-4-3.jpg,313842,North Union Farmers Market - Sunset Market at The Van Aken District,"Van Aken District Market is located on Tuttle Road. Find farms and food producers with fresh produce, meats, dairy, baked goods and more.",,northunionfarmersmarket@yahoo.com,216-751-7656,http://www.northunionfarmersmarket.org/markets/sunset-market-at-the-van-aken-district/,,,,,,,"3401 Tuttle Rd, Beachwood, Ohio, 44122",Ohio,Beachwood,3401 Tuttle Rd,44122,-81.537367570363,41.465926480357,,
farmers market,"Apr 4th, 2024",default-farmersmarket-4-3.jpg,313843,North Union Farmers Market - Legacy Village Market,"Legacy Village Market is located on Cedar Road in the Capital Grille parking lot. You will find farms and food producers with fresh produce, meats, dairy, baked goods and more.",,northunionfarmersmarket@yahoo.com,216-751-7656,http://www.northunionfarmersmarket.org/markets/legacy-village/,,,,,,,"25389 Cedar Rd, Cleveland, Ohio, 44124",Ohio,Cleveland,25389 Cedar Rd,44124,-81.498747030971,41.501409016317,,
farmers market,"Apr 4th, 2024",default-farmersmarket-4-3.jpg,313844,Champaign County Ohio Virtual Farmers Market,,,,,https://champaignoh.locallygrown.net/welcome,,,,,,,"1645 State Route 54, Urbana, Ohio, 43078",Ohio,Urbana,1645 State Route 54,43078,-83.731158982837,40.084770987781,,
farmers market,"Apr 4th, 2024",default-farmersmarket-4-3.jpg,313846,Ashtabula Farmers' Market,,,,,,,,,,,,"1105 Bridge St, Ashtabula, Ohio, 44004",Ohio,Ashtabula,1105 Bridge St,44004,-80.79974902831,41.899752007751,,
farmers market,"Apr 4th, 2024",default-farmersmarket-4-3.jpg,313847,Baltimore Farmers Market,,Emily Badgett,baltimoreohiofarmersmarket@gmail.com,740-297-9531,https://baltimoredowntownrestoration.com/farmers-market-2/,https://www.facebook.com/BaltimoreFarmersMarket,,,,,,"8865 Lancaster Kirkersville Rd NW, Baltimore, Ohio, 43105",Ohio,Baltimore,8865 Lancaster Kirkersville Rd NW,43105,-82.60231703641,39.85445099876,,
farmers market,"Apr 4th, 2024",default-farmersmarket-4-3.jpg,313848,Canal Winchester Farmers Market,,Karen Stiles,info@destinationcw.org,614-270-5053,www.thecwfm.com,https://www.facebook.com/profile.php?id=100057164332076,,,,,,"100 N High St, Canal Winchester, Ohio, 43110",Ohio,Canal Winchester,100 N High St,43110,-82.805816988836,39.845634996819,,
farmers market,"Apr 4th, 2024",default-farmersmarket-4-3.jpg,313849,Jefferson Farmers' Market,,,,,,,,,,,,"42 E Jefferson St, Jefferson, Ohio, 44047",Ohio,Jefferson,42 E Jefferson St,44047,-80.767169995591,41.737937983935,,
farmers market,"Apr 4th, 2024",default-farmersmarket-4-3.jpg,313850,Keim Family Market,,,,,https://www.yodersbakeryandfurniture.com/,,,,,,,"2621 Burnt Cabin Rd, Seaman, Ohio, 45679",Ohio,Seaman,2621 Burnt Cabin Rd,45679,-83.527173969674,38.927586012952,,
farmers market,"Apr 4th, 2024",default-farmersmarket-4-3.jpg,313851,Keller Market House,"A year round, indoor marketplace in downtown Lancaster",Erin Harvey,info@kellermarkethouse.com,740-277-6305,www.kellermarkethouse.org,https://www.facebook.com/kellermarkethouse/,,,,,,"134 S Columbus St, Lancaster, Ohio, 43130",Ohio,Lancaster,134 S Columbus St,43130,-82.604360963499,39.712720014952,,
farmers market,"Apr 4th, 2024",default-farmersmarket-4-3.jpg,313852,Lovely's Farm Market,,,,,http://lovelysfarmmarket.com/,,,,,,,"330 E Central Ave, Springboro, Ohio, 45066",Ohio,Springboro,330 E Central Ave,45066,-84.227248957928,39.555149025603,,
farmers market,"Apr 4th, 2024",default-farmersmarket-4-3.jpg,313853,Market on Orange,,,,,https://marketonorange.business.site/?utm_source=gmb&utm_medium=referral,,,,,,,"5700 Columbus Pike, Lewis Center, Ohio, 43035",Ohio,Lewis Center,5700 Columbus Pike,43035,-83.032658176046,40.212332230718,,
farmers market,"Apr 4th, 2024",default-farmersmarket-4-3.jpg,313854,Medina Farmers Market,,,,,https://www.facebook.com/profile.php?id=100063798300716,,,,,,,"39 Public Sq, Medina, Ohio, 44256",Ohio,Medina,39 Public Sq,44256,-81.863747985039,41.137790992455,,
farmers market,"Apr 4th, 2024",default-farmersmarket-4-3.jpg,313855,Millersport Lions Community Market,Mathias Miller Park in Millersport on Lancaster Street,Drake Riley,drakeriley14@gmail.com,740-617-9821,https://www.facebook.com/profile.php?id=100083368239645,https://www.instagram.com/kellermarkethouse/,,,,,,"Lancaster, OH 43130, USA",Ohio,Lancaster,,43130,-82.6084961,39.7184598,,
farmers market,"Apr 4th, 2024",default-farmersmarket-4-3.jpg,313857,Olde Fashioned Farmers Market at the Fairfield County Fairgrounds,Fairfield County Fairgrounds during market hours,David Gummere,2183webbsummit@gmail.com,740-304-4553,https://www.facebook.com/groups/286700745550093,,,,,,,"157 E Fair Ave, Lancaster, Ohio, 43130",Ohio,Lancaster,157 E Fair Ave,43130,-82.600203958619,39.726143004245,,
farmers market,"Apr 4th, 2024",default-farmersmarket-4-3.jpg,313858,Pierpont Farmers' Market,,,,,,,,,,,,"1071 State Route 7 N, Pierpont, Ohio, 44082",Ohio,Pierpont,1071 State Route 7 N,44082,-80.571176959468,41.754525979867,,
farmers market,"Apr 4th, 2024",default-farmersmarket-4-3.jpg,313859,Dechant Farm,,,,419-967-0361,https://www.facebook.com/DeChantFarms/,,,,,,,"2705 Huron Avery Rd, Huron, Ohio, 44839",Ohio,Huron,2705 Huron Avery Rd,44839,-82.590759984493,41.366447006057,,
farmers market,"Apr 4th, 2024",default-farmersmarket-4-3.jpg,313860,Farmer Jones Farm Market,,,info@farmerjonesfarm.com,419- 433-4947 567- 6,https://www.farmerjonesfarm.com/pages/farm-market,,,,,,,"1517 Scheid Rd, Huron, Ohio, 44839",Ohio,Huron,1517 Scheid Rd,44839,-82.609097996079,41.358786994293,,
farmers market,"Apr 4th, 2024",default-farmersmarket-4-3.jpg,313861,Pickwick Place,,,,419-562-0683,https://thepickwickplace.com/market/,,,,,,,"1875 N Sandusky Ave, Bucyrus, Ohio, 44820",Ohio,Bucyrus,1875 N Sandusky Ave,44820,-82.972406979172,40.830729985996,,
farmers market,"Apr 4th, 2024",default-farmersmarket-4-3.jpg,313862,Sandusky Farmers Market,,,farmersmarketsandusky@gmail.com,,https://www.facebook.com/SanduskyFarmersMarket,,,,,,,"100 E Washington Row, Sandusky, Ohio, 44870",Ohio,Sandusky,100 E Washington Row,44870,-82.711098963062,41.455241098875,,
farmers market,"Apr 4th, 2024",default-farmersmarket-4-3.jpg,313863,Howland Farmers Market - Summer Market,,,,,http://www.howlandfarmersmarket.com/,,,,,,,"8189 E Market St, Warren, Ohio, 44484",Ohio,Warren,8189 E Market St,44484,-80.743689568987,41.238437396875,,
farmers market,"Jan 4th, 2021",default-farmersmarket-4-3.jpg,301067,Northside Farmers Market,,Emily Diefendorf,northsidefarmersmarket@gmail.com,513-614-3671,www.northsidefm.org,https://www.facebook.com/CinciNorthsideFarmersMarket,,,,,,"4222 Hamilton Ave, Cincinnati , Ohio 45223",Ohio,Cincinnati,4222 Hamilton Ave,45223,-84.539984,39.163947,Year-round,"Fresh fruits, Fresh vegetables, Baked goods, Bedding plants, Coffee/tea, Cut flowers, Eggs, Fresh/dried herbs, Honey, Maple products, Mushrooms, Poultry/fowl meat and products, Prepared foods, Red/other non-poultry meat and products, Soap/body care products"
farmers market,"Jan 5th, 2021",default-farmersmarket-4-3.jpg,301209,Haymaker Farmers' Market,,Andrew Rome,haymakermarket@gmail.com,(330) 422 - 8034,http://haymakermarket.com,https://www.facebook.com/haymaker.farmers.market,https://twitter.com/haymakermarket,,,,,"1435 E Main St Kent, Ohio 44240",Ohio,Kent,"1435 E Main St,",44240,-81.337712,41.155218,January to March,"Fresh fruits, Fresh vegetables, Baked goods, Bedding plants, Canned or preserved fruits/vegetables, Coffee/tea, Crafts/woodworking items, Cut flowers, Dairy products., Eggs, Fresh/dried herbs, Honey, Juices/non-alcoholic ciders, Maple products, Mushrooms, Nursery stock, Nuts, Pet food, Poultry/fowl meat and products, Prepared foods, Red/other non-poultry meat and products, Soap/body care products"
farmers market,"Jun 22nd, 2020",default-farmersmarket-4-3.jpg,301141,Blue Ash Farmers Market,,Peggy Behm,pbehm@blueash.com,5137458644,http://summitparkblueash.com/residents/farmers_market.php,https://www.facebook.com/blueashfarmersmarket/,,,,,,"4335 Glendale Milford Road, Blue Ash, Ohio 45242",Ohio,Blue Ash,4335 Glendale Milford Road,45242,-84.389892,39.251798,,"Fresh fruits, Fresh vegetables, Baked goods, Canned or preserved fruits/vegetables, Crafts/woodworking items, Cut flowers, Honey, Prepared foods"
farmers market,"Mar 19th, 2021",default-farmersmarket-4-3.jpg,301473,Ohio Valley Farmers' Market,,Susan West,ovfarmersmarket@gmail.com,740-676-8187,www.ovfarmersmarket.org,Ohio Valley Farmers' Market,OV Farmers Market @ovfarmersmarket,,,,,"3200 Union St, Bellaire, Ohio 43906",Ohio,Bellaire,3200 Union St,43906,-80.742120,40.014375,May to October,"Fresh fruits, Fresh vegetables, Baked goods, Bedding plants, Canned or preserved fruits/vegetables, Coffee/tea, Crafts/woodworking items, Cut flowers, Dairy products., Eggs, Fresh/dried herbs, Honey, Maple products, Pet food, Poultry/fowl meat and products, Red/other non-poultry meat and products, Soap/body care products"
farmers market,"Mar 27th, 2023",default-farmersmarket-4-3.jpg,312159,All Life Community Market,,,,740-201-8242,http://alllifecommunity.org/services/all-life-community-market/,http://www.facebook.com/AllLifeCenter,,,,,,"5700 Columbus Pike Lewis Center, OH 43035",Ohio,LEWIS CENTER,5700 COLUMBUS PIKE,43035,-83.03271903690798,40.212904582323674,,
farmers market,"Mar 27th, 2023",default-farmersmarket-4-3.jpg,312165,Barnersville Farmers Market,,,,614-425-3043,,,,,,,,"300 East Church Street Barnersville, OH 43713",Ohio,BARNESVILLE,300 E CHURCH ST,43713,-81.1735119479829,39.98814779249316,,
farmers market,"Mar 27th, 2023",default-farmersmarket-4-3.jpg,312167,Bath Church Farmers' Market,,,,,,,,,,,,"4624 Bath Rd., Dayton, OH, 45424",Ohio,Dayton,4624 Bath Rd.,45424,-84.0827886387466,39.82628385145559,,
farmers market,"Mar 27th, 2023",default-farmersmarket-4-3.jpg,312173,Brookville Community Farmers Market,,,,,http://www.brookvillemarket.com,http://www.facebook.com/brookvillecommunityfarmersmarket,,,,,,"706 Market St Brookville, OH 45309",Ohio,BROOKVILLE,706 MARKET ST,45309,-84.41048075664445,39.84023371980815,,
farmers market,"Mar 27th, 2023",default-farmersmarket-4-3.jpg,312174,Brown County Farmers' Markets,,,vbixler2000@yahoo.com,937-515-0109,http://bcfarmersmarket.webs.com/,,,,,,,"7389 Clifton Ave., Russellville, OH, 45168",Ohio,Russellville,7389 Clifton Ave.,45168,-83.80014180583436,38.85133709675104,,
farmers market,"Mar 27th, 2023",default-farmersmarket-4-3.jpg,312175,Brunswick Farmers' Market,,,brunswickareahistory@gmail.com,330-558-6894,http://www.brunswickhistory.com/,https://www.facebook.com/Brunswick-Area-Historical-Society-Heritage-Farm-Museum-Park-113678478644,,,,,,"4613 Laurel Rd., Brunswick, OH, 44212",Ohio,Brunswick,4613 Laurel Rd.,44212,-81.8545474513419,41.22663282070473,,
farmers market,"Mar 27th, 2023",default-farmersmarket-4-3.jpg,312184,Clifton Plaza Farmer's Market,,,,513-381-3436,http://OmEcoCafe.com,,,,,,,"329 Ludlow Ave Cincinnati, OH 45220",Ohio,CINCINNATI,329 LUDLOW AVE,45220,-84.52040540677446,39.14364314395748,,
farmers market,"Mar 27th, 2023",default-farmersmarket-4-3.jpg,312210,Downtown Troy Farmers Market,,,,937-339-5455,https://www.homegrowngreat.com/event/downtown-troy-farmers-market-18/2019-09-28/,https://www.facebook.com/troymainstreet/,,,,,,"405 SW Public Square Suite 231 S. Cherry Street (market location) Troy, OH 45373",Ohio,Troy,405 SW Public Square,45373,-84.20356394186504,40.039586249701536,,
farmers market,"Mar 27th, 2023",default-farmersmarket-4-3.jpg,312216,Euclid Community Farmer's Market,,,,216-289-8656,http://www.cityofeuclid.com,,,,,,,"291 East 222nd Street Euclid, OH 44123",Ohio,EUCLID,291 E 222ND ST,44123,-81.52683690721805,41.60688090941197,,
farmers market,"Mar 27th, 2023",default-farmersmarket-4-3.jpg,312217,Euclid Farmers Market,,,,216-289-8578,,,,,,,,"291 East 222 Street Euclid, OH 44123",Ohio,Euclid,291 East 222 Street,44123,-81.52683690721805,41.60688090941197,,
farmers market,"Mar 27th, 2023",default-farmersmarket-4-3.jpg,312221,Farmers Market of Medina County,,,,,http://www.farmersmarketofmedina.com/,http://www.facebook.com/FarmersMarketofMedina/,,,,,,"3916 Pearl Rd Medina, OH 44256 Located at Medina VFW Post #5137 Parking available next door.",Ohio,MEDINA,3916 PEARL RD,44256,-81.86145689287677,41.169097647030384,,
farmers market,"Mar 27th, 2023",default-farmersmarket-4-3.jpg,312226,Fremont Farmers Market,,,,800-858-4678,,,,,,,,"440 East Poe Road, Suite 201 Bowling Green, OH 43402",Ohio,BOWLING GREEN,440 E POE RD,43402,-83.6439358020507,41.38553604018125,,
farmers market,"Mar 27th, 2023",default-farmersmarket-4-3.jpg,312254,Hillside Orchard and Farm Market,,,,330-225-4748,,,,,,,,"2397 Center Rd. Hinckley, OH 44233",Ohio,HINCKLEY,2397 CENTER RD,44233,-81.77387480366222,41.238430986048655,,
farmers market,"Mar 27th, 2023",default-farmersmarket-4-3.jpg,312260,Jefferson Community Farmers' Market,,,,614-304-0133,https://jeffersontownship.org/,,,,,,,"7494 Clark State Road Blacklick, OH 43004",Ohio,Blacklick,7494 Clark State Road,43004,-82.79366252101342,40.04286365872855,,
farmers market,"Mar 27th, 2023",default-farmersmarket-4-3.jpg,312276,McLaughlin's Greenhouse & Market,,,,419-832-3053,,,,,,,,"22867 Kellogg Road Grand Rapids, OH 43522",Ohio,GRAND RAPIDS,22867 KELLOGG RD,43522,-83.840838260936,41.415394888185446,,
farmers market,"Mar 27th, 2023",default-farmersmarket-4-3.jpg,312277,Merion Village Farmers' Market,,,gvmvmarket@gmail.com,614-929-5255,http://www.merionvillagefarmersmarket.com/,https://www.facebook.com/gvmvfarmersmarket,,,,,,"106 E. Moler St., Columbus, OH, 43207",Ohio,Columbus,106 E. Moler St.,43207,-82.99908111638777,39.93531992932412,,
farmers market,"Mar 27th, 2023",default-farmersmarket-4-3.jpg,312283,Mt Gilead Farmer's Market,,,,419-688-9579,http://mtgileadfarmersmarket.weebly.com,http://www.facebook.com/pages/Mount-Gilead-Farmers-Market/357066631010759,,,,,,"33 S. Main St, Mt Gilead, OH..between The Briar Patch and Gilead Trading Company Mt Gilead, OH 43338",Ohio,MOUNT GILEAD,33 S MAIN ST,43338,-82.8287771823159,40.548051979249,,
farmers market,"Mar 27th, 2023",default-farmersmarket-4-3.jpg,312284,Mt. Washington Farmers' Market,,,,513-232-5724,https://www.mwcc.org/,https://www.facebook.com/MWmarketinthepark/,,,,,,"2221 Oxford Avenue Cincinnati, OH 45230",Ohio,Cincinnati,2221 Oxford Avenue,45230,-84.38815209172844,39.095669786400585,,
farmers market,"Mar 27th, 2023",default-farmersmarket-4-3.jpg,312297,Ohio Farmers Market,,,,330-877-8344,http://www.maizevalleywinery.com/homegrown,,,,,,,"6193 Edison Street NE Hartville, OH 44632",Ohio,HARTVILLE,6193 EDISON ST NE,44632,-81.27854171110368,40.953390744729646,,
farmers market,"Mar 27th, 2023",default-farmersmarket-4-3.jpg,312298,Ohio Valley Farmers' Market,,,ovfarmersmarket@gmail.com,740-676-8187,http://www.ovfarmersmarket.org/,https://www.facebook.com/pages/Ohio-Valley-Farmers-Market/76218936373,,,,,,"66440 Belmont Morristown Rd, Bel-Morr Market, Belmont, OH, 43718",Ohio,Belmont,66440 Belmont Morristown Rd,43718,-81.05347774292987,40.061092517237,,
farmers market,"Mar 27th, 2023",default-farmersmarket-4-3.jpg,312302,Outdoor Y Farmers' Market,,,,,http://www.lakecountyymca.org/index.php?src=events&srctype=detail&category=General&refno=600,,,,,,,"933 Mentor Ave., Painesville, OH, 44077",Ohio,Painesville,933 Mentor Ave.,44077,-81.26336587933119,41.710624106150966,,
farmers market,"Mar 27th, 2023",default-farmersmarket-4-3.jpg,312308,Portsmouth Farmers Market,,,,740-776-6406,,,,,,,,"658 Hansgen Morgan Rd Wheelersburg, OH 45694",Ohio,Wheelersburg,658 Hansgen Morgan Rd,45694,-82.83146612490889,38.776010984021795,,
farmers market,"Mar 27th, 2023",default-farmersmarket-4-3.jpg,312310,Ralph's Joy of Living Farmers' Market,,,,419-332-8696,,,,,,,,"101 S. Front Street Fremont, OH 43420",Ohio,Fremont,101 S. Front Street,43420,-83.11346214179133,41.34640086634128,,
farmers market,"Mar 27th, 2023",default-farmersmarket-4-3.jpg,312326,Springboro Farmers' Market,,,SpringboroFarmersMkt@gmail.com,,http://springborofarmersmarket.com/,https://www.facebook.com/BoroFarmersMarket,,,,,,"750 S. Main St., Clearcreek Elementary School, Springboro, OH, 45066",Ohio,Springboro,750 S. Main St,45066,-84.23398439079914,39.54732183137754,,
farmers market,"Mar 27th, 2023",default-farmersmarket-4-3.jpg,312329,Springhill Orchards & Farm Market,,,,440-466-7480,,,,,,,,"6062 South Ridge, West Geneva, OH 44041",Ohio,GENEVA,6062 S RIDGE RD W,44041,-80.97185941718318,41.782049181257314,,
farmers market,"Mar 27th, 2023",default-farmersmarket-4-3.jpg,312331,Stearns Homestead Farmers' Market,,,,440-845-9770,http://www.stearnshomestead.com/happenins/farmers-market/,,,,,,,"6975 Ridge Rd., Parma, OH, 44129",Ohio,Parma,6975 Ridge Rd.,44129,-81.73470729501666,41.37581565237398,,
farmers market,"Mar 27th, 2023",default-farmersmarket-4-3.jpg,312335,T & OC Farmers' Market,,,,419-562-6664,,,,,,,,"700 East Rensselaer St. Bucyrus, OH 44820",Ohio,Bucyrus,700 East Rensselaer St.,44820,-82.96701806064138,40.807612774169236,,
farmers market,"Mar 27th, 2023",default-farmersmarket-4-3.jpg,312342,The Original Talawanda Farmers' Market,,,,513-524-9591,http://www.gettothebc.com/listing/original-talawanda-farmer%C3%A2%E2%80%99s-market/693,,,,,,,"101 W. Chestnut St., Oxford, OH, 45056",Ohio,Oxford,101 W. Chestnut St.,45056,-84.74638549620778,39.50062813719112,,
farmers market,"Mar 27th, 2023",default-farmersmarket-4-3.jpg,312347,Union County Farmers Market - Richwood Location,,,,614-563-6402,,http://www.facebook.com/richwoodfarmersmarket,,,,,,"4 E Ottawa Street Richwood, OH 43344 We are located on Franklin St in front of the library. There is ample parking in both the library lot and on the street with easy access for those with low mobilit",Ohio,RICHWOOD,4 E OTTAWA ST,43344,-83.29644967692006,40.42656163142057,,
farmers market,"Mar 27th, 2023",default-farmersmarket-4-3.jpg,312355,Wegerzyn Horticultural Association Farmers Market,,,,937-277-9028,,,,,,,,"1301 East Siebenthaler Avenue Dayton, OH 45414",Ohio,DAYTON,1301 E SIEBENTHALER AVE,45414,-84.2052664495301,39.79862515543578,,
farmers market,"Mar 27th, 2023",default-farmersmarket-4-3.jpg,312365,Wyoming Farmers' Market,,,,,http://www.wyomingfarmersmarket.net/,https://www.facebook.com/wyoming-ave-farmers-market-98917383857/?ref=hl,,,,,,"1025 Springfield Pike Wyoming, OH 45215",Ohio,Wyoming,1025 Springfield Pike,45215,-84.47204858084798,39.23381241172754,,
farmers market,"Mar 29th, 2021",default-farmersmarket-4-3.jpg,301485,North Canton Farmers' Market,,Jena Grosschmidt,knowyourrootsohio@gmail.com,3302090809,www.NCantonFarmersMarket.com,https://www.facebook.com/NorthCantonFarmersMarket/,,,,,,"1000 West Maple St, North Canton, Ohio 44720",Ohio,North Canton,1000 West Maple St,44720,-81.417769,40.875871,May to October,"Fresh fruits, Fresh vegetables, Baked goods, Bedding plants, Canned or preserved fruits/vegetables, Coffee/tea, Crafts/woodworking items, Cut flowers, Eggs, Fresh/dried herbs, Honey, Maple products, Mushrooms, Nursery stock, Nuts, Pet food, Poultry/fowl meat and products, Prepared foods, Red/other non-poultry meat and products, Soap/body care products"
on-farm market,,default-onfarmmarket-4-3.jpg,701968,Albuna Plant Farm,,,,,,,,,,,,"343 E County Rd 16, Tiffin, OH 44883, USA",Ohio,Tiffin,343 East County Road 16,44883,-83.164248,41.066714,,
on-farm market,"Apr 21st, 2016",default-onfarmmarket-4-3.jpg,701329,From The Water's Edge,,Carol Cunkle,cunkle.carol@gmail.com,330-670-0796,,,,,,,,"798 N. Medina Line Road, Granger Township, Ohio 44256",Ohio,Granger Township,798 N. Medina Line Road,44256,-81.713905,41.162239,,
on-farm market,"Apr 24th, 2019",default-onfarmmarket-4-3.jpg,701479,"R Farm of Northwest Ohio, LLC",,MELISSA RUPP,mrsmrupp@gmail.com,4195536366,www.rfarmnwo.com,facebook.com/rfarmnwo,,,,,,"5561 CR 1950, Stryker, Ohio 43557",Ohio,Stryker,5561 CR 1950,43557,-84.460299,41.493370,,
on-farm market,"Apr 2nd, 2018",default-onfarmmarket-4-3.jpg,701446,Schaefers Farm Market,,Elizabeth Schaefer,schaeferscsa@gmail.com,513-726-5307,www.schaefersfarmmarket.com,https://www.facebook.com/SchaefersCSA/,,,,,,"5024 Jacksonburg Road, Trenton, Ohio 45067",Ohio,Trenton,5024 Jacksonburg Road,45067,-84.501404,39.514640,,
on-farm market,"Apr 4th, 2024",default-onfarmmarket-4-3.jpg,701808,Buckeye Valley Beef Co-Op,,,buckeyevalleybeefcooperative@gmail.com,937-403-4135,https://www.buckeyevalleybeef.com/,,,,,,,"690 E State St, Georgetown, OH 45121-9317, United States",Ohio,Georgetown,690 E State St,45121-9317,-83.89189,38.86261,,
on-farm market,"Apr 4th, 2024",default-onfarmmarket-4-3.jpg,701809,Gary Keuffer,,Gary Keuffer,bnhr83@gmail.com,937-379-2048,,,,,,,,"3121 Bethel-New Hope Rd, Bethel, OH 45106-8602, United States",Ohio,Bethel,3121 Bethel-New Hope Rd,45106-8602,-83.94871,38.96138,,
on-farm market,"Apr 4th, 2024",default-onfarmmarket-4-3.jpg,701810,McCafferty Farm,,Charles McCafferty,cmacmac11@aol.com,513-875-2292,,,,,,,,"2175 State Route 131, Fayetteville, OH 45118-9208, United States",Ohio,Fayetteville,2175 State Route 131,45118-9208,-83.98188,39.17156,,
on-farm market,"Apr 4th, 2024",default-onfarmmarket-4-3.jpg,701811,White Ass Acres Organic Farm,,,,440-319-9329,,,,,,,,"1285 Swigart Rd, New Franklin, OH 44203-4733, United States",Ohio,New Franklin,1285 Swigart Rd,44203-4733,-81.56816,40.97531,,
on-farm market,"Apr 4th, 2024",default-onfarmmarket-4-3.jpg,701812,Valley View Farm,,,kzimperman@gmail.com,440-645-0703,https://www.facebook.com/ValleyViewFarmOrwell/,,,,,,,"2396 US-322 W, Orwell, OH 44076-8332, United States",Ohio,Orwell,2396 US-322 W,44076-8332,-80.83539,41.53478,,
on-farm market,"Apr 4th, 2024",default-onfarmmarket-4-3.jpg,701813,Bauman Orchards Farm Market,"Bauman Orchards, started in 1929, currently has a total of 260 acres with 70,000 apple trees and 12,000 peach trees. Now in our fourth generation, we also raise pears, plums, sweet corn, strawberries and blueberries. Our retail farm market in Rittman, Ohio is open year round. We offer seasonal fruit, homemade pies, cookies, and gift baskets. We have two other seasonal farm market locations: Scenic Ridge Fruit Farm in Jeromesville and our Corner Market, also in Rittman.",,,330-925-6861,https://baumanorchards.com/farm-market/,,,,,,,"161 Rittman Ave, Rittman, OH 44270-1253, United States",Ohio,Rittman,161 Rittman Ave,44270-1253,-81.79854,40.97139,,
on-farm market,"Apr 4th, 2024",default-onfarmmarket-4-3.jpg,701814,Bauman Orchards Scenic Ridge Fruit Farm ,"Scenic Ridge Fruit Farm is an extension of Bauman Orchards, offering homegrown peaches July â€“ September, and fresh pressed cider in September and October. Seasonally available products include apples, farm fresh eggs, apple butter, jams, nuts and candies, local honey, maple syrup, sweet corn, melons, tomatoes, green beans, plums, raspberries, pumpkins, squash, gourds.",,,419-368-3353,https://baumanorchards.com/scenic-ridge/,,,,,,,"2031 State Route 89, Jeromesville, OH 44840-9654, United States",Ohio,Jeromesville,2031 State Route 89,44840-9654,-82.18007,40.76692,,
on-farm market,"Apr 4th, 2024",default-onfarmmarket-4-3.jpg,701815,Bauman Orchards Corner Market,"The Corner Market is a seasonal market through Bauman Orchards, located at the Corner of State Routes 585 and 57. The market is open mid-June through October. The market offers many seasonal fruits and vegetables.",,,330-855-1029,https://baumanorchards.com/corner-market/,,,,,,,"10370 Akron Rd, Rittman, OH 44270-9787, United States",Ohio,Rittman,10370 Akron Rd,44270-9787,-81.7639,40.92539,,
on-farm market,"Apr 4th, 2024",default-onfarmmarket-4-3.jpg,701816,Beckwith Orchards,"Family owned and operated orchard since 1878. Our season begins in late July with peaches, nectarines and corn. The selection changes with the seasons. Fall brings apples, pumpkins, gourds and cider. There is also an on-site gift shop and bakery. ",,,330-673-6433,http://www.beckwithorchards.com/,,,,,,,"1617 Lake Rockwell Rd, Kent, OH 44240-3019, United States",Ohio,Kent,1617 Lake Rockwell Rd,44240-3019,-81.3246,41.17105,,
on-farm market,"Apr 4th, 2024",default-onfarmmarket-4-3.jpg,701817,Blue Skies Orchard & Farm Market,Orchard market with apples available seasonally for local pick-up. Must call ahead for availability.,,,419- 335-3942,https://www.orangepippin.com/orchards/united-states/ohio/blue-skies-orchard-and-farm-market,,,,,,,"15660 US Highway 20A, Wauseon, OH 43567-9654, United States",Ohio,Wauseon,15660 US Highway 20A,43567-9654,-84.1671,41.57666,,
on-farm market,"Apr 4th, 2024",default-onfarmmarket-4-3.jpg,701818,Chaney Orchard,Orchard with local fruit available seasonally. Must call ahead for availability.,,,937-323-3987,https://www.orangepippin.com/orchards/united-states/ohio/chaney-orchard,,,,,,,"556 Newlove Rd, South Charleston, OH 45368-7738, United States",Ohio,South Charleston,556 Newlove Rd,45368-7738,-83.67458,39.91523,,
on-farm market,"Apr 4th, 2024",default-onfarmmarket-4-3.jpg,701819,Clark's Orchard,"A local fruit grower specializing in peaches, apples and plums.",,,740-622-1881,,,,,,,,"20768 Township Road 164, Coshocton, OH 43812-9083, United States",Ohio,Coshocton,20768 Township Road 164,43812-9083,-81.81527,40.2506,,
on-farm market,"Apr 4th, 2024",default-onfarmmarket-4-3.jpg,701820,Derges Orchard,Orchard with local fruit available seasonally. Must call ahead for availability.,,,419-395-1184,https://www.orangepippin.com/orchards/united-states/ohio/derges-orchard,,,,,,,"12382 Fruit Ridge Dr, Defiance, OH 43512-9097, United States",Ohio,Defiance,12382 Fruit Ridge Dr,43512-9097,-84.29417,41.26226,,
on-farm market,"Apr 4th, 2024",default-onfarmmarket-4-3.jpg,701821,Farmers Orchard,Orchard with local fruit available seasonally. Must call ahead for availability.,,,740-427-2620,https://www.orangepippin.com/orchards/united-states/ohio/farmers-orchard,,,,,,,"30730 Brush Run Rd, Walhonding, OH 43843, United States",Ohio,Walhonding,30730 Brush Run Rd,43843,-82.19284,40.34431,,
on-farm market,"Apr 4th, 2024",default-onfarmmarket-4-3.jpg,701822,Geigs Orchard,"Family-owned and operated orchard that specializes in growing and selling a wide variety of fresh fruits and cider. We have an extensive selection of apples, peaches, and other seasonal fruits, all harvested at their peak of ripeness. Visitors can enjoy the scenic orchard setting while picking their own fruits on select weekends in October or purchase produce directly from our store August through November.",,geigsorchard@outlook.com,330-769-3276,http://www.geigsorchard.com/,,,,,,,"8468 Wooster Pike, Seville, OH 44273-9713, United States",Ohio,Seville,8468 Wooster Pike,44273-9713,-81.86451,41.04227,,
on-farm market,"Apr 4th, 2024",default-onfarmmarket-4-3.jpg,701823,Glen Hill Orchards,"Grower of apples, peaches, cherries and asian pears. The farm shop has fresh fruits available. Pick-your-own is not available.",,glenhillorchards@gmail.com,740-392-9341,https://www.facebook.com/glenhillorchards,,,,,,,"17156 Glen Rd, Mt Vernon, OH 43050-9020, United States",Ohio,Mt Vernon,17156 Glen Rd,43050-9020,-82.44659,40.36835,,
on-farm market,"Apr 4th, 2024",default-onfarmmarket-4-3.jpg,701824,Heartland Orchard,"Heartland Orchard is open from late July through mid-December. They grow, pick and sell peaches, apples, and pears. They also offer Christmas tree cutting.",,,740-787-1353,https://explorelc.org/directory/heartland-orchard,,,,,,,"13029 Laurel Hill Rd SE, Thornville, OH 43076-9380, United States",Ohio,Thornville,13029 Laurel Hill Rd SE,43076-9380,-82.30331,39.9312,,
on-farm market,"Apr 4th, 2024",default-onfarmmarket-4-3.jpg,701825,Highland Orchard,Orchard with local fruit available seasonally. Must call ahead for availability.,,,740-826-4287,https://www.orangepippin.com/orchards/united-states/ohio/highland-orchard,,,,,,,"5245 Friendship Dr, New Concord, OH 43762-9651, United States",Ohio,New Concord,5245 Friendship Dr,43762-9651,-81.75174,40.04305,,
on-farm market,"Apr 4th, 2024",default-onfarmmarket-4-3.jpg,701826,Highwater Orchard,Orchard with local fruit available seasonally. Must call ahead for availability.,,,740-587-1711,https://www.orangepippin.com/orchards/united-states/ohio/highwater-orchard,,,,,,,"2010 Lundys Lane Rd NW, Newark, OH 43055-9543, United States",Ohio,Newark,2010 Lundys Lane Rd NW,43055-9543,-82.53584,40.16983,,
on-farm market,"Apr 4th, 2024",default-onfarmmarket-4-3.jpg,701827,Hillcrest Orchard ,"Hillcrest Orchard of Walnut Creek is family-owned and operated by the Merle Hershberger family. There are 75 acres of orchard on which 22 varieties of apples and 12 varieties of peach are grown. Our apples and freshly pressed cider are sold at our store, which is open seasonally from August through March.  We also carry local meats and cheeses, a full line of fresh produce, nuts, candies, and snacks.",,,330-893-9906,http://cometowalnutcreekohio.com/portfolio-view/hillcrest-orchard/,,,,,,,"2474 Walnut St, Sugarcreek, OH 44681-9419, United States",Ohio,Sugarcreek,2474 Walnut St,44681-9419,-81.71052,40.54296,,
on-farm market,"Apr 4th, 2024",default-onfarmmarket-4-3.jpg,701828,Hollmeyer's Orchards,"We are a family-owned 105 year-old orchard on the west side of Cincinnati. Our on-farm market sells everything we grow when in season; peaches, plums, pears, apples, and an array of vegetables. We make our own pickles and unpasteurized cider.",,,513-574-0663,https://www.facebook.com/HollmeyerOrchard/,,,,,,,"3241 Fiddlers Green Rd, Cincinnati, OH 45248-2805, United States",Ohio,Cincinnati,3241 Fiddlers Green Rd,45248-2805,-84.68675,39.1498,,
on-farm market,"Apr 4th, 2024",default-onfarmmarket-4-3.jpg,701829,Hucks Orchard,"Orchard with apples, unpasterized cider, veggies, pumpkins, squash and gourds available seasonally. Must call ahead for availability.",,,937-568-5459,https://www.orangepippin.com/orchards/united-states/ohio/hucks-orchard,,,,,,,"556 Newlove Rd, South Charleston, OH 45368-7738, United States",Ohio,South Charleston,556 Newlove Rd,45368-7738,-83.67458,39.91523,,
on-farm market,"Apr 4th, 2024",default-onfarmmarket-4-3.jpg,701830,Less & Less Orchards,Farm with fruit and produce available seasonally. Must call ahead for availability.,,,330-533-8762,https://www.facebook.com/profile.php?id=149321588428755&paipv=0&eav=AfaUcqNo5ZSaQC3IyUoVICsGPc6B-HCw04DlxaFy80auXfEkJ3SPtS6Crwi-6sQC1-U&_rdr,,,,,,,"12621 Washingtonville Rd, Salem, OH 44460-9247, United States",Ohio,Salem,12621 Washingtonville Rd,44460-9247,-80.76383,40.93487,,
on-farm market,"Apr 4th, 2024",default-onfarmmarket-4-3.jpg,701831,M & M Orchard,Orchard with apples available seasonally. Must call ahead for availability.,,,440-969-9042,https://www.orangepippin.com/orchards/united-states/ohio/m-m-orchard,,,,,,,"5800 S Ridge Rd W, Ashtabula, OH 44004-9588, United States",Ohio,Ashtabula,5800 S Ridge Rd W,44004-9588,-80.86874,41.80923,,
on-farm market,"Apr 4th, 2024",default-onfarmmarket-4-3.jpg,701832,Malone Orchards Market,"Malone Orchards is a family owned and operated farm located in Berlin Heights, Ohio.  We grow a variety of apples including HoneyCrisp and EverCrisp, as well as pears, plums, cherries, pumpkins, gourds, and squash.  We also grow field crops of soybeans and corn.  We operate a seasonal market in Berlin Heights, it is open from September until December (depending on the crop year).",,maloneorchards@aol.com,419-541-0234,https://www.facebook.com/maloneorchards/,,,,,,,"9518 State Route 61, Berlin Heights, OH 44814-9660, United States",Ohio,Berlin Heights,9518 State Route 61,44814-9660,-82.49377,41.34918,,
on-farm market,"Apr 4th, 2024",default-onfarmmarket-4-3.jpg,701833,Manfull Orchards Farm Market,"The Manfull Family has been growing fresh fruits and vegetables in the small community of Augusta in Carroll County, Ohio for seven generations. The market offers mouthwatering produce during the summer and fall growing seasons, and it opens each spring with delectable baked goods and a variety of jams and fruit butters, local honey, maple syrup, and more.",,shop@manfullorchards.com,330-895-4861,https://www.manfullorchards.com/,,,,,,,"8146 Kensington Rd NE, East Rochester, Ohio, 44625",Ohio,East Rochester,8146 Kensington Rd NE,44625,-81.017457982999,40.685713002778,,
on-farm market,"Apr 4th, 2024",default-onfarmmarket-4-3.jpg,701834,McDowell Orchards,Orchard with fruit available seasonally. Call ahead for hours and availability.,,,440-965-7762,http://ohioproud.org/farm-markets-all/farmers-market-search/find-farm-market/#!biz/id/57f56c58178f4e557a7b269a/About,,,,,,,"50603 OH-113, Amherst, OH 44001, United States",Ohio,Amherst,50603 OH-113,44001,-82.30145,41.34154,,
on-farm market,"Apr 4th, 2024",default-onfarmmarket-4-3.jpg,701835,Miller Orchards,"Miller Orchards is a family-owned fruit farm, in business for more than 4 generations. At Miller Orchards, we value the integrity that has been passed down through the generations and we provide quality produce at an honest price in a family atmosphere. From simple beginnings in the 1800â€™s, to the first Miller Orchards retail operation in the early 1960s, the family tradition is carried on today by David and Roger Miller and their families.",,,440-988-8405,http://millerorchardsltd.com/,,,,,,,"8690 Vermilion Rd, Amherst, OH 44001-9475, United States",Ohio,Amherst,8690 Vermilion Rd,44001-9475,-82.30643,41.36771,,
on-farm market,"Apr 4th, 2024",default-onfarmmarket-4-3.jpg,701836,Millrock Orchard Inc.,Orchard with local fruit available seasonally. Must call ahead for availability.,,,330-457-7571,https://www.orangepippin.com/orchards/united-states/ohio/millrock-orchard-inc,,,,,,,"4401 Millrock Rd, New Waterford, OH 44445-9627, United States",Ohio,New Waterford,4401 Millrock Rd,44445-9627,-80.61327,40.83613,,
on-farm market,"Apr 4th, 2024",default-onfarmmarket-4-3.jpg,701837,Moore Orchards ,Quaint country store off the beaten path. Offering quality home grown peaches and apples.,,mooreorchards@yahoo.com,419-898-0898,https://moore-orchard.business.site/,,,,,,,"10544 W Moore Rd, Oak Harbor, OH 43449-9540, United States",Ohio,Oak Harbor,10544 W Moore Rd,43449-9540,-83.13643,41.58489,,
on-farm market,"Apr 4th, 2024",default-onfarmmarket-4-3.jpg,701838,Norkus Orchard,Orchard with local fruit available seasonally. Must call ahead for availability.,,,330-727-2068 or 330-,https://www.facebook.com/profile.php?id=100075914113658,,,,,,,"36500 Perry Grange Rd, Salem, OH 44460-9460, United States",Ohio,Salem,36500 Perry Grange Rd,44460-9460,-80.81061,40.87214,,
on-farm market,"Apr 4th, 2024",default-onfarmmarket-4-3.jpg,701839,Pennington Farm Orchards,Orchard with local fruit available seasonally. Must call ahead for availability.,,,419-337-7367,https://www.orangepippin.com/orchards/united-states/ohio/pennington-farm-orchards,,,,,,,"13386 County Road 14, Wauseon, OH 43567, United States",Ohio,Wauseon,13386 County Road 14,43567,-84.13031,41.66207,,
on-farm market,"Apr 4th, 2024",default-onfarmmarket-4-3.jpg,701840,Reese's Orchard,Orchard with local apples available seasonally. Must call ahead for availability.,,,740-653-5796,https://www.orangepippin.com/orchards/united-states/ohio/reeses-orchard,,,,,,,"3343 Delmont Rd SW, Lancaster, OH 43130-8907, United States",Ohio,Lancaster,3343 Delmont Rd SW,43130-8907,-82.67745,39.67979,,
on-farm market,"Apr 4th, 2024",default-onfarmmarket-4-3.jpg,701841,Remerowski Orchards,Orchard with local apples available seasonally. Must call ahead for availability.,,,937-362-3924,https://www.orangepippin.com/orchards/united-states/ohio/remerowski-orchards,,,,,,,"4035 Idle Rd, Urbana, OH 43078-9353, United States",Ohio,Urbana,4035 Idle Rd,43078-9353,-83.88539,40.18017,,
on-farm market,"Apr 4th, 2024",default-onfarmmarket-4-3.jpg,701842,Seller's Orchard,Orchard with local fruit available seasonally. Must call ahead for availability.,,,937-466-2388,http://ohioproud.org/farm-markets-all/farmers-market-search/find-farm-market/#!biz/id/57f56c59178f4e557a7b26e4/Contact,,,,,,,"11151 OH-124, Hillsboro, OH 45133-9097, United States",Ohio,Hillsboro,11151 OH-124,45133-9097,-83.4842,39.14979,,
on-farm market,"Apr 4th, 2024",default-onfarmmarket-4-3.jpg,701843,Snyders Orchard,"Orchard with local fruit available seasonally. Available through local markets, such as Alliance Farmers Market and Hartville Marketplace",,snydersorchard@yahoo.com,330-584-6922 or 330-,https://www.orangepippin.com/orchards/united-states/ohio/snyders-orchard,,,,,,,"12200 Bandy Rd, Alliance, OH 44601-9212, United States",Ohio,Alliance,12200 Bandy Rd,44601-9212,-81.05173,40.94125,,
on-farm market,"Apr 4th, 2024",default-onfarmmarket-4-3.jpg,701844,Stahl's Farm Market in Ravenna,"Stahl's Orchard and Farm Market offers local apples and other produce through two market locations in Ravenna and North Benton, Ohio.",,,330-325-0640,https://www.facebook.com/profile.php?id=100057251358502,,,,,,,"4560 State Route 14, Ravenna, OH 44266-8742, United States",Ohio,Ravenna,4560 State Route 14,44266-8742,-81.16633,41.11354,,
on-farm market,"Apr 4th, 2024",default-onfarmmarket-4-3.jpg,701845,Stahl's Farm Market in North Benton,"Stahl's Orchard and Farm Market offers local apples and other produce through two market locations in Ravenna and North Benton, Ohio.",,,330-325-0640,https://www.facebook.com/profile.php?id=100057251358502,,,,,,,"10780 Johnson Rd, North Benton, OH 44449-9634, United States",Ohio,North Benton,10780 Johnson Rd,44449-9634,-81.032,40.96386,,
on-farm market,"Apr 4th, 2024",default-onfarmmarket-4-3.jpg,701846,Suggs Family Orchard,Orchard with local fruit available seasonally. Must call ahead for availability.,,,937-456-5162,https://www.orangepippin.com/orchards/united-states/ohio/suggs-family-orchard,,,,,,,"1095 Eaton Lewisburg Rd, Eaton, OH 45320-9727, United States",Ohio,Eaton,1095 Eaton Lewisburg Rd,45320-9727,-84.62237,39.77014,,
on-farm market,"Apr 4th, 2024",default-onfarmmarket-4-3.jpg,701847,Tangeman Orchard,Orchard with local fruit available seasonally. Must call ahead for availability.,,,419-925-5121,https://www.orangepippin.com/orchards/united-states/ohio/tangeman-orchard,,,,,,,"8543 Superior Dr, Maria Stein, OH 45860-9524, United States",Ohio,Maria Stein,8543 Superior Dr,45860-9524,-84.47274,40.41233,,
on-farm market,"Apr 4th, 2024",default-onfarmmarket-4-3.jpg,701848,Vincent's Orchards,Orchard with local fruit available seasonally. Must call ahead for availability.,,,330-222-1790,https://www.orangepippin.com/orchards/united-states/ohio/vincents-orchards,,,,,,,"29737 Mountz Rd, Salem, OH 44460-9561, United States",Ohio,Salem,29737 Mountz Rd,44460-9561,-80.93731,40.81249,,
on-farm market,"Apr 4th, 2024",default-onfarmmarket-4-3.jpg,701849,Vita-ful Orchards,Orchard with local fruit available seasonally. Must call ahead for availability.,,,440-775-4114,https://www.orangepippin.com/orchards/united-states/ohio/vita-ful-orchards,,,,,,,"43802 Butternut Ridge Rd, Oberlin, OH 44074-9708, United States",Ohio,Oberlin,43802 Butternut Ridge Rd,44074-9708,-82.17223,41.3135,,
on-farm market,"Apr 4th, 2024",default-onfarmmarket-4-3.jpg,701850,Wasserman Orchard,Orchard with local apples available seasonally. Must call ahead for availability.,,,419-547-9354,https://www.orangepippin.com/orchards/united-states/ohio/wasserman-orchard,,,,,,,"3414 County Road 213, Clyde, OH 43410-1040, United States",Ohio,Clyde,3414 County Road 213,43410-1040,-83.00162,41.30714,,
on-farm market,"Apr 4th, 2024",default-onfarmmarket-4-3.jpg,701851,West Orchards,"On our 70 acre farm we grow many deciduous fruit tree varieties including sour cherries, peaches, plums, nectarines, pears, & apples. Stop by the farm with your families for pick your own strawberries and sour cherries. Call or check online for availability. ",,info@westorchardsfarmmarket.com,440- 259-3192,https://westorchardsfarmmarket.com/,,,,,,,"3034 N Ridge Rd, Perry, OH 44081-9571, United States",Ohio,Perry,3034 N Ridge Rd,44081-9571,-81.17378,41.76971,,
on-farm market,"Apr 4th, 2024",default-onfarmmarket-4-3.jpg,701852,Wilderson Orchard,Orchard with local apples available seasonally. Must call ahead for availability.,,,419-542-7613,https://www.orangepippin.com/orchards/united-states/ohio/wilderson-orchard,,,,,,,"117 S Main St, Hicksville, OH 43526-1318, United States",Ohio,Hicksville,117 S Main St,43526-1318,-84.76123,41.29289,,
on-farm market,"Apr 4th, 2024",default-onfarmmarket-4-3.jpg,701853,"Witt Orchards, The Mini Market ","Witts Orchards is a small, family-owned operation growing apples, pears, plums, peaches, nectarines, apricots, and more. The Mini Market location is our packing house. ",,wittorchards@yahoo.com,419-707-2279,https://www.wittorchards.com/,,,,,,,"8060 W Titus Rd, Oak Harbor, OH 43449-9758, United States",Ohio,Oak Harbor,8060 W Titus Rd,43449-9758,-83.0882,41.58264,,
on-farm market,"Apr 4th, 2024",default-onfarmmarket-4-3.jpg,701854,Witt Orchards Farm Market,"Witts Orchards is a small, family-owned operation growing apples, pears, plums, peaches, nectarines, apricots, and more. The Farm Market location is open seasonally.",,wittorchards@yahoo.com,419-898-8115,https://www.wittorchards.com/,,,,,,,"3584 N State Route 2, Oak Harbor, OH 43449-9366, United States",Ohio,Oak Harbor,3584 N State Route 2,43449-9366,-83.08159,41.56769,,
on-farm market,"Apr 4th, 2024",default-onfarmmarket-4-3.jpg,701855,Yeary's Orchard,"A 100 acre orchard with one of the largest varieties of apples and peaches in Ohio! Only about 20 minutes from Zanesville, Dresden and New Concord. ",,,740-796-5922,https://www.facebook.com/p/Yeary-Orchards-100082782930092/,,,,,,,"11195 Yeary Rd, Adamsville, OH 43802-9005, United States",Ohio,Adamsville,11195 Yeary Rd,43802-9005,-81.86866,40.1165,,
on-farm market,"Apr 4th, 2024",default-onfarmmarket-4-3.jpg,701856,Burnham Orchards,"Burnham Orchards, is a family owned and operated farm, providing great tasting fruits along with a fun experience that includes activities for people of all ages. From pick your own pumpkins to orchard hayrides, we provide a taste of the farm that you just can't get any where else!",,info@burnhamorchards.com,419-588-2138,https://www.burnhamorchards.com/,,,,,,,"8019 OH-113 E, Berlin Heights, OH 44814-9436, United States",Ohio,Berlin Heights,8019 OH-113 E,44814-9436,-82.47572,41.30767,,
on-farm market,"Apr 4th, 2024",default-onfarmmarket-4-3.jpg,701857,Celeste Orchards,Orchard with local fruit available seasonally. Must call ahead for availability.,,,740-733-8413,https://www.orangepippin.com/orchards/united-states/ohio/celeste-orchards,,,,,,,"945 County Road 20, Dillonvale, Ohio, 43917",Ohio,Dillonvale,945 County Road 20,43917,-80.781869003913,40.251905005543,,
on-farm market,"Apr 4th, 2024",default-onfarmmarket-4-3.jpg,701858,Cold Springs Orchard,"Here at Cold Springs, we take great pride in our history and believe in the importance of family and community. We believe in taking care of the land we have been blessed with and in turn it yields delicious and beautiful fruit. Stop by and try a fresh appleâ€”eating locally grown is always in season.",,,440-466-0474,https://www.coldpsringsorchards.com/,,,,,,,"878 Windsor Mechanicsville Rd, Rock Creek, OH 44084-9638, United States",Ohio,Rock Creek,878 Windsor Mechanicsville Rd,44084-9638,-80.90339,41.746,,
on-farm market,"Apr 4th, 2024",default-onfarmmarket-4-3.jpg,701859,Hillside Orchard and Farm Market,Family owned orchard and farm market offering a variety of fruits and locally sourced produce.,Al Bowman,info@hillsidefarmfresh.com,330-225-4748,https://hillsidefarmfresh.com/,,,,,,,"2397 Center Rd, Hinckley, OH 44233-9522, United States",Ohio,Hinckley,2397 Center Rd,44233-9522,-81.77221,41.23854,,
on-farm market,"Apr 4th, 2024",default-onfarmmarket-4-3.jpg,701860,Quarry Hill Orchards and Winery,"Our passion is growing fruit. Apples are our primary crop, but thatâ€™s not all we grow on our 400-acre farm. Anything that grows on a tree is fair game for us, including peaches, cherries, plums, pears, apricots, nectarines, and grapes; the latter which supply our winemaker next door at Quarry Hill Winery. Please check our Harvest Calendar for specific ripening dates. We also have a nice selection of fresh cider, local produce, and artisan goods as part of our other offerings. ",,https://quarryhillorchards.com/contact-2/,419-588-2858,https://quarryhillorchards.com/,,,,,,,"8403 Mason Rd, Berlin Heights, OH 44814-9300, United States",Ohio,Berlin Heights,8403 Mason Rd,44814-9300,-82.47396,41.33827,,
on-farm market,"Apr 4th, 2024",default-onfarmmarket-4-3.jpg,701861,Country Maid Ice Cream & Orchard,"Country Maid Orchard includes over 2,000 apple, peach, pear, and plum trees, along with some vegetables, blueberry bushes, and raspberry bushes. All of the ice cream, sherbet, and yogurt that you enjoy at Country Maid Ice Cream is made right here at our only location, where premium ice cream has been made since 1948.",,,330-659-6830 or 330-,www.countrymaidicecream.com,,,,,,,"3252 W Streetsboro Rd, Richfield, OH 44286-9120, United States",Ohio,Richfield,3252 W Streetsboro Rd,44286-9120,-81.6066,41.24347,,
on-farm market,"Apr 4th, 2024",default-onfarmmarket-4-3.jpg,701862,Apple Country Farm Market,"Apple Country Farm Market (ACFM) is a family owned and operated business. As an authorized dealer for Weaver Barns and LuxCraft Poly Furniture, we offer quality sheds, buildings, and outdoor furniture year round! Our Farm Market is open seasonally based on our apple harvest (usually early September - the end of October). In addition to the large variety of apples, we also produce fresh cider and seasonal honey varieties. The Country Store in the market carries additional local pantry staples.",,applecountry@sbcglobal.net,937-862-4376,https://applecountryfarm.com/,,,,,,,"2323 US Route 42, Spring Valley, Ohio, 45370",Ohio,Spring Valley,2323 US Route 42,45370,-83.993635973672,39.618210788176,,
on-farm market,"Apr 4th, 2024",default-onfarmmarket-4-3.jpg,701863,Apple Hill Orchard - Mansfield Market,"Apple Hill Or.chards has two locations. The Mansfield location is a hub of retail sales and family-friendly activities. Here, youâ€™ll find our cider press, fruit-themed bakery, observation beehive, rich variety of apples and vegetables, boutique gifts, and unique decorative items.",,applehillorchards.info@gmail.com,419-884-1500,https://applehillorchards.com/,,,,,,,"1175 Lexington Ontario Rd, Mansfield, OH 44903-7703, United States",Ohio,Mansfield,1175 Lexington Ontario Rd,44903-7703,-82.61669,40.72665,,
on-farm market,"Apr 4th, 2024",default-onfarmmarket-4-3.jpg,701864,Mama Potts Apple Acre,"Small family orchard with apples available seasonally, for local pick up. Must call ahead for availability.",,,937-492-2005,https://www.orangepippin.com/orchards/united-states/ohio/mama-potts-apple-acre,,,,,,,"1770 CR-25A, Sidney, OH 45365, United States",Ohio,Sidney,1770 CR-25A,45365,-84.15826,40.25889,,
on-farm market,"Apr 4th, 2024",default-onfarmmarket-4-3.jpg,701865,Sage's Apples Farm Market,"Sage's Apples is a family farm, part of Ransom Sage Farm, selling apples, pears, seeded grapes, winter squash, garlic, and other local products. ",,info@sagesapples.com,440-286-3416,https://www.sagesapples.com/,,,,,,,"11355 Chardon Rd, Chardon, OH 44024-9318, United States",Ohio,Chardon,11355 Chardon Rd,44024-9318,-81.23168,41.57986,,
on-farm market,"Apr 4th, 2024",default-onfarmmarket-4-3.jpg,701866,The Apple Barrel,Orchard with local fruit available seasonally. Must call ahead for availability.,,,440-647-5524,https://www.orangepippin.com/orchards/united-states/ohio/the-apple-barrel,,,,,,,"20314 Indian Hollow Rd, Wellington, OH 44090-9624, United States",Ohio,Wellington,20314 Indian Hollow Rd,44090-9624,-82.1089,41.18397,,
on-farm market,"Apr 4th, 2024",default-onfarmmarket-4-3.jpg,701867,Robinson's Apple Barn,"Small local farm offering apples, fresh baked goods, local produce, jams and jellies, maple syrup and local honey.",,,440-466-6780,https://www.therobinsonsapplebarn.com/,,,,,,,"5205 State Route 307 E, Geneva, OH 44041, United States",Ohio,Geneva,5205 State Route 307 E,44041,-80.94043,41.75978,,
on-farm market,"Apr 4th, 2024",default-onfarmmarket-4-3.jpg,701868,Schaefer Family Farm,Family farm offering premium quality grain fed beef. ,,,330-503-3004 or 330-,https://www.facebook.com/p/Schaefer-Family-Farm-Beef-100046791086153/,,,,,,,"6855 W South Range Rd, Salem, OH 44460-9225, United States",Ohio,Salem,6855 W South Range Rd,44460-9225,-80.78051,40.94048,,
on-farm market,"Apr 4th, 2024",default-onfarmmarket-4-3.jpg,701869,Kuner's Fruit Farm,Orchard with local fruit available seasonally. Must call ahead for availability.,,,330- 896-1391,http://ohioproud.org/farm-markets-all/farmers-market-search/find-farm-market/#!biz/id/57f56c58178f4e557a7b2682/Contact,,,,,,,"5424 S Arlington Rd, Clinton, OH 44216-9657, United States",Ohio,Clinton,5424 S Arlington Rd,44216-9657,-81.49653,40.92344,,
on-farm market,"Apr 4th, 2024",default-onfarmmarket-4-3.jpg,701870,Stearns Homestead,"This forty eight-acre farm has lots of animals, as well as several historic museum houses and a Yankee barn, loaded with antiques and historic items. The Stearns House, built in the 1850s and the Gibbs House, built in 1920, are furnished with original antiques. Our farmers market stand will feature our own produce from our gardens, local honey and fresh chicken and duck eggs. ",,StearnsHomestead@gmail.com,,http://www.stearnshomestead.com/,,,,,,,"6975 Ridge Rd, Parma, OH 44129-5634, United States",Ohio,Parma,6975 Ridge Rd,44129-5634,-81.7343,41.37509,,
on-farm market,"Apr 4th, 2024",default-onfarmmarket-4-3.jpg,701871,Angiuli's Farm Market,,,carlangiuli@aol.com,330-533-2046,https://www.facebook.com/angiulifarm/,,,,,,,"9600 Columbiana Canfield Rd, Canfield, OH 44406-9460, United States",Ohio,Canfield,9600 Columbiana Canfield Rd,44406-9460,-80.75672,40.98012,,
on-farm market,"Apr 4th, 2024",default-onfarmmarket-4-3.jpg,701872,Angry Dad's Jerky,,Sonia Williamson,soniacassandra91@icloud.com,614-940-6142,https://www.angrydadsjerky.com/,,,,,,,"13436 Cedar Rd, Thornville, OH 43076, United States",Ohio,Thornville,13436 Cedar Rd,43076,-82.48284,39.91674,,
on-farm market,"Apr 4th, 2024",default-onfarmmarket-4-3.jpg,701873,Ashbaugh Family Farm,,Kelsey Ashbaugh,kelseynkrisashbaugh@gmail.com,419-822-7797,https://m.facebook.com/AshbaughFamilyFarmsLLC/ ,,,,,,,"4441 Bauman Hill Rd SE, Lancaster, OH 43130-9455, United States",Ohio,Lancaster,4441 Bauman Hill Rd SE,43130-9455,-82.51819,39.68382,,
on-farm market,"Apr 4th, 2024",default-onfarmmarket-4-3.jpg,701874,Backyard Bulls Farm,,,,,,,,,,,,"5703 Cork Cold Springs Rd, Geneva, OH 44041-9325, United States",Ohio,Geneva,5703 Cork Cold Springs Rd,44041-9325,-80.95989,41.73223,,
on-farm market,"Apr 4th, 2024",default-onfarmmarket-4-3.jpg,701875,Beepothecary,,Laurie Dotson,beepothecary@gmail.com,614-450-2339,https://beepothecary.wordpress.com/,,,,,,,"1815 Marietta Rd NE, Lancaster, OH 43130-8530, United States",Ohio,Lancaster,1815 Marietta Rd NE,43130-8530,-82.5434,39.72284,,
on-farm market,"Apr 4th, 2024",default-onfarmmarket-4-3.jpg,701876,Berry Family Farm,,,berryfamilyfarm@gmail.com,"740-438-4463, 740-50",www.berryfamilyfarm.com,,,,,,,"5500 Canal Rd NE, Pleasantville, OH 43148-9752, United States",Ohio,Pleasantville,5500 Canal Rd NE,43148-9752,-82.47712,39.85575,,
on-farm market,"Apr 4th, 2024",default-onfarmmarket-4-3.jpg,701877,Best Family Farms LLC,,Steve Best,hayseed300@gmail.com,740-251-7142,www.bestfamilyfarms.com,,,,,,,"1320 S Best Rd, Stockport, OH 43787, United States",Ohio,Stockport,1320 S Best Rd,43787,-81.91049,39.58357,,
on-farm market,"Apr 4th, 2024",default-onfarmmarket-4-3.jpg,701878,Bison Ranch,,,bisonranchellsworthoh@gmail.com,330- 301-7352,https://www.facebook.com/The-Bison-Ranch-562272297252109/,,,,,,,"5946 S Salem Warren Rd, North Jackson, OH 44451-9706, United States",Ohio,North Jackson,5946 S Salem Warren Rd,44451-9706,-80.85756,41.03229,,
on-farm market,"Apr 4th, 2024",default-onfarmmarket-4-3.jpg,701879,Bissell Maple Farm,,,,,,,,,,,,"82 W Ashtabula St, Jefferson, OH 44047-1044, United States",Ohio,Jefferson,82 W Ashtabula St,44047-1044,-80.77307,41.74178,,
on-farm market,"Apr 4th, 2024",default-onfarmmarket-4-3.jpg,701880,The Blueberry Knoll,,,,,,,,,,,,"2349 Plymouth Gageville Rd, Ashtabula, OH 44004, United States",Ohio,Ashtabula,2349 Plymouth Gageville Rd,44004,-80.70343,41.83969,,
on-farm market,"Apr 4th, 2024",default-onfarmmarket-4-3.jpg,701881,Bluegreen Gardens,,Elizabeth Zawislak,info@bluegreengardensflowers.com,740-777-3977,www.bluegreengardensflowers.com,,,,,,,"60 Hamburg Rd SW, Lancaster, OH 43130-9098, United States",Ohio,Lancaster,60 Hamburg Rd SW,43130-9098,-82.60678,39.69532,,
on-farm market,"Apr 4th, 2024",default-onfarmmarket-4-3.jpg,701882,Bucks Pastured Poultry,,,,,,,,,,,,"1738 State Route 534 S, Geneva, OH 44041-8396, United States",Ohio,Geneva,1738 State Route 534 S,44041-8396,-80.95039,41.70292,,
on-farm market,"Apr 4th, 2024",default-onfarmmarket-4-3.jpg,701883,Catalpa Grove Farm,,,craigmercer@sbcglobal.net,330-482-4064,http://www.catalpagrove.com/,,,,,,,"41473 Salem Unity Rd, Columbiana, OH 44408-9422, United States",Ohio,Columbiana,41473 Salem Unity Rd,44408-9422,-80.71749,40.90015,,
on-farm market,"Apr 4th, 2024",default-onfarmmarket-4-3.jpg,701884,Champaign Berry Farm,,Mike and Cathy Pullins,champaignberryfarm@gmail.com,937-232-7525,www.champaignberryfarm.com,,,,,,,"5676 E State Route 29, Urbana, OH 43078-9758, United States",Ohio,Urbana,5676 E State Route 29,43078-9758,-83.64377,40.08264,,
on-farm market,"Apr 4th, 2024",default-onfarmmarket-4-3.jpg,701885,Contraban Farms Ltd. ,,,,,,,,,,,,"612 Garford Rd, Geneva, OH 44041-9636, United States",Ohio,Geneva,612 Garford Rd,44041-9636,-80.92767,41.73985,,
on-farm market,"Apr 4th, 2024",default-onfarmmarket-4-3.jpg,701886,"Countryside Farm Market, LLC",,,obx623@gmail.com,330-536-2178,https://countrysidefarm.net/,,,,,,,"4684 Center Rd, Lowellville, OH 44436-9554, United States",Ohio,Lowellville,4684 Center Rd,44436-9554,-80.56489,41.02396,,
on-farm market,"Apr 4th, 2024",default-onfarmmarket-4-3.jpg,701887,Crooked Fence Farms,,,,,,,,,,,,"1941 Netcher Rd, Jefferson, OH 44047-9495, United States",Ohio,Jefferson,1941 Netcher Rd,44047-9495,-80.7176,41.74075,,
on-farm market,"Apr 4th, 2024",default-onfarmmarket-4-3.jpg,701888,Detwiler Farms,,,monica.detwiler@gmail.com,330-482-2276,https://www.detwilerfarm.com/,,,,,,,"4520 Renkenberger Rd, Columbiana, OH 44408-9338, United States",Ohio,Columbiana,4520 Renkenberger Rd,44408-9338,-80.73919,40.92289,,
on-farm market,"Apr 4th, 2024",default-onfarmmarket-4-3.jpg,701889,DeWitt Farm,,Greg Dewitt,dewittfarm@gmail.com,"740-304-9372, 740-86",,,,,,,,"1755 Carroll Eastern Rd NE, Pleasantville, OH 43148-9711, United States",Ohio,Pleasantville,1755 Carroll Eastern Rd NE,43148-9711,-82.5613,39.79692,,
on-farm market,"Apr 4th, 2024",default-onfarmmarket-4-3.jpg,701890,Don's Prawns & More,,Don Maloney,donsprawns@gmail.com,740-536-9003,,,,,,,,"7440 Coonpath Rd NE, Rushville, Ohio, 43150",Ohio,Rushville,7440 Coonpath Rd NE,43150,-82.453349596515,39.762311019815,,
on-farm market,"Apr 4th, 2024",default-onfarmmarket-4-3.jpg,701891,Down the Road Farm,,Lauren Ketchum,downtheroadfarm@mail.com,614-772-8394,www.downtheroadfarm.com,,,,,,,"3594 Palmer Rd NE, New Lexington, OH 43764-9121, United States",Ohio,New Lexington,3594 Palmer Rd NE,43764-9121,-82.2168,39.74437,,
on-farm market,"Apr 4th, 2024",default-onfarmmarket-4-3.jpg,701892,Eleanor's Plant Based,,Jodi Luke,eleanorsplantbased@gmail.com,740-438-6501,www.eleanorsplantbased.com,,,,,,,"800 Long St, Ashville, OH 43103-9312, United States",Ohio,Ashville,800 Long St,43103-9312,-82.9503,39.73451,,
on-farm market,"Apr 4th, 2024",default-onfarmmarket-4-3.jpg,701894,Fiddlecliff Farm,,,,,,,,,,,,"6095 N River Rd W, Geneva, OH 44041-8391, United States",Ohio,Geneva,6095 N River Rd W,44041-8391,-80.97344,41.76075,,
on-farm market,"Apr 4th, 2024",default-onfarmmarket-4-3.jpg,701895,Field Fresh Farm,,,,440-655-9960,,,,,,,,"2472 State Route 307 E, Jefferson, OH 44047-9657, United States",Ohio,Jefferson,2472 State Route 307 E,44047-9657,-80.70597,41.69442,,
on-farm market,"Apr 4th, 2024",default-onfarmmarket-4-3.jpg,701896,Flannel Dog Farm,,,,,,,,,,,,"5003 Ninevah Rd, Ashtabula, OH 44004-9770, United States",Ohio,Ashtabula,5003 Ninevah Rd,44004-9770,-80.88677,41.85979,,
on-farm market,"Apr 4th, 2024",default-onfarmmarket-4-3.jpg,701897,Foster Farms Cattle Co LLC,,Kendall Foster,mrlfosterfarms@icloud.com,740-851-3240,"https://www.facebook.com/FosterFarmsCattle?mibextid=LQQJ4d
",,,,,,,"9865 Chillicothe Lancaster Rd SW, Amanda, OH 43102-9301, United States",Ohio,Amanda,9865 Chillicothe Lancaster Rd SW,43102-9301,-82.76029,39.58762,,
on-farm market,"Apr 4th, 2024",default-onfarmmarket-4-3.jpg,701898,Freeman and Fiat Farms,,,,,,,,,,,,"3352 Mells Rd, Dorset, OH 44032-9802, United States",Ohio,Dorset,3352 Mells Rd,44032-9802,-80.66543,41.67492,,
on-farm market,"Apr 4th, 2024",default-onfarmmarket-4-3.jpg,701899,FreshORR Family Farms,,Richard & Gina Orr,contact@freshORRfamilyfarms.com,740-243-9085,www.freshorrfamilyfarms.com,,,,,,,"6312 US Highway 22 NW, Rushville, OH 43150-9641, United States",Ohio,Rushville,6312 US Highway 22 NW,43150-9641,-82.36739,39.77755,,
on-farm market,"Apr 4th, 2024",default-onfarmmarket-4-3.jpg,701900,G. Burbick Farms,,,info@gburbickfarms.com,330- 853-7592,https://www.gburbickfarms.com/,,,,,,,"13480 New Buffalo Rd, Columbiana, OH 44408-9320, United States",Ohio,Columbiana,13480 New Buffalo Rd,44408-9320,-80.69783,40.92258,,
on-farm market,"Apr 4th, 2024",default-onfarmmarket-4-3.jpg,701901,Gasperâ€™s Garden,,,Gaspersgarden@gmail.com,330-533-7221,https://gaspers-garden.weebly.com/,,,,,,,"5720 W South Range Rd, Salem, OH 44460-9248, United States",Ohio,Salem,5720 W South Range Rd,44460-9248,-80.75946,40.94679,,
on-farm market,"Apr 4th, 2024",default-onfarmmarket-4-3.jpg,701902,Generation Farms,,Chris & Angi Miller,Generationfarms17@yahoo.com,740-407-6868,https://www.facebook.com/profile.php?id=100064359444783,,,,,,,"Blacklick Eastern Rd NW, Baltimore, OH 43105, United States",Ohio,Baltimore,Blacklick Eastern Rd NW,43105,-82.65104,39.90339,,
on-farm market,"Apr 4th, 2024",default-onfarmmarket-4-3.jpg,701903,Grass Powered Poultry & Meats,,,,740- 408-3500,https://grasspoweredpoultry.com/,,,,,,,"6789 Carper Ln, Hillsboro, OH 45133-7646, United States",Ohio,Hillsboro,6789 Carper Ln,45133-7646,-83.52721,39.20729,,
on-farm market,"Apr 4th, 2024",default-onfarmmarket-4-3.jpg,701904,Green Edge Gardens,,,greenedgegardens@verizon.net,740-448-4021,https://casanueva.com/producer/green-edge-gardens/,,,,,,,"16232 Henry Rd, Amesville, OH 45711-9433, United States",Ohio,Amesville,16232 Henry Rd,45711-9433,-81.97682,39.42001,,
on-farm market,"Apr 4th, 2024",default-onfarmmarket-4-3.jpg,701905,Harrison Farm,,Katherine Harrison,harrisonfarm13@gmail.com,614-271-0304,www.harrisonfarm13.com,,,,,,,"5278 Berger Rd, Groveport, OH 43125-9721, United States",Ohio,Groveport,5278 Berger Rd,43125-9721,-82.84879,39.81445,,
on-farm market,"Apr 4th, 2024",default-onfarmmarket-4-3.jpg,701906,Henry Farms Inc. ,,,,,,,,,,,,"Voss Rd, Geneva, Ohio, 44041",Ohio,Geneva,Voss Rd,44041,-80.915642160274,41.737417239644,,
on-farm market,"Apr 4th, 2024",default-onfarmmarket-4-3.jpg,701907,Historic Yellow House Farm,,,,,,,,,,,,"115 E Jefferson St, Jefferson, OH 44047-1113, United States",Ohio,Jefferson,115 E Jefferson St,44047-1113,-80.76335,41.7391,,
on-farm market,"Apr 4th, 2024",default-onfarmmarket-4-3.jpg,701908,Hocking Hills Home Grown,,Joyce Shriner,joyce@farmohio.com,740-569-7400,www.HockingHillsHomegrown.wordpress.com,,,,,,,"4838 State Route 312 SW, Bremen, OH 43107-9500, United States",Ohio,Bremen,4838 State Route 312 SW,43107-9500,-82.36939,39.65808,,
on-farm market,"Apr 4th, 2024",default-onfarmmarket-4-3.jpg,701909,Hubbard Run Farm,,,,,,,,,,,,"7418 Austinburg Rd, Ashtabula, OH 44004-9003, United States",Ohio,Ashtabula,7418 Austinburg Rd,44004-9003,-80.79939,41.83752,,
on-farm market,"Apr 4th, 2024",default-onfarmmarket-4-3.jpg,701910,Hugus Fruit Farm,,,,740-536-9590,www.hugusfruitfarm.com,,,,,,,"1960 Old Rushville Rd NE, Rushville, OH 43150-9780, United States",Ohio,Rushville,1960 Old Rushville Rd NE,43150-9780,-82.42707,39.74598,,
on-farm market,"Apr 4th, 2024",default-onfarmmarket-4-3.jpg,701911,Jakeco Farms 2 LLC,,,,,,,,,,,,"5629 Middle Rd, Conneaut, OH 44030-8823, United States",Ohio,Conneaut,5629 Middle Rd,44030-8823,-80.54421,41.88347,,
on-farm market,"Apr 4th, 2024",default-onfarmmarket-4-3.jpg,701912,Joos Farm,,Todd and Lisa Joos,toddjoos@gmail.com,740-653-0771,https://www.facebook.com/jooselec,,,,,,,"1529 Becks Knob Rd SW, Lancaster, OH 43130-9552, United States",Ohio,Lancaster,1529 Becks Knob Rd SW,43130-9552,-82.65663,39.70546,,
on-farm market,"Apr 4th, 2024",default-onfarmmarket-4-3.jpg,701913,Kanicki Cattle Company,,,,,,,,,,,,"4664 Schramling Rd, Pierpont, OH 44082-9712, United States",Ohio,Pierpont,4664 Schramling Rd,44082-9712,-80.61757,41.73896,,
on-farm market,"Apr 4th, 2024",default-onfarmmarket-4-3.jpg,701914,Lamppost Farm,,,lamppostfarm@gmail.com,330-531-4240,http://www.lamppostfarm.com/,,,,,,,"14900 Market St, Columbiana, OH 44408-9793, United States",Ohio,Columbiana,14900 Market St,44408-9793,-80.65123,40.90089,,
on-farm market,"Apr 4th, 2024",default-onfarmmarket-4-3.jpg,701915,Lillie Road Farm,,,,,,,,,,,,"3197 Lillie Rd, Jefferson, OH 44047-8309, United States",Ohio,Jefferson,3197 Lillie Rd,44047-8309,-80.67184,41.81066,,
on-farm market,"Apr 4th, 2024",default-onfarmmarket-4-3.jpg,701916,Liste farms,,,ListeFarms@gmail.com,937-661-4480,https://liste-farm.site123.me/?fbclid=IwAR3YuOxVWPsjKz0Fgd-XnejoaXjUqH4FiAluzaa4WSCdnA6JVzQa_6nOMGM,,,,,,,"3554 SE River Rd, Berlin Center, OH 44401-9732, United States",Ohio,Berlin Center,3554 SE River Rd,44401-9732,-80.96437,41.06819,,
on-farm market,"Apr 4th, 2024",default-onfarmmarket-4-3.jpg,701917,Mama Said Homestead,,,,,,,,,,,,"5083 State Route 45, Rome, OH 44085-9402, United States",Ohio,Rome,5083 State Route 45,44085-9402,-80.86605,41.61091,,
on-farm market,"Apr 4th, 2024",default-onfarmmarket-4-3.jpg,701918,Mechling's Maple Farm,,,,,,,,,,,,"6620 Turner Rd, Pierpont, OH 44082-9732, United States",Ohio,Pierpont,6620 Turner Rd,44082-9732,-80.5452,41.7396,,
on-farm market,"Apr 4th, 2024",default-onfarmmarket-4-3.jpg,701919,Moore Farms,,,,330-533-5821,https://www.facebook.com/p/Moore-Farms-Butcher-Shop-100057334664827/,,,,,,,"7393 W Western Reserve Rd, Canfield, OH 44406-8114, United States",Ohio,Canfield,7393 W Western Reserve Rd,44406-8114,-80.79055,40.98553,,
on-farm market,"Apr 4th, 2024",default-onfarmmarket-4-3.jpg,701920,Moores Heritage Farm,,,,,,,,,,,,"3918 State Rd S, Ashtabula, Ohio, 44004",Ohio,Ashtabula,3918 State Rd S,44004,-80.756403021867,41.832200992774,,
on-farm market,"Apr 4th, 2024",default-onfarmmarket-4-3.jpg,701921,"Nature's Bundle, LLC",,,,,,,,,,,,"5271 Wetmore Rd, Conneaut, OH 44030-8620, United States",Ohio,Conneaut,5271 Wetmore Rd,44030-8620,-80.60421,41.87057,,
on-farm market,"Apr 4th, 2024",default-onfarmmarket-4-3.jpg,701922,North Root Farm and Forage,,,,,,,,,,,,"2921 Austinburg Rd, Ashtabula, OH 44004-8824, United States",Ohio,Ashtabula,2921 Austinburg Rd,44004-8824,-80.82352,41.80994,,
on-farm market,"Apr 4th, 2024",default-onfarmmarket-4-3.jpg,701923,Octagon Acres,,,,,,,,,,,,"6312 Hatches Corners Rd, Conneaut, OH 44030-9650, United States",Ohio,Conneaut,6312 Hatches Corners Rd,44030-9650,-80.55695,41.88049,,
on-farm market,"Apr 4th, 2024",default-onfarmmarket-4-3.jpg,701924,Outwash Terrace Farm,,,,,,,,,,,,"129 Creek Rd, Pierpont, OH 44082, United States",Ohio,Pierpont,129 Creek Rd,44082,-80.56249,41.74787,,
on-farm market,"Apr 4th, 2024",default-onfarmmarket-4-3.jpg,701925,Paiges Produce,,Brian Helser,paigesproduce@msn.com,740-601-8419,www.paigesproduce.com,,,,,,,"7975 Cincinnati Zanesville Rd SW, Amanda, OH 43102-9702, United States",Ohio,Amanda,7975 Cincinnati Zanesville Rd SW,43102-9702,-82.76081,39.64878,,
on-farm market,"Apr 4th, 2024",default-onfarmmarket-4-3.jpg,701926,Pennline Farm U-Pick Blueberries,,,,,,,,,,,,"6800 Turner Rd, Pierpont, OH 44082-9732, United States",Ohio,Pierpont,6800 Turner Rd,44082-9732,-80.536,41.73961,,
on-farm market,"Apr 4th, 2024",default-onfarmmarket-4-3.jpg,701927,"Peter's Creek Farm, Ltd. ",,,,,,,,,,,,"3451 S Denmark Rd, Dorset, OH 44032-8714, United States",Ohio,Dorset,3451 S Denmark Rd,44032-8714,-80.66136,41.72289,,
on-farm market,"Apr 4th, 2024",default-onfarmmarket-4-3.jpg,701928,Phillips Egg Company,,,,,,,,,,,,"3948 State Route 45 S, Rock Creek, OH 44084-9729, United States",Ohio,Rock Creek,3948 State Route 45 S,44084-9729,-80.86311,41.64221,,
on-farm market,"Apr 4th, 2024",default-onfarmmarket-4-3.jpg,701929,Pleasant Valley Family Farms,,Kerry Lynn Sykes,pleasantvalleyfamilyfarms@gmail.com,614-554-7202,pleasantvalleyfamilyfarms.com,,,,,,,"5721 Pleasantvalley Rd SW, Lancaster, OH 43130-8916, United States",Ohio,Lancaster,5721 Pleasantvalley Rd SW,43130-8916,-82.71216,39.65463,,
on-farm market,"Apr 4th, 2024",default-onfarmmarket-4-3.jpg,701930,Poor Boyz Produce,,Bill & Jodie Poor,jodiepoor@gmail.com,740-407-6588,https://poorboyz-produce.square.site,,,,,,,"7119 16th Rd SW, Amanda, OH 43102-9336, United States",Ohio,Amanda,7119 16th Rd SW,43102-9336,-82.79382,39.63086,,
on-farm market,"Apr 4th, 2024",default-onfarmmarket-4-3.jpg,701931,Poplar Creek Pastures,,,poplarcreekpoultry@gmail.com,,www.poplarcreekpoultry.webs.com,,,,,,,"11635 Poplar Creek Rd, Baltimore, OH 43105, United States",Ohio,Baltimore,11635 Poplar Creek Rd,43105,-82.67054,39.89903,,
on-farm market,"Apr 4th, 2024",default-onfarmmarket-4-3.jpg,701932,"Poplar Land & Cattle, Inc.",,Craig Getz,poplarland@msn.com,740-862-6085,https://www.facebook.com/poplarlandandcattle/,,,,,,,"1630 Bickel Church Rd NW, Baltimore, OH 43105-9624, United States",Ohio,Baltimore,1630 Bickel Church Rd NW,43105-9624,-82.61715,39.87221,,
on-farm market,"Apr 4th, 2024",default-onfarmmarket-4-3.jpg,701933,Premium Pastured Meats,,,premiumpasturedmeats@yahoo.com,330-240-0663,https://www.premiumpasturedmeats.com/,,,,,,,"28509 State Route 62, Beloit, Ohio, 44609",Ohio,Beloit,28509 State Route 62,44609,-80.962974019797,40.900915014046,,
on-farm market,"Apr 4th, 2024",default-onfarmmarket-4-3.jpg,701934,Preston Family Farms,,Trish Preston,theprestonfamilyfarm@gmail.com,614-330-5955,prestonfamilyfarms.org,,,,,,,"9025 Waterloo Eastern Rd, Canal Winchester, OH 43110-8986, United States",Ohio,Canal Winchester,9025 Waterloo Eastern Rd,43110-8986,-82.7637,39.8343,,
on-farm market,"Apr 4th, 2024",default-onfarmmarket-4-3.jpg,701935,Punky's Tack & Feed Shop,,Gail & Jim Ellinger,gailellinger@yahoo.com,"740-808-2523, 
740-9",https://punkys-tack-feed-shop.hub.biz/,,,,,,,"5800 Westfall Rd SW, Lancaster, OH 43130-7994, United States",Ohio,Lancaster,5800 Westfall Rd SW,43130-7994,-82.71226,39.68945,,
on-farm market,"Apr 4th, 2024",default-onfarmmarket-4-3.jpg,701936,Purple Goat Gardens,,,,,,,,,,,,"3447 Lampson Rd, Austinburg, OH 44010-9783, United States",Ohio,Austinburg,3447 Lampson Rd,44010-9783,-80.87689,41.75693,,
on-farm market,"Apr 4th, 2024",default-onfarmmarket-4-3.jpg,701937,R & R Farm Produce,,,dick.berta@yahoo.com,740-654-0335,https://www.localharvest.org/r-r-farm-produce-M27580,,,,,,,"4340 Lithopolis Rd NW, Lancaster, OH 43130-9591, United States",Ohio,Lancaster,4340 Lithopolis Rd NW,43130-9591,-82.68523,39.74739,,
on-farm market,"Apr 4th, 2024",default-onfarmmarket-4-3.jpg,701938,Ravenwood Heritage Farm,,,,,,,,,,,,"2782 Black Sea Rd, Jefferson, OH 44047-9688, United States",Ohio,Jefferson,2782 Black Sea Rd,44047-9688,-80.74185,41.67528,,
on-farm market,"Apr 4th, 2024",default-onfarmmarket-4-3.jpg,701939,Red Basket Farm's Good Intentions Market & Cafe,,,contact@goodintentionsmarket.com,330-355-2500,https://goodintentionsmarket.com/red-basket-farm,,,,,,,"6635 State Route 87, Kinsman, OH 44428-9516, United States",Ohio,Kinsman,6635 State Route 87,44428-9516,-80.57948,41.45583,,
on-farm market,"Apr 4th, 2024",default-onfarmmarket-4-3.jpg,701940,Red Beet Row,,,,,,,,,,,,"2889 Maple Rd E, Jefferson, OH 44047-8466, United States",Ohio,Jefferson,2889 Maple Rd E,44047-8466,-80.68309,41.79121,,
on-farm market,"Apr 4th, 2024",default-onfarmmarket-4-3.jpg,701941,Riceland Meadows,,,,,,,,,,,,"1485 State Route 307 W, Jefferson, Ohio, 44047",Ohio,Jefferson,1485 State Route 307 W,44047,-80.804722011464,41.760004014596,,
on-farm market,"Apr 4th, 2024",default-onfarmmarket-4-3.jpg,701942,River's Bend Farm Market,,,Rebeccawuthrick@yahoo.com,330-853-6340,https://www.facebook.com/RiversBendFarm/,,,,,,,"659 Knox School Rd, Alliance, OH 44601-9095, United States",Ohio,Alliance,659 Knox School Rd,44601-9095,-81.03326,40.89126,,
on-farm market,"Apr 4th, 2024",default-onfarmmarket-4-3.jpg,701943,Roger's Honey LLC,,Roger and Marlene Miller,rogershoney@rogershoneyllc.com,740-862-2501,www.rogershoneyllc.com,,,,,,,"12429 Snyder Church Rd, Baltimore, OH 43105-9640, United States",Ohio,Baltimore,12429 Snyder Church Rd,43105-9640,-82.64333,39.90896,,
on-farm market,"Apr 4th, 2024",default-onfarmmarket-4-3.jpg,701944,Samara Farm,,,,,,,,,,,,"2680 Lillie Rd, Jefferson, OH 44047-8768, United States",Ohio,Jefferson,2680 Lillie Rd,44047-8768,-80.69119,41.81083,,
on-farm market,"Apr 4th, 2024",default-onfarmmarket-4-3.jpg,701945,Schmitt Farms,,,Schmittfarms2013@gmail.com,614-406-3461,https://www.facebook.com/SchmittFarms2013/,,,,,,,"3875 Bickel Church Rd NW, Baltimore, OH 43105-9493, United States",Ohio,Baltimore,3875 Bickel Church Rd NW,43105-9493,-82.65936,39.87477,,
on-farm market,"Apr 4th, 2024",default-onfarmmarket-4-3.jpg,701946,Schultz Valley Farms,,Lynne Schultz,schultzvalleyfarms@yahoo.com,740-438-8337,https://www.facebook.com/SchultzValleyFarms,,,,,,,"424 Zion Rd SE, Lancaster, Ohio, 43130",Ohio,Lancaster,424 Zion Rd SE,43130,-82.461953015282,39.712498984166,,
on-farm market,"Apr 4th, 2024",default-onfarmmarket-4-3.jpg,701947,Scooterâ€™s Farm Market,,,,330-607-3332,https://www.loc8nearme.com/ohio/akron/scooters-farm-market/7040844/,,,,,,,"1572 N Cleveland Massillon Rd, Akron, OH 44333-1865, United States",Ohio,Akron,1572 N Cleveland Massillon Rd,44333-1865,-81.63673,41.17829,,
on-farm market,"Apr 4th, 2024",default-onfarmmarket-4-3.jpg,701948,Seiberling Farm,,,,"330-328-7004, 614-35",https://www.facebook.com/Seiberling-Farm-192438307445760,,,,,,,"4117 Greenwich Rd, Norton, OH 44203-5433, United States",Ohio,Norton,4117 Greenwich Rd,44203-5433,-81.67401,41.03129,,
on-farm market,"Apr 4th, 2024",default-onfarmmarket-4-3.jpg,701949,Smith's Fruit Farm,,,,440- 466-2433,https://smith-s-fruit-farm.hub.biz/?fbclid=IwAR3mk6MbKP9De6JGNXaFoEVKJ-Ewps6X20xxIjU1kcbxgs4dHq4fnuQ5czI,,,,,,,"6611 S Ridge Rd E, Geneva, OH 44041-8252, United States",Ohio,Geneva,6611 S Ridge Rd E,44041-8252,-80.88968,41.80896,,
on-farm market,"Apr 4th, 2024",default-onfarmmarket-4-3.jpg,701950,Spencer Meats,,,spencermeats@gmail.com,330-309-5884,http://www.spencermeats.com/,,,,,,,"11635 Smith Goshen Rd, Beloit, OH 44609-9726, United States",Ohio,Beloit,11635 Smith Goshen Rd,44609-9726,-80.97434,40.95039,,
on-farm market,"Apr 4th, 2024",default-onfarmmarket-4-3.jpg,701951,Spencer's Farm ,,,,,,,,,,,,"6367 Root Rd, Conneaut, OH 44030-8779, United States",Ohio,Conneaut,6367 Root Rd,44030-8779,-80.55553,41.83383,,
on-farm market,"Apr 4th, 2024",default-onfarmmarket-4-3.jpg,701952,Spring Rose Farm Market,,,leonandgayle98@gmail.com,330-482-1521,https://www.facebook.com/profile.php?id=100057066985302,,,,,,,"13189 Columbiana Canfield Rd, Columbiana, OH 44408-9771, United States",Ohio,Columbiana,13189 Columbiana Canfield Rd,44408-9771,-80.71879,40.92678,,
on-farm market,"Apr 4th, 2024",default-onfarmmarket-4-3.jpg,701953,Stahl's Farm Market,,,marthastahl@yahoo.com ,330-584-2077,,,,,,,,"10780 Johnson Rd, North Benton, Ohio, 44449",Ohio,North Benton,10780 Johnson Rd,44449,-81.031793551062,40.964026724448,,
on-farm market,"Apr 4th, 2024",default-onfarmmarket-4-3.jpg,701954,Starner Fmaily Farms,,Jennifer Starner,,740-215-8577,https://www.us-info.com/en/usa/starner_family_farm/rushville/USOH100958698/businessdetails.aspx,,,,,,,"6324 Thornville Rd NE, Rushville, OH 43150-9740, United States",Ohio,Rushville,6324 Thornville Rd NE,43150-9740,-82.41715,39.80938,,
on-farm market,"Apr 4th, 2024",default-onfarmmarket-4-3.jpg,701955,Stone Meadow Farm,,,,,,,,,,,,"6281 Barrett Rd, Geneva, OH 44041-8342, United States",Ohio,Geneva,6281 Barrett Rd,44041-8342,-80.97888,41.68977,,
on-farm market,"Apr 4th, 2024",default-onfarmmarket-4-3.jpg,701956,Sundance Ranch,,,,,,,,,,,,"2541 Chapel Rd, Jefferson, OH 44047-8723, United States",Ohio,Jefferson,2541 Chapel Rd,44047-8723,-80.81275,41.79506,,
on-farm market,"Apr 4th, 2024",default-onfarmmarket-4-3.jpg,701957,Szalayâ€™s Farm & Market,,,,330-657-2727,www.szalaysfarm.com,,,,,,,"4563 Riverview Rd, Peninsula, OH 44264-9401, United States",Ohio,Peninsula,4563 Riverview Rd,44264-9401,-81.57331,41.20113,,
on-farm market,"Apr 4th, 2024",default-onfarmmarket-4-3.jpg,701958,Templin Family Produce,,Clayton Templin,None,740-243-0341,www.facebook.com/TemplinFamilyProduce,,,,,,,"100 Leonard Rd NW, Baltimore, OH 43105-9739, United States",Ohio,Baltimore,100 Leonard Rd NW,43105-9739,-82.59086,39.831,,
on-farm market,"Apr 4th, 2024",default-onfarmmarket-4-3.jpg,701959,The Spicy Lamb Farm,,,laura@thespicylamb.com,,www.TheSpicyLamb.com,,,,,,,"6560 Akron-Peninsula Rd, Peninsula, OH 44264, United States",Ohio,Peninsula,6560 Akron-Peninsula Rd,44264,-81.53646,41.24653,,
on-farm market,"Apr 4th, 2024",default-onfarmmarket-4-3.jpg,701960,Three Sips Brewing,,,,,,,,,,,,"4501 Wheeler Creek Rd, Geneva, OH 44041-7806, United States",Ohio,Geneva,4501 Wheeler Creek Rd,44041-7806,-80.98854,41.84543,,
on-farm market,"Apr 4th, 2024",default-onfarmmarket-4-3.jpg,701961,Tierra Verde Farm,,,mike@tierraverdefarms.com,330-597-6141,https://tierraverdefarms.com/,,,,,,,"2212 Alliance Rd, Deerfield, OH 44411, United States",Ohio,Deerfield,2212 Alliance Rd,44411,-81.09849,41.04931,,
on-farm market,"Apr 4th, 2024",default-onfarmmarket-4-3.jpg,701962,Wandering Steer Cattle,,David Gummere,sales@wanderingsteer.com,740-304-4553,www.wanderingsteer.com,,,,,,,"2183 Webb Summit Rd SE, Bremen, OH 43107-9726, United States",Ohio,Bremen,2183 Webb Summit Rd SE,43107-9726,-82.43886,39.67913,,
on-farm market,"Apr 4th, 2024",default-onfarmmarket-4-3.jpg,701963,Wildflower Lane Honey,,,,740-627-0688,https://www.facebook.com/wildflowerlanehoney/,,,,,,,"2918 Franchel Ct NW, Lancaster, OH 43130-8809, United States",Ohio,Lancaster,2918 Franchel Ct NW,43130-8809,-82.62899,39.76803,,
on-farm market,"Apr 4th, 2024",default-onfarmmarket-4-3.jpg,701964,Windy Hill Farm & Apiary,,,,,,,,,,,,"4167 Beck Rd, Ashtabula, OH 44004-9684, United States",Ohio,Ashtabula,4167 Beck Rd,44004-9684,-80.74395,41.83915,,
on-farm market,"Apr 4th, 2024",default-onfarmmarket-4-3.jpg,701965,Wrightway Farm,,,amsponseller@yahoo.com,614-205-0365,www.wrightwayfarm.com,,,,,,,"7800 Bader Rd NW, Baltimore, OH 43105-9606, United States",Ohio,Baltimore,7800 Bader Rd NW,43105-9606,-82.65412,39.8417,,
on-farm market,"Apr 4th, 2024",default-onfarmmarket-4-3.jpg,701966,Zachry Farms,,,,330-466-6059,www.ZachryFarms.com,,,,,,,"3523 Wadsworth Rd, Norton, OH 44203-5120, United States",Ohio,Norton,3523 Wadsworth Rd,44203-5120,-81.6547,41.04996,,
on-farm market,"Apr 4th, 2024",default-onfarmmarket-4-3.jpg,701967,Abundantly Blessed Farm,,The McKnightÂ Family,https://mailchi.mp/88d7d979bef5/abundantlyblessedfarm,419-561-4755,https://abundantly-blessed-farm.square.site/,,,,,,,"1140 Mt Zion Rd, Bucyrus, OH 44820, United States",Ohio,Bucyrus,1140 Mt Zion Rd,44820,-83.05662,40.77593,,
on-farm market,"Apr 4th, 2024",default-onfarmmarket-4-3.jpg,701969,Andy Stockmaster Farm,,Andy Stockmaster,farmall806d@yahoo.com,419-561-0124,,,,,,,,"7896 Marsh Rd, New Washington, OH 44854-9795, United States",Ohio,New Washington,7896 Marsh Rd,44854-9795,-82.83987,40.99068,,
on-farm market,"Apr 4th, 2024",default-onfarmmarket-4-3.jpg,701970,Ayers Valley Farm,,Joshua and Taylor Ayers,taylor@ayersvalleyfarm.com,740-222-1352,www.ayersvalleyfarm.com,,,,,,,"9551 State Route 353, Russellville, OH 45168-8980, United States",Ohio,Russellville,9551 State Route 353,45168-8980,-83.72424,38.81801,,
on-farm market,"Apr 4th, 2024",default-onfarmmarket-4-3.jpg,701971,Beddow Farm,,,,330-336-3611,,,,,,,,"4379 Greenwich Rd, Norton, OH 44203-5437, United States",Ohio,Norton,4379 Greenwich Rd,44203-5437,-81.68229,41.0301,,
on-farm market,"Apr 4th, 2024",default-onfarmmarket-4-3.jpg,701972,Bixler Farm Market,,Vicki Bixler,vbixler2000@yahoo.com,937-515-0109,vbixler2000@yahoo.com,,,,,,,"7389 Clifton Ave, Russellville, OH 45168-8913, United States",Ohio,Russellville,7389 Clifton Ave,45168-8913,-83.79989,38.85223,,
on-farm market,"Apr 4th, 2024",default-onfarmmarket-4-3.jpg,701973,Brungard Farm Market,,Matt Brungard,mattbrungard@gmail.com,330-542-3068,,,,,,,,"4653 E Middletown Rd, New Middletown, OH 44442-9400, United States",Ohio,New Middletown,4653 E Middletown Rd,44442-9400,-80.56402,40.95814,,
on-farm market,"Apr 4th, 2024",default-onfarmmarket-4-3.jpg,701974,"Christieâ€™s Mini Micro Farm, LLC",,,Cfrangos91@yahoo.com,330-475-3520,,,,,,,,"8062 Ravenna Rd, Hudson, OH 44236-1526, United States",Ohio,Hudson,8062 Ravenna Rd,44236-1526,-81.40474,41.27847,,
on-farm market,"Apr 4th, 2024",default-onfarmmarket-4-3.jpg,701975,"Dayton Nurseries, Inc.",,,info@daytonnursery.comÂ ,330-825-3320,https://www.daytonnursery.com/,,,,,,,"3459 S Cleveland Massillon Rd, Norton, OH 44203-5202, United States",Ohio,Norton,3459 S Cleveland Massillon Rd,44203-5202,-81.63527,41.04454,,
on-farm market,"Apr 4th, 2024",default-onfarmmarket-4-3.jpg,701976,Grafâ€™s Farm Market,"A family owned farmers market featuring local produce including bi-color sweet corn, tomatoes, peaches, and more. ",,orders@grafgrowers.com,330-836-2727,https://www.grafgrowers.com/farm-market/,,,,,,,"1015 White Pond Dr, Akron, OH 44320-1503, United States",Ohio,Akron,1015 White Pond Dr,44320-1503,-81.59151,41.08934,,
on-farm market,"Apr 4th, 2024",default-onfarmmarket-4-3.jpg,701977,H & H Farm,,,,330-334-1325,https://www.facebook.com/handhfarm/,,,,,,,"4162 Wadsworth Rd, Norton, OH 44203-4906, United States",Ohio,Norton,4162 Wadsworth Rd,44203-4906,-81.6778,41.04723,,
on-farm market,"Apr 4th, 2024",default-onfarmmarket-4-3.jpg,701978,Hi-Vue Farms LLC,,,,330-388-2270,,,,,,,,"1915 Almeter Dr, Akron, OH 44306-4355, United States",Ohio,Akron,1915 Almeter Dr,44306-4355,-81.46719,41.01165,,
on-farm market,"Apr 4th, 2024",default-onfarmmarket-4-3.jpg,701979,Kendall Farm,,,,330-745-7694,,,,,,,,"3734 Clark Mill Rd, Norton, OH 44203-1036, United States",Ohio,Norton,3734 Clark Mill Rd,44203-1036,-81.6229,41.0268,,
on-farm market,"Apr 4th, 2024",default-onfarmmarket-4-3.jpg,701980,Luther Farms & Luther Farm Market,,,,330-659-2526,www.lutherfarms.com,,,,,,,"5150 Alger Rd, Richfield, OH 44286-9611, United States",Ohio,Richfield,5150 Alger Rd,44286-9611,-81.66349,41.27015,,
on-farm market,"Apr 4th, 2024",default-onfarmmarket-4-3.jpg,701981,Mulvins Farm Market,,,,419-502-6338,,,,,,,,"1706 E Perkins Ave, Sandusky, OH 44870-5126, United States",Ohio,Sandusky,1706 E Perkins Ave,44870-5126,-82.67368,41.43011,,
on-farm market,"Apr 4th, 2024",default-onfarmmarket-4-3.jpg,701982,Murphy Farms,,,,330-212-9549,,,,,,,,"2500 S Hametown Rd, Barberton, OH 44203-6424, United States",Ohio,Barberton,2500 S Hametown Rd,44203-6424,-81.66815,41.06692,,
on-farm market,"Apr 4th, 2024",default-onfarmmarket-4-3.jpg,701983,Oakview Farm Meats,,Mark Runyan,Oakview12@yahoo.com,937-869-6083,https://champaignoh.locallygrown.net/growers/show/3891,,,,,,,"1645 State Route 54, Urbana, Ohio, 43078",Ohio,Urbana,1645 State Route 54,43078,-83.731158982837,40.084770987781,,
on-farm market,"Apr 4th, 2024",default-onfarmmarket-4-3.jpg,701984,Ochs Fruit Farm,,David Ochs,Ochsfruitfarm@gmail.com,740-652-5758,https://www.ochsfruitfarm.com/,,,,,,,"2161 Pleasantville Rd, Lancaster, OH 43130-9289, United States",Ohio,Lancaster,2161 Pleasantville Rd,43130-9289,-82.55328,39.7461,,
on-farm market,"Apr 4th, 2024",default-onfarmmarket-4-3.jpg,701985,Reese & Sons Circle R Farm,,,,330-538-3601,,,,,,,,"2419 S Bailey Rd, North Jackson, OH 44451-9629, United States",Ohio,North Jackson,2419 S Bailey Rd,44451-9629,-80.88687,41.08417,,
on-farm market,"Apr 4th, 2024",default-onfarmmarket-4-3.jpg,701986,Rus-Men Farms,,Rusty & Mendy Sellman,info@rusmenfarms.com,419-971-6957,https://rusmenfarms.com/,,,,,,,"710 Iberia Rd, Galion, OH 44833-9745, United States",Ohio,Galion,710 Iberia Rd,44833-9745,-82.85117,40.73255,,
on-farm market,"Apr 4th, 2024",default-onfarmmarket-4-3.jpg,701987,Smokey Hollow Farms,,Corboy Family,smokeyhollowfarmsangusbeef@gmail.com,937-403-0961,www.smokeyhollowfarmbeef.com,,,,,,,"13705 Corboy Rd, Sardinia, OH 45171-8408, United States",Ohio,Sardinia,13705 Corboy Rd,45171-8408,-83.83311,39.01663,,
on-farm market,"Apr 4th, 2024",default-onfarmmarket-4-3.jpg,701988,Toft Dairy (dairy parlor,,,info@toftdairy.com,419-625-4376,https://toftdairy.com/,,,,,,,"3717 Venice Rd, Sandusky, OH 44870-1640, United States",Ohio,Sandusky,3717 Venice Rd,44870-1640,-82.75263,41.44273,,
on-farm market,"Apr 4th, 2024",default-onfarmmarket-4-3.jpg,701989,"Kale Yard, The",,Erin Harvey,"thekaleyard@gmail.com
https://www.facebook.com/thekaleyard/
https://www.instagram.com/thekaleyard/",740-808-9908,"www.thekaleyardohio.com
https://www.facebook.com/thekaleyard/
https://www.instagram.com/thekaleyard/",,,,,,,"3555 Wheeling Rd NE, Lancaster, OH 43130-8711, United States",Ohio,Lancaster,3555 Wheeling Rd NE,43130-8711,-82.53008,39.73893,,
on-farm market,"Apr 4th, 2024",default-onfarmmarket-4-3.jpg,701990,Brungard Farm Inc,,,pattybrungard@gmail.com,330-542-3068 ,http://ohioproud.org/farm-markets-all/farmers-market-search/pick-your-own/#!biz/id/57f56c57178f4e557a7b25f0/Contact,,,,,,,"4653 E Middletown Rd, New Middletown, OH 44442-9400, United States",Ohio,New Middletown,4653 E Middletown Rd,44442-9400,-80.56402,40.95814,,
on-farm market,"Apr 4th, 2024",default-onfarmmarket-4-3.jpg,701991,Buckeye Highlands,,,info@organicgrassfedbeef.com,330-482-0767,https://www.eatwellguide.org/listings/27041/locations/4130?latitude=40.7914504&longitude=-80.6261832,,,,,,,"43016 Buckeye Rd, Lisbon, OH 44432, United States",Ohio,Lisbon,43016 Buckeye Rd,44432,-80.68475,40.71775,,
on-farm market,"Apr 4th, 2024",default-onfarmmarket-4-3.jpg,701992,Conkle Family Farm,,,pconkle@frontier.com,330-853-8236,https://www.facebook.com/ConkleFamilyFarms/,,,,,,,"9861 Stroup Rd, Hanoverton, OH 44423-9784, United States",Ohio,Hanoverton,9861 Stroup Rd,44423-9784,-80.9055,40.75949,,
on-farm market,"Apr 4th, 2024",default-onfarmmarket-4-3.jpg,701993,Hereford Lane Farm,,,,330-533-3036,,,,,,,,"1600 N Salem Warren Rd, North Jackson, OH 44451-8608, United States",Ohio,North Jackson,1600 N Salem Warren Rd,44451-8608,-80.85763,41.11367,,
on-farm market,"Apr 4th, 2024",default-onfarmmarket-4-3.jpg,701994,Heritage Lake Farm,,,,216-215-2855,https://www.heritagelakefarm.com/,,,,,,,"18657 Mumford Rd, Garrettsville, OH 44231-9502, United States",Ohio,Garrettsville,18657 Mumford Rd,44231-9502,-81.10368,41.36104,,
on-farm market,"Apr 4th, 2024",default-onfarmmarket-4-3.jpg,701995,Heritage Lane Bison Farm,,,kevin.swope@vzw.blackberry.net,330-222-1377 or 234-,https://heritagelanefarm.weebly.com/,,,,,,,"29668 Mountz Rd, Salem, OH 44460-9561, United States",Ohio,Salem,29668 Mountz Rd,44460-9561,-80.94309,40.81567,,
on-farm market,"Apr 4th, 2024",default-onfarmmarket-4-3.jpg,701996,Miller Livestock Co.,,,,330-876-5655,https://www.millergrassfed.com/,,,,,,,"9924 Kinsman Pymatuning Rd, Kinsman, OH 44428-9541, United States",Ohio,Kinsman,9924 Kinsman Pymatuning Rd,44428-9541,-80.54284,41.48953,,
on-farm market,"Apr 4th, 2024",default-onfarmmarket-4-3.jpg,701997,Misty Maple Sugar House,,,,330-332-0728,,,,,,,,"10644 W Middletown Rd, Salem, OH 44460-9614, United States",Ohio,Salem,10644 W Middletown Rd,44460-9614,-80.85122,40.959,,
on-farm market,"Apr 4th, 2024",default-onfarmmarket-4-3.jpg,701998,White's Twin Tree Farms,"We raise and sell Rex rabbits, Bielefelder chickens, honeybees, and the different products from each. We also like to teach others about what we have learned and the experiences of each thing we do on the farm. ",,whitestwintreefarms@gmail.com,740-503-4872,whitestwintreefarms.com,,,,,,,"2555 Hamburg Rd SW, Lancaster, OH 43130-8620, United States",Ohio,Lancaster,2555 Hamburg Rd SW,43130-8620,-82.65226,39.65837,,
on-farm market,"Aug 10th, 2014",default-onfarmmarket-4-3.jpg,700826,Thurmans' Farm Market,,Randy Thurman,Randy.thurman7@gmail.com,4192602744,Thurmansfarmmarket.com,https://www.facebook.com/pages/Thurmans-Farm-Market/133871850093087,,,,,,"22867 Kellogg Road, Grand Rapids, Ohio 43522",Ohio,Grand Rapids,22867 Kellogg Road,43522,-83.842096,41.415294,,
on-farm market,"Aug 12th, 2014",default-onfarmmarket-4-3.jpg,700184,Amalfi Gardens LLC,,Alex Restaino,amalfigardens@gmail.com,330-554-8858,,https://www.facebook.com/AmalfiGardens,,,,,,"82nd & Kinsman rd., Cleveland, Ohio 44104",Ohio,Cleveland,82nd & Kinsman rd.,44104,-81.630177,41.475637,,
on-farm market,"Aug 13th, 2014",default-onfarmmarket-4-3.jpg,700141,Folsom & Pine Farm,,Lori Fry,hello@folsomandpine.com,614-385-4080,www.folsomandpine.com,https://www.facebook.com/folsomandpine,https://www.twitter.com/FolsomPineFarm,,,,,"5959 Lambert Road, Orient, Ohio 43146",Ohio,Orient,5959 Lambert Road,43146,-83.162686,39.844156,,
on-farm market,"Aug 13th, 2014",default-onfarmmarket-4-3.jpg,700208,Tim's Turkey's/Stein Farm LLC.,,Timothy Stein,timstein1@outlook.com,330-606-3799,www.timsturkeys.com,,,,,,,"3600 Allard rd., Medina, Ohio 44256",Ohio,Medina,3600 Allard rd.,44256,-81.695708,41.1779940,,
on-farm market,"Aug 13th, 2014",default-onfarmmarket-4-3.jpg,700486,Zim's Raspberry Patch,,Susan Zimmerman,dtzimm@frontier.com,740-544-6012,,Susan Gates Zimmerman,,,,,,"17125 State Route 152, Toronto, Ohio 43964",Ohio,Toronto,17125 State Route 152,43964,-80.657942,40.504650,,
on-farm market,"Aug 13th, 2014",default-onfarmmarket-4-3.jpg,700743,Carlton Farm Produce,,Phil Carlton,info@carltonfarmproduce.com,330-274-2387,www.carltonfarmproduce.com,https://www.facebook.com/CarltonFarmProduce,https://www.twitter.com/carltonfarmprod,,,,,"3486 Pioneer Tr., Mantua, Ohio 44255",Ohio,Mantua,3486 Pioneer Tr.,44255,-81.267049,41.292584,,
on-farm market,"Aug 13th, 2014",default-onfarmmarket-4-3.jpg,700777,The Gold Family Farm,,Julie Garner,goldfarm1937@gmail.com,740-517-5012,,https://www.facebook.com/pages/The-Gold-Family-Farm/210127155664647,,,,,,"4799 Fisher Road, Athens, Ohio 45701",Ohio,Athens,4799 Fisher Road,45701,-82.143053,39.268587,,
on-farm market,"Aug 16th, 2017",default-onfarmmarket-4-3.jpg,701424,"Weymouth Farms & Orchard, Winery",,Paul O\'Neill,paulxoneill@gmail.com,2165349600,www.weymouthfarms.com,https://www.facebook.com/weymouthfarms/,,,,,,"2398 Weymouth Road, Hinckley, Ohio 44233",Ohio,Hinckley,2398 Weymouth Road,44233,-81.759425,41.211152,,
on-farm market,"Aug 19th, 2014",default-onfarmmarket-4-3.jpg,700848,White House Fruit  Farm,,White House Fruit Farm,whitehousefruitfarm@gmail.com,330-533-4161,www.whitehousefruitfarm.com,https://www.facebook.com/whitehousefruitfarm,,,,,,"9249 Youngstown Salem Rd, Canfield, Ohio 44406",Ohio,Canfield,9249 Youngstown Salem Rd,44406,-80.806746,40.9841580,,
on-farm market,"Aug 20th, 2014",default-onfarmmarket-4-3.jpg,700850,Lawrence Orchards,,Lawrence Orchards,george@lawrenceorchards.com,740-389-3019,www.lawrenceorchards.com,https://www.facebook.com/LawrenceOrchards?ref=hl,,,,,,"2634 Smeltzer Rd, Marion, Ohio 43302",Ohio,Marion,2634 Smeltzer Rd,43302,-83.136091,40.537152,,
on-farm market,"Aug 20th, 2014",default-onfarmmarket-4-3.jpg,700853,BaaLiss Grass Farm,,Deborah Mattix,dsm203@hotmail.com,419-768-3050,,www.facebook.com/baalissgrass.farm,,,,,,"7285 County Road 183, Fredericktown, Ohio 43019",Ohio,Fredericktown,7285 County Road 183,43019,-82.672361,40.432817,,
on-farm market,"Aug 21st, 2014",default-onfarmmarket-4-3.jpg,700857,Hembree Hollow Farm,,,,,,,,,,,,"14811 Wollett Rd., Nelsonville, Ohio 45764",Ohio,Nelsonville,14811 Wollett Rd.,45764,-82.276488,39.423439,,
on-farm market,"Aug 21st, 2014",default-onfarmmarket-4-3.jpg,700858,Davidson Produce & Cattle Farm Llc,,Rodney Davidson,davidsonpcf@davidsonproduceandcattlefarm.com,740-349-2782,www.davidsonproduceandcattlefarm.com,,,,,,,"3033 Dayton Rd NE, Newark, Ohio 43055",Ohio,Newark,3033 Dayton Rd NE,43055,-82.355769,40.092689,,
on-farm market,"Aug 21st, 2014",default-onfarmmarket-4-3.jpg,700868,Lobdell Family Farm,,Marietta Lobdell,lobdellfamilyfarm@yahoo.com,216-288-0851,,,,,,,,"6179 Newton Falls Rd., Ravenna, Ohio 44266",Ohio,Ravenna,6179 Newton Falls Rd.,44266,-81.170132,41.163216,,
on-farm market,"Aug 22nd, 2014",default-onfarmmarket-4-3.jpg,700886,Louden Family Orchard,,Philip Louden,orchard@ctcn.net,9376534558,,,,,,,,"576 North State Route 560, Urbana, Ohio 43078",Ohio,Urbana,576 North State Route 560,43078,-83.838212,40.119300,,
on-farm market,"Aug 24th, 2014",default-onfarmmarket-4-3.jpg,700910,Brookside Farm,,Alfred Coe,coebere@aol.com,937-372-2531,,Brookside Farm,,,,,,"2626 Hussey Rd., Xenia, Ohio 45385",Ohio,Xenia,2626 Hussey Rd.,45385,-83.942201,39.6834,,
on-farm market,"Aug 24th, 2014",default-onfarmmarket-4-3.jpg,700912,Messuri Family Farm LLC,,Michael Messuri,michael@messurifamilyfarm.com,9376681441,http://www.messurifamilyfarm.com,https://www.facebook.com/pages/Messuri-Family-Farm/262765327140695?ref=hl,https://twitter.com/MessuriFmlyFarm,,,,,"260 Baker Road, Clarksville, Ohio 45113",Ohio,Clarksville,260 Baker Road,45113,-83.940476,39.3764880,,
on-farm market,"Aug 25th, 2014",default-onfarmmarket-4-3.jpg,700922,Turner Farm Inc.,,Turner Farm Inc.,turnerfarm@zoomtown.com,513 561 7400,http://www.turnerfarm.org/,https://www.facebook.com/pages/Turner-Farm/455826481129640,,,,,,"7400 Given Road, Cincinnati , Ohio 45243",Ohio,Cincinnati,7400 Given Road,45243,-84.320358,39.190080,,
on-farm market,"Aug 25th, 2014",default-onfarmmarket-4-3.jpg,700928,Breezy Hill Farm,,Mindy Bartholomae,mindy.breezyhillfarm@gmail.com,2164073822,www.breezyhillfarmohio.com,https://www.facebook.com/pages/Breezy-Hill-Farm-Homeworth-Ohio/184191254939126,,,,,,"23342 Bowman Rd., Homeworth, Ohio 44634",Ohio,Homeworth,23342 Bowman Rd.,44634,-81.061620,40.8431293,,
on-farm market,"Aug 28th, 2014",default-onfarmmarket-4-3.jpg,700677,Malabar Peach Orchard,,,malabaracres@hotmail.com,,ohiopeaches.com,,,,,,,"P.O. Box 7, Jeromesville, Ohio 44840",Ohio,Jeromesville,P.O. Box 7,44840,-82.155647,40.821676,,
on-farm market,"Aug 29th, 2014",default-onfarmmarket-4-3.jpg,700983,Out on  a Limb Farm,,Andrea Gillis,agillis2010@yahoo.com,330-205-6752,,,,,,,,"8913 Mapleton St SE, East Canton, Ohio 44730",Ohio,East Canton,8913 Mapleton St SE,44730,-81.236584,40.751443,,
on-farm market,"Aug 6th, 2020",default-onfarmmarket-4-3.jpg,701546,Arrowhead Orchard LLC,,"Joyce, Angie",info@arrowheadorchard.com,3308622733,https://www.arrowheadorchard.com/,https://www.facebook.com/ArrowheadOrchard/,,,,,,"11724 Lisbon St SE, Paris , Ohio 44669",Ohio,Paris,11724 Lisbon St SE,44669,-81.182497,40.799762,,
on-farm market,"Aug 7th, 2017",default-onfarmmarket-4-3.jpg,701421,Family Roots Farm,,Jennifer Sharpnack,Familyrootsfarm@yahoo.com,330-329-2880,www.familyrootsfarm.com,RodSharpnack.FamilyRootsFarm,,,,,,"2175 W. 130th Street, Hinckley , Ohio 44233",Ohio,Hinckley,2175 W. 130th Street,44233,-81.784668,41.216353,,
on-farm market,"Dec 4th, 2014",default-onfarmmarket-4-3.jpg,701179,4R Angus Farm,,Debbie Rardin,mom3941@yahoo.com,740-398-8621,4RAngusFarm.weebly.com,4R Angus Farm,,,,,,"8259 Keys Road, Mount Vernon, Ohio 43050",Ohio,Mount Vernon,8259 Keys Road,43050,-82.562010,40.3586810,,
on-farm market,"Feb 15th, 2015",default-onfarmmarket-4-3.jpg,700004,Wishwell Farms,,Jason Wish,info@wishwellfarms.com,937-592-2173,wishwellfarms.com,https://www.facebook.com/WishwellFarms,twitter.com/wishwellfarms,,,,www.wishwellfarms.com/blog,"3381 US 68 N, BELLEFONTAINE, Ohio 43311",Ohio,BELLEFONTAINE,3381 US 68 N,43311,-83.745878,40.409166,,
on-farm market,"Feb 21st, 2017",default-onfarmmarket-4-3.jpg,701390,Hilltop Harvest Farm Self Serve Market,,Tammy Brown,hilltopharvestfarm@live.com,4197383991,www.hilltopharvestfarm.com,Hilltop Harvest Farm,,,,,,"16618 SR 33 East, Wapakoneta , Ohio 45895",Ohio,Wapakoneta,16618 SR 33 East,45895,-84.134766,40.555566,,
on-farm market,"Feb 21st, 2018",default-onfarmmarket-4-3.jpg,701443,Double 8 Cattle Company,,Jeremy Freer,jfreer@double8cattle.com,7405078775,www.double8cattle.com,https://www.facebook.com/double8cattle/,,,,,,"11275 Lovers Lane, Mount Vernon, Ohio 43050",Ohio,Mount Vernon,11275 Lovers Lane,43050,-82.531854,40.402862,,
on-farm market,"Jan 16th, 2017",default-onfarmmarket-4-3.jpg,700186,Adams Greenhouse & Produce LLC,,Kenny Adams,kenny@adamsgreenhouse.com,937-416-5533,www.adamsgreenhouse.com,https://www.facebook.com/adamsgreenhouse,,,,,,"6373 W. US RT 36, Covington, Ohio 45318",Ohio,Covington,6373 W. US RT 36,45318,-84.324411,40.127688,,
on-farm market,"Jan 2nd, 2015",default-onfarmmarket-4-3.jpg,700193,Way Farms,,Cameron Way,wayfarms@yahoo.com,740-222-0179,www.way-farms.com,www.facebook.com/wayfarm,,,,,,"13 Denver Road, Waverly, Ohio 45690",Ohio,Waverly,13 Denver Road,45690,-82.982336,39.138281,,
on-farm market,"Jan 5th, 2017",default-onfarmmarket-4-3.jpg,701382,"W Bench Farms, LLC",,Shawn Woods,wbenchfarms@gmail.com,325-721-9968,www.wbenchfarms.com,https://www.facebook.com/W-Bench-Farms-LLC-262282387063/,,,,,,"14950 State Route 45, Lisbon, Ohio 44432",Ohio,Lisbon,14950 State Route 45,44432,-80.698246,40.685548,,
on-farm market,"Jul 16th, 2016",default-onfarmmarket-4-3.jpg,701360,Goodell Family Farm,,Nathan Goodell,maple@goodellfamilyfarm.com,330-322-3725,www.goodellfamilyfarm.com,https://facebook.com/goodellfamilyfarm,,,,,,"10220 Peck Rd, Mantua, Ohio 44255",Ohio,Mantua,10220 Peck Rd,44255,-81.208733,41.2694840,,
on-farm market,"Jul 25th, 2018",default-onfarmmarket-4-3.jpg,701458,The Stem Shire,,Terrie Godfrey,Terrie@stemshire.com,4195541069,Www.stemshire.com,The stemshire,,,,,,"10915 Main Road, Berlin Heights, Ohio 44814",Ohio,Berlin Heights,10915 Main Road,44814,-82.427689,41.3286520,,
on-farm market,"Jul 26th, 2014",default-onfarmmarket-4-3.jpg,700045,"Root Down Acres, LLC",,Missy Kroninger,info@rootdownacres.com,937-505-0732,www.RootDownAcres.com,https://www.facebook.com/rootdownacres,https://www.twitter.com/rootdownacres,,,,http://www.rootdownacres.com/farm-blog/,"3336 Columbus Rd., Springfield, Ohio 45503",Ohio,Springfield,3336 Columbus Rd.,45503,-83.748269,39.939077,,
on-farm market,"Jul 26th, 2014",default-onfarmmarket-4-3.jpg,700190,Marian Kay Berry Farm,,Marian Buchanan,mkberryfarm@gmail.com,440-822-5257,https://www.mkberryfarm.com,https://www.facebook.com/MarianKayBerryFarm,,,,,,"8876 Congress Rd Lodi, OH 44254, Lodi, Ohio 44254",Ohio,Lodi,"8876 Congress Rd Lodi, OH 44254",44254,-82.054524,41.028575,,
on-farm market,"Jul 26th, 2014",default-onfarmmarket-4-3.jpg,700231,Ridgeview Farm,,Sharon Grover,sharon@ridgeviewfarm.com,440-693-4000,www.ridgeviewfarm.com,https://www.facebook.com/pages/Ridgeview-Farm-and-Tours/118515271492395,,,,,,"5488 Kinsman Rd (SR 87), Middlefield, Ohio 44062",Ohio,Middlefield,5488 Kinsman Rd (SR 87),44062,-80.995559,41.458943,,
on-farm market,"Jul 26th, 2014",default-onfarmmarket-4-3.jpg,700384,Voytko Berry Farm,,charles voytko,chuck@voytkofarms.com,440-543-8586,voytkofarms.com,,,,,,,"11391 Franks Rd, Auburn Twp, Ohio 44023",Ohio,Auburn Twp,11391 Franks Rd,44023,-81.231662,41.421487,,
on-farm market,"Jul 26th, 2014",default-onfarmmarket-4-3.jpg,700442,Vest Berries and Produce,,Richard Vest,vestberries@yahoo.com,740-541-1169,www.vestberries.com,https://www.facebook.com/pages/Vest-Berries/162080763828140,,,,,,"18170 Mush Run Road, Stewart, Ohio 45778",Ohio,Stewart,18170 Mush Run Road,45778,-81.947508,39.3380933,,
on-farm market,"Jul 26th, 2014",default-onfarmmarket-4-3.jpg,700462,Greener Pasture Farm,,Darcy Klier,thekliers@ncwcom.com,440-6474402,,Greener Pasture Farm,,,,,,"18456 Pitts Rd, Wellington, Ohio 44090",Ohio,Wellington,18456 Pitts Rd,44090,-82.241906,41.2160269,,
on-farm market,"Jul 26th, 2014",default-onfarmmarket-4-3.jpg,700524,Heavenly Hill Farm,,Cindy Ellis,cellis2928@gmail.com,440-237-8708,,,,,,,,"18375 State Rd, North Royalton, Ohio 44133",Ohio,North Royalton,18375 State Rd,44133,-81.716075,41.2879379,,
on-farm market,"Jul 27th, 2014",default-onfarmmarket-4-3.jpg,700005,Wild Hare Natural Farm,,Billie Setzekorn,info@whnf.biz,937-776-2493,www.whnf.biz,https://www.facebook.com/WildHareNaturalFarm,,,,,,"110 E. Yellow Springs Fairfield Rd., Yellow Springs, Ohio 45387",Ohio,Yellow Springs,110 E. Yellow Springs Fairfield Rd.,45387,-83.919405,39.8137320,,
on-farm market,"Jul 28th, 2014",default-onfarmmarket-4-3.jpg,700060,"Polecat Pines Mushroom Farm, LLC",,Ricky Bruckner,polecatpines@windstream.net,330-221-6621,www.polecatpines.com,https://www.facebook.com/PolecatPinesMushroomFarm,,,,,,"6167 Winchell Rd., Hiram, Ohio 44234",Ohio,Hiram,6167 Winchell Rd.,44234,-81.169391,41.343496,,
on-farm market,"Jul 28th, 2014",default-onfarmmarket-4-3.jpg,700120,Jaybird Farms,,Vivian Pfankuch,vivian@jaybirdfarms.com,937-442-4800,www.jaybirdfarms.com,https://www.facebook.com/JaybirdFarms,,,,,,"2091 State Route 321, Sardinia , Ohio 45171",Ohio,Sardinia,2091 State Route 321,45171,-83.792210,39.062666,,
on-farm market,"Jul 28th, 2014",default-onfarmmarket-4-3.jpg,700689,Meiring Farm,,Meiring Farm,Leanne.meiring@gmail.com,419-877-5802,,,,,,,,"11610 Waterville-swanton, Whitehouse, Ohio 43571",Ohio,Whitehouse,11610 Waterville-swanton,43571,-83.820351,41.526752,,
on-farm market,"Jul 29th, 2014",default-onfarmmarket-4-3.jpg,700617,Northridge Blueberries LLC,,Julie Richards,northridgeblueberries@gmail.com,330-592-6574,www.northridgeblueberries.com,https://facebook.com/NorthridgeBlueberries,,,,,,"497 West Main Road, Conneaut, Ohio 44030",Ohio,Conneaut,497 West Main Road,44030,-80.613060,41.927312,,
on-farm market,"Jul 29th, 2014",default-onfarmmarket-4-3.jpg,700753,Hirsch Fruit Farm,,Steve Hirsch,hirschfruit@horizonview.net,740-775-7055,www.hirschfruitfarm.com,https://www.facebook.com/hirschfruitfarm,,,,,,"12846 State Route 772, Chillicothe, Ohio 45601",Ohio,Chillicothe,12846 State Route 772,45601,-83.013285,39.301476,,
on-farm market,"Jul 30th, 2014",default-onfarmmarket-4-3.jpg,700123,Honeyrun Farm,,Isaac and Jayne Barnes,info@honeyrunfarm.com,,www.honeyrunfarm.com,https://www.facebook.com/honeyrunfarm,,,,,www.honeyrunfarm.blogspot.com,"9642 Randle Road, Williamsport, Ohio 43164",Ohio,Williamsport,9642 Randle Road,43164,-83.129594,39.6525000,,
on-farm market,"Jul 30th, 2014",default-onfarmmarket-4-3.jpg,700183,"Angry Hippie Farms, LLC",,Robert Dorsten,info@angryhippiefarms.com,937-506-0487,http://www.angryhippiefarms.com,https://www.facebook.com/AngryHippieFarms,,,,,,"6615 Peters Rd, Tipp City, Ohio 45371",Ohio,Tipp City,6615 Peters Rd,45371,-84.225463,39.94265,,
on-farm market,"Jul 31st, 2014",default-onfarmmarket-4-3.jpg,700610,"The Orchard & Company, LLC",,Kacie Winn-Skelley,orchardandcompany@yahoo.com,614-873-0510,www.theorchardandcompany.com,,,,,,,"7255 US highway 42 , Plain City, Ohio 43064",Ohio,Plain City,7255 US highway 42,43064,-83.295379,40.047682,,
on-farm market,"Jul 6th, 2017",default-onfarmmarket-4-3.jpg,700838,Boulder Belt Eco-Farm,,Lucy Owsley,boulderbelt@embarqmail.com,9374569724,http://www.boulderbelt.com,https://www.facebook.com/boulderbeltfarm,,,,,,"3257 US 127 N, Eaton , Ohio 45320",Ohio,Eaton,3257 US 127 N,45320,-84.631422,39.791734,,
on-farm market,"Jun 12th, 2015",default-onfarmmarket-4-3.jpg,701270,Blueberry Valley,,Daniel Huggett,blueberry-valley@columbusblueberry.com,7409838873,www.columbusblueberry.com,Blueberry Valley,,,,,,"14337 US Highway 23, South Bloomfield, Ohio 43103",Ohio,South Bloomfield,14337 US Highway 23,43103,-82.987563,39.724435,,
on-farm market,"Mar 16th, 2018",default-onfarmmarket-4-3.jpg,701445,Granny B Farms LLC,,Michael Schafer,sales@grannybfarm.com,740-507-9348,www.grannybfarm.com,www.facebook.com/grannybfarms/,,,,,,"7201 Tucker Road, Centerburg, Ohio 43011",Ohio,Centerburg,7201 Tucker Road,43011,-82.608500,40.346711,,
on-farm market,"Mar 19th, 2015",default-onfarmmarket-4-3.jpg,700685,Rainbow Farms,,Larry and Tina Klco,lkrainbowfarms@hotmail.com,440-259-4924,www.rainbowfarmsonline.com,www.facebook.com/rainbowfarmsohio,,,,,,"2464 Townline Road, Madison, Ohio 44057",Ohio,Madison,2464 Townline Road,44057,-81.104680,41.800121,,
on-farm market,"Mar 23rd, 2015",default-onfarmmarket-4-3.jpg,700511,Bonnybrook Farms,,Bonnie Mercuri,contactus@bonnybrookfarms.com,937-289-2500,www.BonnybrookFarms.com,www.Facebook/BonnybrookFarms,,,,,,"3779 State Route 132, Clarksville, Ohio 45113",Ohio,Clarksville,3779 State Route 132,45113,-84.019575,39.367811,,
on-farm market,"Mar 7th, 2018",default-onfarmmarket-4-3.jpg,700041,Schacht Farm Market,,Lisa Schacht,schachtfarm@gmail.com,614-837-4663,mylocalfarm.us,https://www.facebook.com/SchachtFarmMarket,https://www.twitter.com/farm_market,,,,,"5950 Shannon Rd, Canal Winchester, Ohio 43110",Ohio,Canal Winchester,5950 Shannon Rd,43110,-82.831925,39.893120,,
on-farm market,"Mar 8th, 2015",default-onfarmmarket-4-3.jpg,701221,Sirna's Farm & Market,,Kaitlyn Sirna,info@sirnasfarm.com,440-834-0696,www.sirnasfarm.com,www.facebook.com/sirnasfarm.oh,,,,,,"19009 Ravenna Rd | State Route 44, Auburn Twp., Ohio 44023",Ohio,Auburn Twp.,19009 Ravenna Rd | State Route 44,44023,-81.219517,41.352165,,
on-farm market,"Mar 8th, 2015",default-onfarmmarket-4-3.jpg,701222,Good Earth,,Jeanette Toms,goodearthfarm@hotmail.com,216-288-0170,,,,,,,,"9600 Madison Avenue, Cleveland , Ohio 44102",Ohio,Cleveland,9600 Madison Avenue,44102,-81.749955,41.477146,,
on-farm market,"Mar 8th, 2017",default-onfarmmarket-4-3.jpg,701394,Eshleman Fruit Farm,,Laura Eshleman,EshlemanFarms@gmail.com,3022425723,www.EshlemanFruitFarm.com,https://www.facebook.com/Eshleman-Fruit-Farm-314477007606/?rf=157614694313691,,,,,,"753 E Maple St, Clyde, Ohio 43410",Ohio,Clyde,753 E Maple St,43410,-82.957049,41.3179418,,
on-farm market,"Mar 9th, 2015",default-onfarmmarket-4-3.jpg,700296,Blue Ribbon Farm,,John and Sandy Abell,jabellfarm@yahoo.com,937-466-9202,,,,,,,,"5459 Blue Ribbon Rd, Hillsboro, Ohio 45133",Ohio,Hillsboro,5459 Blue Ribbon Rd,45133,-83.476781,39.1619920,,
on-farm market,"May 15th, 2015",default-onfarmmarket-4-3.jpg,701258,Ka-La Healing Garden Center,,Tanya Holmes,kalahealinggardencenter@yahoo.com,216 224-9397,http://ka-lahealinggardencenter.webs.com,Ka-La Healing Garden Resource Center LLC,,,,,,"2251 EAST 73 rd ,Street, Cleveland , Ohio 44103",Ohio,Cleveland,"2251 EAST 73 rd ,Street",44103,-81.638091,41.4965696,,
on-farm market,"May 16th, 2020",default-onfarmmarket-4-3.jpg,701522,Hartman Heimstytte,,Lori Hartman,Hartmanheimstytte@yahoo.com,9373712977,Www.hartmanheimstytte.com,Www.facebook.com/hartmanheimstytte,,,,,,"7293 Phillipsburg Union Rd, Brookville, Ohio 45309",Ohio,Brookville,7293 Phillipsburg Union Rd,45309,-84.393040,39.905200,,
on-farm market,"May 19th, 2015",default-onfarmmarket-4-3.jpg,701263,Maple Valley Sugarbush,,"Dave, Donna, & Nick Divoky",maplevalley@windstream.net,440-286-7275,www.maplevalleysugarbush.com,https://www.facebook.com/pages/Maple-Valley-Sugarbush-Farm/141855572516431?ref=hl,,,,,,"13262 Chardon Windsor Rd., Chardon, Ohio 44024",Ohio,Chardon,13262 Chardon Windsor Rd.,44024,-81.164714,41.5773560,,
on-farm market,"May 1st, 2015",default-onfarmmarket-4-3.jpg,701250,Cook's Garden,,Zella F. Cook,cooksgarden@gmail.com,937-248-1536,http://cooksgardennewlebanon.com,https://www.facebook.com/cooksgardennewlebanon,,,,,,"989 N. Clayton Rd, New Lebanon, Ohio 45345",Ohio,New Lebanon,989 N. Clayton Rd,45345,-84.395473,39.7597210,,
on-farm market,"May 24th, 2017",default-onfarmmarket-4-3.jpg,701411,Rax and Trax Farms LLC,,Michael Gotshall,raxandtrax330@gmail.com,330-760-3955,www.raxandtraxfarms.com,,,,,,,"7271 Pearl Rd SE, Amsterdam, Ohio 43903",Ohio,Amsterdam,7271 Pearl Rd SE,43903,-80.939846,40.5013874,,
on-farm market,"May 2nd, 2019",default-onfarmmarket-4-3.jpg,701480,Purple Skies Homestead,,Visar Duane,purpleskieshomestead@gmail.com,440-628-1393,http://www.purpleslieshomestead.com,purpleskieshomestead@gmail.com,,,,,,"18802 State Road, North Royalton, Ohio 44133",Ohio,North Royalton,18802 State Road,44133,-81.724295,41.281938,,
on-farm market,"May 9th, 2017",default-onfarmmarket-4-3.jpg,701407,Jacobs Heritage Farm,,Jennifer LittleBear,info@jacobsheritagefarm.com,3306718219,www.JacobsHeritageFarm.com,facebook.com/jacobsheritagefarm,,,,,,"2196 Jacoby Road, Copley, Ohio 44321",Ohio,Copley,2196 Jacoby Road,44321,-81.532148,41.1259834,,
on-farm market,"May 9th, 2019",default-onfarmmarket-4-3.jpg,701481,Triple C Farm,,Bill Cusano,,440-812-4430,,SEARCH @TRIPLE C FARM MARKET,,,,,,"4603 State Route 193, Kingsville, Ohio 44048",Ohio,Kingsville,4603 State Route 193,44048,-80.666608,41.855468,,
on-farm market,"Nov 11th, 2014",default-onfarmmarket-4-3.jpg,701169,"Lane's Farm Market and Orchard, LLC",,Ted and Najet Lane,NgLa7@suddenlink.net,740-374-3161,http://www.lanesfarmmarket.com/,,,,,,,"20620 St. Rt. 676, Marietta, Ohio 45750",Ohio,Marietta,20620 St. Rt. 676,45750,-81.518072,39.436996,,
on-farm market,"Nov 14th, 2017",default-onfarmmarket-4-3.jpg,701433,Glass Rooster Cannery,,Jeannie Seabrook,jeannie@glassroostercannery.com,6144992958,www.glassroostercannery.com,www.facebook.com/glassroostercannery,@glassrooster,,,,,"1673 South State Route 605, Sunbury, Ohio 43074",Ohio,Sunbury,1673 South State Route 605,43074,-82.804485,40.194321,,
on-farm market,"Nov 24th, 2020",default-onfarmmarket-4-3.jpg,701566,P. Moore Acres,,Matthew Moore,Pmooreacres@gmail.com,4403219727,,https://www.facebook.com/Pmooreacres/,,,,,,"6275 Thompson Clark, Bristolville, Ohio 44402",Ohio,Bristolville,6275 Thompson Clark,44402,-80.835575,41.388323,,
on-farm market,"Nov 24th, 2020",default-onfarmmarket-4-3.jpg,701567,Hilltop Harvest Farm Self Serve Market,,Tammy Brown,Hilltopharvestfarm@live.com,419-738-3991,www.hilltopharvestfarm@live.com,Hilltop Harvest Farm,,,,,,"16618 US 33 East , Wapakoneta , Ohio 45895",Ohio,Wapakoneta,16618 US 33 East,45895,-84.134815,40.555154,,
on-farm market,"Nov 28th, 2020",default-onfarmmarket-4-3.jpg,701568,Hilltop Harvest Farm Self Serve Market,,Thomas Brown,hilltopharvestfarm@live.com,4195162538,hilltopharvestfarm@live.com,www.facebook.com/hilltop-harvest-farm,,,,,,"16618 US 33, Wapakoneta, Ohio 45895",Ohio,Wapakoneta,16618 US 33,45895,-84.134697,40.555814,,
on-farm market,"Oct 17th, 2014",default-onfarmmarket-4-3.jpg,701143,Quarry Hill Orchards,,Ben Gammie,info@qhofruit.com,419-588-2858,http://quarryhillorchards.com/,https://www.facebook.com/pages/Quarry-Hill-Orchards/538012959591189,,,,,http://quarryhillorchards.com/our-story/blog/,"8403 Mason Road, Berlin Heights, Ohio 44814",Ohio,Berlin Heights,8403 Mason Road,44814,-82.473395,41.337620,,
on-farm market,"Oct 21st, 2014",default-onfarmmarket-4-3.jpg,701146,Hayhurst Farm,,Ronald Hayhurst,sbakerbunch@netzero.net,419-930-8576,,,,,,,,"13521 S. Dixie Hwy., Bowling Green, Ohio 43402",Ohio,Bowling Green,13521 S. Dixie Hwy.,43402,-83.652856,41.350138,,
on-farm market,"Oct 25th, 2015",default-onfarmmarket-4-3.jpg,700388,Charlie's Apples at Windy Hill Apple Farm,,Charles Fritsch,charliefritsch@gmail.com,740-587-3632,www.charliesapples.com,,,,,,,"1740 Sportsman Club Road, Newark, Ohio 43055",Ohio,Newark,1740 Sportsman Club Road,43055,-82.531771,40.1554270,,
on-farm market,"Oct 3rd, 2014",default-onfarmmarket-4-3.jpg,701118,Schmidt Family Farms,,Susan Schmidt,susanschmidt@rocketmail.com,330-239-2325,Schmidt Family Farms.org,Schmidt family Farms,,,,,,"4282 State Road, Medina, Ohio 44256",Ohio,Medina,4282 State Road,44256,-81.707272,41.1587370,,
on-farm market,"Oct 8th, 2014",default-onfarmmarket-4-3.jpg,700007,Whispering Pines Farm,,Tom Westendorf,whisperingpinesfarmohio@gmail.com,937-429-3792,,https://www.facebook.com/WhisperingPinesFarm,,,,,,"4169 Swigart Road, Kettering, Ohio 45440",Ohio,Kettering,4169 Swigart Road,45440,-84.101116,39.674614,,
on-farm market,"Sep 12th, 2014",default-onfarmmarket-4-3.jpg,701057,Foster's Farmhouse LLC,,Sara Moore,moorevols@gmail.com,9373505901,www.fostersfarmhouse.com,,,,,,,"9791 Paragon Rd, Centerville (Montgomery County), Ohio 45458",Ohio,Centerville (Montgomery County),9791 Paragon Rd,45458,-84.185969,39.601443,,
on-farm market,"Sep 16th, 2014",default-onfarmmarket-4-3.jpg,700519,Ruffwing Farms,,,Cindysioux1987@aim.com,740-536-7853,www.ruffwingfarms.com,,,,,,,"2942 Elder Road Ne, Lancaster, Ohio 43130",Ohio,Lancaster,2942 Elder Road Ne,43130,-82.489922,39.763103,,
on-farm market,"Sep 16th, 2014",default-onfarmmarket-4-3.jpg,700693,Kriegs Strawberry Farm Market,,Marsha Krieg,Kriegberries@hotmail.com,440-988-9228,,Marsha Krieg,,,,,,"3175 North Ridge Road, Vermilion, Ohio 44089",Ohio,Vermilion,3175 North Ridge Road,44089,-82.306465,41.383635,,
on-farm market,"Sep 18th, 2014",default-onfarmmarket-4-3.jpg,701086,Dandelion Lane Farm,,Dandelion Lane Farm,info@dandelionlanefarm.com,7022191208,www.DandelionLaneFarm.com,https://www.facebook.com/pages/Dandelion-Lane-Farm,,,,,,"40949 State Route 558, Leetonia, Ohio 44431",Ohio,Leetonia,40949 State Route 558,44431,-80.727259,40.839863,,
on-farm market,"Sep 21st, 2014",default-onfarmmarket-4-3.jpg,700338,Hetrick Honey Bees,,Laura Hetrick,hetrickhoneybees@gmail.com,419-966-1139,www.hetrickhoneybees.com,,,,,,,"9105 Township Road N2, Napoleon, Ohio 43545",Ohio,Napoleon,9105 Township Road N2,43545,-84.039941,41.363336,,
on-farm market,"Sep 23rd, 2014",default-onfarmmarket-4-3.jpg,700605,Link Farms,,Michael Link,Ozzyrule92@aol.com,419-202-7230,,,,,,,,"3602 Lima-Sandusky Rd, Sandusky, Ohio 44870",Ohio,Sandusky,3602 Lima-Sandusky Rd,44870,-82.826537,41.436443,,
on-farm market,"Sep 28th, 2014",default-onfarmmarket-4-3.jpg,701089,Bucher Family Farm,,Kathy Dollman,kathydollman@dollmantech.com,419-877-0755,,,,,,,,"5702 Eber Rd., Whitehouse, Ohio 43571",Ohio,Whitehouse,5702 Eber Rd.,43571,-83.786230,41.536222,,
on-farm market,"Sep 30th, 2014",default-onfarmmarket-4-3.jpg,700510,Covered Bridge Farms/Shimandle Grapes,,Ronald Taylor,coveredbridgefarms@att.net,440-466-8982,www.facebook.com/CoveredBridgeFarms,,,,,,,"1517 Lafevre Road, Geneva, Ohio 44041",Ohio,Geneva,1517 Lafevre Road,44041,-80.958817,41.765378,,
on-farm market,"Sep 30th, 2014",default-onfarmmarket-4-3.jpg,700572,Folck Family Farm,,Bob Folck,robertfolck@yahoo.com,937-828-0233,folckfamilyfarm.net,folckfamilyfarm,,,,,,"6843 State Route 54, Mechanicsburg, Ohio 43044",Ohio,Mechanicsburg,6843 State Route 54,43044,-83.636557,40.0222168,,
on-farm market,"Sep 8th, 2014",default-onfarmmarket-4-3.jpg,701034,Rufener Hilltop Farms,,Lana Rufener,,330-628-1082,rufeners.com,,,,,,,"1022 State Route 43, Mogadore, Ohio 44260",Ohio,Mogadore,1022 State Route 43,44260,-81.347054,41.017294,,
