Type,ModifyDate,Image,ListingID,Name,Description,ContactName,ContactEmail,ContactPhone,Website,Facebook,Twitter,Instagram,Pinterest,Youtube,Blog,Address,State,City,Street,Zip,Longitude,Latitude,Dates,Products
farmers market,"Jun 15th, 2021",default-farmersmarket-4-3.jpg,301536,Burke Area Farmers Market,,Kelsea Sutton,burkeareafarmersmarket@gmail.com,6058305039,www.burkeareafarmersmarket.com,Burke Area Farmers Market,,,,,,"626 County Road, Burke, South Dakota 57523",South Dakota,Burke,626 County Road,57523,-99.299066,43.185042,July to September,"Fresh fruits, Fresh vegetables, Baked goods, Canned or preserved fruits/vegetables, Coffee/tea, Crafts/woodworking items, Cut flowers, Eggs, Fresh/dried herbs, Honey, Poultry/fowl meat and products, Prepared foods, Red/other non-poultry meat and products, Soap/body care products"
farmers market,"Mar 27th, 2023",default-farmersmarket-4-3.jpg,312741,Aberdeen Farmers' Market,,,aberdeenfarmersmarket@yahoo.com,605-225-9704,http://www.aberdeendowntown.org/index.aspx?nid=249,https://www.facebook.com/pages/Aberdeen-Farmers-Market/328864940497596,,,,,,"315 2nd Ave. SE, Central Park, Aberdeen, SD, 57401",South Dakota,Aberdeen,315 2nd Ave. SE,57401,-98.48330727510057,45.46309463092055,,
farmers market,"Mar 27th, 2023",default-farmersmarket-4-3.jpg,312742,Black Hills Farmers Market,,,,605-646-0976,http://www.blackhillsfarmersmarket.org/,http://www.facebook.com/Blackhillsfarmersmarket,,,,,,"245 East Omaha St Rapid City, SD 57701",South Dakota,RAPID CITY,245 E OMAHA ST,57701,-103.20879799647663,44.08143717473823,,
farmers market,"Mar 27th, 2023",default-farmersmarket-4-3.jpg,312743,Brookings Farmers' Market,,,,605-690-4364,http://www.brookingsfarmersmarket.com/,https://www.facebook.com/Brookings-Farmers-Market-117737541579595/,,,,,,"320 6th St., Brookings, SD, 57006",South Dakota,Brookings,320 6th St.,57006,-96.79988361868924,44.31150449410911,,
farmers market,"Mar 27th, 2023",default-farmersmarket-4-3.jpg,312744,Callaway's Farmers Market,,,,712-472-3347,http://callawaysfarmersmarket.com,,,,,,,"500 East 69th Street Sioux Falls, SD 57108",South Dakota,SIOUX FALLS,500 W 69TH ST,57108,-96.73326210096177,43.489592697225504,,
farmers market,"Mar 27th, 2023",default-farmersmarket-4-3.jpg,312745,Country Farmers' Market,,,springerridge@yahoo.com,605-769-0269,http://www.countrymarketpierre.com/,https://www.facebook.com/countryfarmersmarket,,,,,,"1615 N. Harrison Ave., At Pierre Mall Upper Deck Parking Lot, Pierre, SD, 57501",South Dakota,Pierre,1615 N. Harrison Ave.,57501,-100.31758758747443,44.37774003896799,,
farmers market,"Mar 27th, 2023",default-farmersmarket-4-3.jpg,312746,Deadwood Street Market,,,,,http://deadwoodstreetmarket.com,,,,,,,"71 Sherman Street Deadwood, SD 57732",South Dakota,DEADWOOD,71 SHERMAN ST,57732,-103.72905902642471,44.37481347854722,,
farmers market,"Mar 27th, 2023",default-farmersmarket-4-3.jpg,312747,Elk Point Farmers' Market,,,jammerthal@gmail.com,605-356-3180,,,,,,,,"106 W. Pleasant St., Elk Point, SD, 57025",South Dakota,Elk Point,106 W. Pleasant St.,57025,-96.68423065242563,42.687187460026635,,
farmers market,"Mar 27th, 2023",default-farmersmarket-4-3.jpg,312748,Freeman Farmers' Market,,,bobw@gwte.net,605-925-7135,,,,,,,,"748 S. Main St., Parking Lot of Pioneer Hall at Freeman Academy, Freeman, SD, 57029",South Dakota,Freeman,748 S. Main St.,57029,-97.43729884191256,43.34765160081549,,
farmers market,"Mar 27th, 2023",default-farmersmarket-4-3.jpg,312749,Gages Gardens & Greenhouses Farmers Market,,,,605-642-5438,,,,,,,,"379 Evans Lane Spearfish, SD 57783",South Dakota,SPEARFISH,379 EVANS LN,57783,-103.86993177686269,44.5167375304399,,
farmers market,"Mar 27th, 2023",default-farmersmarket-4-3.jpg,312750,Huron Farmers' Market,,,huronfarmersmarket@gmail.com,352-5574x605,,www.facebook.com/Huron-Farmers-Market-162801030450226,,,,,,"1110 3rd St. SW, Huron, SD, 57350",South Dakota,Huron,1110 3rd St. SW,57350,-98.23273606232355,44.36330813850614,,
farmers market,"Mar 27th, 2023",default-farmersmarket-4-3.jpg,312751,Hyde County Farmers' Market,,,,605-852-2254,,,,,,,,"34175 205th St., Highmore, SD, 57345",South Dakota,Highmore,34175 205th St.,57345,-99.34273272547625,44.4119813780739,,
farmers market,"Mar 27th, 2023",default-farmersmarket-4-3.jpg,312752,Madison Farmers' Market,,,,605-651-3624,,,,,,,,"208 Center St. E., Madison Public Library, Madison, SD, 57042",South Dakota,Madison,208 Center St. E.,57042,-97.11558530069479,44.00506062927794,,
farmers market,"Mar 27th, 2023",default-farmersmarket-4-3.jpg,312753,Sioux Empire Farmers' Market,,,siouxempiremarket@yahoo.com,605-651-3624,http://www.siouxempirefarmersmarket.com,https://www.facebook.com/Sioux-Empire-Farmers-Market-208744942655,,,,,,"401 E. 8th St., Sioux Falls, SD, 57103",South Dakota,Sioux Falls,401 E. 8th St.,57103,-96.72291188189634,43.54862405425529,,
farmers market,"Mar 27th, 2023",default-farmersmarket-4-3.jpg,312754,The Prairie Farmers' Market,,,theprairiefarmersmarket@gmail.com,,http://theprairiefarmersmarket.com/,https://www.facebook.com/theprairiefarmersmarket,,,,,,"300 N. Cherapa Pl., Cherapa Place, Sioux Falls, SD, 57103",South Dakota,Sioux Falls,300 N. Cherapa Pl.,57103,-96.7238530692717,43.54911628163366,,
farmers market,"Mar 27th, 2023",default-farmersmarket-4-3.jpg,312755,Watertown Farmers' Market,,,,605-882-8900,,https://www.facebook.com/Farmers-Market-Watertown-SD-312755785472162,,,,,,"1701 9th Ave. SE, Watertown, SD, 57201",South Dakota,Watertown,1701 9th Ave. SE,57201,-97.09305708063359,44.890063709297905,,
on-farm market,"Aug 1st, 2014",default-onfarmmarket-4-3.jpg,700057,Purity Seeds,,Wanda Bethke,puritysd@itctel.com,605-532-7333,www.purityseedsUSA.com,https://www.facebook.com/purityseeds,,,,,,"41247 178th St, Raymond, South Dakota 57258",South Dakota,Raymond,41247 178th St,57258,-97.964041,44.828767,,
on-farm market,"Dec 19th, 2016",default-onfarmmarket-4-3.jpg,701379,"Sunset Gardens, LLC",,Beverly Lamers,sunsetgardens2013@gmail.com,605-742-4174,,,,,,,,"12871 467th Ave, Browns  Valley, South Dakota 56219",South Dakota,Browns  Valley,12871 467th Ave,56219,-96.861851,45.518557,,
on-farm market,"Jan 31st, 2020",default-onfarmmarket-4-3.jpg,701500,Haroldson Farms,,Kyle Haroldson,kyle@haroldsonfarms.com,832-942-2820,https://hardsonfarms.com/,https://www.facebook.com/HaroldsonFarms/,,,,,,"20044 464th Ave., Bruce, South Dakota 57220",South Dakota,Bruce,20044 464th Ave.,57220,-96.889634,44.437716,,
on-farm market,"Jul 26th, 2014",default-onfarmmarket-4-3.jpg,700479,Springerridge,,Terry Lehmkuhl,springerridge@yahoo.com,605-769-0269,www.facebook.com/Springerridge%20Barnyard%20Products,https://www.facebook.com/pages/Springerridge-Barnyard-Products/139944099427072,,,,,www.countrymarketpierre.com,"8 Miles SW, Gettysburg, South Dakota 57442",South Dakota,Gettysburg,8 Miles SW,57442,-100.02100,44.940829,,
on-farm market,"Jul 4th, 2018",default-onfarmmarket-4-3.jpg,701455,"Better Roots Farm, LLC",,Vaughn Reints,contactus@betterrootsfarm.com,6053605792,www.betterrootsfarm.com,https://www.facebook.com/betterrootsfarm/,,,,,,"41885 130th St., Pierpont, South Dakota 57468",South Dakota,Pierpont,41885 130th St.,57468,-97.840340,45.500131,,
on-farm market,"Nov 27th, 2014",default-onfarmmarket-4-3.jpg,700448,Ufford Hills Pumpkin Patch and Corn Maze,,Alex Ufford,uffordhills@hotmail.com,605-677-8775,uffordhills.net,Uffordhills,,,,,,"3691 East Main Street, Vermillion, South Dakota 57069",South Dakota,Vermillion,3691 East Main Street,57069,-96.877792,42.779161,,
on-farm market,"Oct 28th, 2016",default-onfarmmarket-4-3.jpg,701374,Fruit of the Coop,,Stephanie Peterson,s.peterson@fruitofthecoop.com,605-366-1219,www.fruitofthecoop.com,www.facebook.com/fruitofthecoop,,,,,,"8700 E Sunset Circle, Brandon, South Dakota 57005",South Dakota,Brandon,8700 E Sunset Circle,57005,-96.618427,43.578181,,
on-farm market,"Sep 16th, 2014",default-onfarmmarket-4-3.jpg,700432,Berrybrook Organics & U-Pick,,Sherilyn Ortman,sherilynortman@gmail.com,605-925-7038,www.berrybrookorganics.com,https://www.facebook.com/pages/Berrybrook-Organics/576031785742694,,,,,,"44578 280th Street, Marion, South Dakota 57043",South Dakota,Marion,44578 280th Street,57043,-97.284107,43.3287083,,
