Type,ModifyDate,Image,ListingID,Name,Description,ContactName,ContactEmail,ContactPhone,Website,Facebook,Twitter,Instagram,Pinterest,Youtube,Blog,Address,State,City,Street,Zip,Longitude,Latitude,Dates,Products
farmers market,"Apr 14th, 2022",farmersmarket_301183_11272_20220414131808.png,301183,Troy Waterfront Farmers Market,,Erin Cook,erin.cook@troymarket.org,518-708-4216,troymarket.org,facebook.com/troywaterfrontfarmersmarket,,https://instagram.com/troymarket,,,,"Monument Square, Troy, NY, USA",New York,Troy,Monument Square,12180,-73.6916048,42.73164269999999,Year-round,"Fresh fruits, Fresh vegetables, Baked goods, Bedding plants, Canned or preserved fruits/vegetables, Coffee/tea, Cut flowers, Dairy products., Eggs, Fish/seafood, Fresh/dried herbs, Grains/flour, Honey, Juices/non-alcoholic ciders, Maple products, Mushrooms, Nursery stock, Nuts, Pet food, Poultry/fowl meat and products, Prepared foods, Red/other non-poultry meat and products, Soap/body care products, Tofu/non-animal protein, Wild harvested forest products, Wine, spirits, beer, hard cider"
farmers market,"Apr 28th, 2021",default-farmersmarket-4-3.jpg,301497,Pleasantville Farmers Market - Outdoor,,Steven Bates,steven@pleasantvillefarmersmarket.org,9142054545,https://www.pleasantvillefarmersmarket.org/,https://www.facebook.com/PvilleFarmMarket,,,,,,"Memorial Plaza (next to the train station), Pleasantville, New York 10570",New York,Pleasantville,Memorial Plaza,10570,-73.793652,41.135051,April to November,"Fresh fruits, Fresh vegetables, Baked goods, Canned or preserved fruits/vegetables, Coffee/tea, Crafts/woodworking items, Dairy products., Eggs, Fish/seafood, Fresh/dried herbs, Grains/flour, Honey, Juices/non-alcoholic ciders, Maple products, Mushrooms, Pet food, Poultry/fowl meat and products, Prepared foods, Red/other non-poultry meat and products, Soap/body care products, Wild harvested forest products, Wine, spirits, beer, hard cider"
farmers market,"Apr 6th, 2020",default-farmersmarket-4-3.jpg,301072,Clinton Farmers Market,,Jackie Walters,info@clintonnychamber.org,3158531735,https://clintonnychamber.org/farmers-market/,https://www.facebook.com/ClintonNYFarmersMarket/,,,,,,"20 West Park Row, Clinton, New York 13323",New York,Clinton,20 West Park Row,13323,-75.378462,43.048866,June to October,"Fresh fruits, Fresh vegetables, Baked goods, Bedding plants, Canned or preserved fruits/vegetables, Coffee/tea, Crafts/woodworking items, Cut flowers, Dairy products., Dry beans, Eggs, Fresh/dried herbs, Honey, Maple products, Mushrooms, Nursery stock, Nuts, Pet food, Poultry/fowl meat and products, Prepared foods, Red/other non-poultry meat and products, Soap/body care products, Wild harvested forest products"
farmers market,"Aug 11th, 2020",default-farmersmarket-4-3.jpg,301217,Narrowsburg Farmers' Market,,Greg Swartz,info@narrowsburgfarmersmarket.org,570-982-0050,https://narrowsburgfarmersmarket.org/,https://www.facebook.com/narrowsburgfarmmarket/,,,,,,"7 Erie Avenue, Narrowsburg, New York 12764",New York,Narrowsburg,7 Erie Avenue,12764,-75.05512,41.596136,May to October,"Fresh fruits, Fresh vegetables, Baked goods, Canned or preserved fruits/vegetables, Cut flowers, Dairy products., Eggs, Honey, Mushrooms, Prepared foods, Red/other non-poultry meat and products, Wine, spirits, beer, hard cider"
farmers market,"Aug 18th, 2022",farmersmarket_301759_14271_20220818190450.png,301759,Canton Farmers Market,"Opening day Friday, May 27, 2022. Come out and see the vendors. Check out our Facebook page for regular updates.",Kathryn Puleo,kathryn@gardenshare.org,(315) 261-8054,,https://www.facebook.com/CantonNYFarmersMarket,,https://www.instagram.com/cantonnyfarmersmarket/,,,,"5 Park Street, Canton, NY 13617, USA",New York,Canton,5 Park Street,13617,-75.1689911,44.5953267,05/27/2022 to 10/28/2022,"Fresh fruits, Fresh vegetables, Baked goods, Bedding plants, Canned or preserved fruits/vegetables, Coffee/tea, Crafts/woodworking items, Cut flowers, Maple products, Poultry/fowl meat and products, Red/other non-poultry meat and products, Soap/body care products"
farmers market,"Aug 3rd, 2020",default-farmersmarket-4-3.jpg,300873,Seneca Falls Farmers Market,,Greg Zellers,senecamarket@gmail.com,315-338-4359,http://senecamarket.com,https://www.facebook.com/SenecaFallsFarmersMarket/,,,,,,"15 Water Street, Seneca Falls, New York 13148",New York,Seneca Falls,15 Water Street,13148,-76.800314,42.909109,June to October,"Fresh fruits, Fresh vegetables, Baked goods, Bedding plants, Canned or preserved fruits/vegetables, Coffee/tea, Crafts/woodworking items, Cut flowers, Dairy products., Eggs, Honey, Maple products, Pet food, Poultry/fowl meat and products, Prepared foods, Red/other non-poultry meat and products, Soap/body care products"
farmers market,"Aug 3rd, 2020",default-farmersmarket-4-3.jpg,301194,Waterloo Rotary Farm Market,,Dan Grillone,dan.grillone@yahoo.com,813-382-0889,,https://www.facebook.com/rotaryfarmarket,,,,,,"22 Locust Street, Waterloo, New York 13165",New York,Waterloo,22 Locust Street,13165,-76.865814,42.903737,June to October,"Fresh fruits, Fresh vegetables, Baked goods, Canned or preserved fruits/vegetables, Coffee/tea, Crafts/woodworking items, Cut flowers, Dairy products., Eggs, Honey, Maple products"
farmers market,"Aug 3rd, 2020",default-farmersmarket-4-3.jpg,301196,Ovid Farmers Market,,Patti Paine,pap11@cornell.edu,315-539-9251,,https://www.facebook.com/ovidfarmersmarket,,,,,,"Main Street, Ovid, New York 14521",New York,Ovid,Main Street,14521,-76.822157,42.676729,June to September,"Fresh fruits, Fresh vegetables, Baked goods, Canned or preserved fruits/vegetables, Crafts/woodworking items, Cut flowers, Eggs, Honey, Maple products"
farmers market,"Dec 28th, 2020",default-farmersmarket-4-3.jpg,300053,Salamanca Farmers market,,Rachael Ferguson,rferguson2011@yahoo.com,7168608419,,,,,,,,"768 Broad st, Salamanca, New York 14779",New York,Salamanca,768 Broad st,14779,-78.741263,42.164734,May to October,"Fresh fruits, Fresh vegetables, Baked goods, Bedding plants, Canned or preserved fruits/vegetables, Crafts/woodworking items, Cut flowers, Eggs, Honey, Maple products, Poultry/fowl meat and products, Prepared foods, Red/other non-poultry meat and products, Soap/body care products"
farmers market,"Feb 1st, 2021",default-farmersmarket-4-3.jpg,300013,Alexandria Bay Farmers Market,,Chamber of Commerce,info@alexbay.org,315-482-9531,www.visitalexbay.org,https://www.facebook.com/pages/Alexandria-Bay-Chamber-of-Commerce/82504121853,,,,,,"Route 12, Alexandria Bay, New York 13607",New York,Alexandria Bay,Route 12,13607,-75.916118,44.331171,May to September,"Fresh fruits, Fresh vegetables, Baked goods, Bedding plants, Canned or preserved fruits/vegetables, Crafts/woodworking items, Eggs, Honey, Maple products"
farmers market,"Feb 2nd, 2021",default-farmersmarket-4-3.jpg,300016,Clarence Hollow Farmers' Market,,Cheryl Anthony,clarencefarmersmarket@gmail.com,716-759-1075,www.clarencefarmersmarket.com,https://www.facebook.com/clarencehollowfm,,,,,,"New Town lot, 10717 Main St. (route 5), Clarence, New York 14031",New York,Clarence,10717 Main St.,14031,-78.58945,42.98032,June to October,"Fresh fruits, Fresh vegetables, Baked goods, Bedding plants, Canned or preserved fruits/vegetables, Coffee/tea, Crafts/woodworking items, Cut flowers, Dairy products., Eggs, Fresh/dried herbs, Honey, Juices/non-alcoholic ciders, Maple products, Nursery stock, Pet food, Poultry/fowl meat and products, Prepared foods, Red/other non-poultry meat and products, Soap/body care products, Wine, spirits, beer, hard cider"
farmers market,"Jan 18th, 2021",default-farmersmarket-4-3.jpg,300586,Indian Lake Community Farmers Market,,JENNIFER  BINE,jenjobine@gmail.com,7035332436,144 JOHN RUST RD,Indian Lake Community Farmers Market,,,,,,"144 JOHN RUST RD, INDIAN LAKE, New York 12842",New York,INDIAN LAKE,144 JOHN RUST RD,12842,-74.270529,43.782397,July to September,"Fresh fruits, Fresh vegetables, Baked goods, Bedding plants, Canned or preserved fruits/vegetables, Coffee/tea, Crafts/woodworking items, Cut flowers, Dairy products., Eggs, Fresh/dried herbs, Honey, Maple products, Mushrooms, Nuts, Pet food, Poultry/fowl meat and products, Red/other non-poultry meat and products"
farmers market,"Jan 25th, 2021",default-farmersmarket-4-3.jpg,300048,Voorheesville Farmers Market,,Dianne Luci,vvillefarmersmkt@gmail.com,518 7654536,,https://www.facebook.com/VoorheesvilleFarmersMarket,,,,,,"68 Maple Ave., Voorheesville, New York 12186",New York,Voorheesville,68 Maple Ave.,12186,-73.930027,42.649656,June to September,"Fresh fruits, Fresh vegetables, Baked goods, Bedding plants, Coffee/tea, Cut flowers, Eggs, Fresh/dried herbs, Honey, Maple products, Prepared foods, Soap/body care products"
farmers market,"Jan 25th, 2021",default-farmersmarket-4-3.jpg,300231,Saugerties Farmers Market,,Emily Motter,contact@saugertiesfarmersmarket.com,845-681-1160,www.saugertiesfarmersmarket.com/,https://www.facebook.com/SaugertiesFarmersMarket,,,,,,"115 Main Street, Saugerties, New York 12477",New York,Saugerties,115 Main Street,12477,-73.946818,42.080345,May to October,"Fresh fruits, Fresh vegetables, Baked goods, Bedding plants, Canned or preserved fruits/vegetables, Coffee/tea, Cut flowers, Dairy products., Eggs, Fresh/dried herbs, Honey, Juices/non-alcoholic ciders, Maple products, Nursery stock, Poultry/fowl meat and products, Prepared foods, Red/other non-poultry meat and products, Soap/body care products, Tofu/non-animal protein, Wine, spirits, beer, hard cider"
farmers market,"Jan 25th, 2021",default-farmersmarket-4-3.jpg,300328,Down to Earth Larchmont Farmers Market,,Down to Earth Markets,info@downtoearthmarkets.com,9149234837,PO Box 567,https://www.facebook.com/larchmontfarmersmarket,twitter.com/DowntoEarthMkts,,,,,"Parking Lot off Chatsworth Ave., Larchmont, New York 10538",New York,Larchmont,Parking Lot off Chatsworth Ave.,10538,-73.760008,40.933512,April to December,"Fresh fruits, Fresh vegetables, Baked goods, Bedding plants, Canned or preserved fruits/vegetables, Coffee/tea, Crafts/woodworking items, Cut flowers, Dairy products., Dry beans, Eggs, Fish/seafood, Fresh/dried herbs, Grains/flour, Honey, Juices/non-alcoholic ciders, Maple products, Mushrooms, Nuts, Pet food, Poultry/fowl meat and products, Prepared foods, Red/other non-poultry meat and products, Soap/body care products, Wine, spirits, beer, hard cider"
farmers market,"Jan 25th, 2021",default-farmersmarket-4-3.jpg,300329,Down to Earth New Rochelle Farmers Market,,Down to Earth Markets,info@downtoearthmarkets.com,9149234837,PO Box 567,https://www.facebook.com/newrochellefarmersmarket/,https://twitter.com/DowntoEarthMkts,,,,,"Thomas Paine Cottage Museum, New Rochelle, New York 10804",New York,New Rochelle,Thomas Paine Cottage Museum,10804,-73.791017,40.933570,June to November,"Fresh fruits, Fresh vegetables, Baked goods, Bedding plants, Canned or preserved fruits/vegetables, Coffee/tea, Cut flowers, Dry beans, Eggs, Fish/seafood, Fresh/dried herbs, Grains/flour, Honey, Juices/non-alcoholic ciders, Maple products, Mushrooms, Nuts, Poultry/fowl meat and products, Prepared foods, Red/other non-poultry meat and products, Wine, spirits, beer, hard cider"
farmers market,"Jan 25th, 2021",default-farmersmarket-4-3.jpg,300330,Down to Earth Rye Farmers Market,,Down to Earth Markets,info@downtoearthmarkets.com,9149234837,PO Box 567,https://www.facebook.com/ryefarmersmarket,twitter.com/DowntoEarthMkts,,,,,"Parking lot off Theodore Fremd Ave., Rye, New York 10580",New York,Rye,Parking lot off Theodore Fremd Ave.,10580,-73.686043,40.983895,May to December,"Fresh fruits, Fresh vegetables, Baked goods, Bedding plants, Canned or preserved fruits/vegetables, Coffee/tea, Crafts/woodworking items, Cut flowers, Dairy products., Dry beans, Eggs, Fish/seafood, Fresh/dried herbs, Grains/flour, Honey, Juices/non-alcoholic ciders, Maple products, Mushrooms, Nuts, Pet food, Poultry/fowl meat and products, Prepared foods, Red/other non-poultry meat and products, Soap/body care products, Wine, spirits, beer, hard cider"
farmers market,"Jan 25th, 2021",default-farmersmarket-4-3.jpg,300331,Down to Earth McGolrick Park Farmers Market,,Down to Earth Markets,info@downtoearthmarkets.com,9149234837,PO Box 567,https://www.facebook.com/mcgolrickparkfarmersmarket,https://twitter.com/DowntoEarthMkts,,,,,"At the center of the park, Brooklyn, New York 11222",New York,Brooklyn,At the center of the park,11222,-73.943291,40.724358,March to December,"Fresh fruits, Fresh vegetables, Baked goods, Bedding plants, Canned or preserved fruits/vegetables, Coffee/tea, Cut flowers, Dairy products., Eggs, Fish/seafood, Fresh/dried herbs, Honey, Juices/non-alcoholic ciders, Maple products, Mushrooms, Poultry/fowl meat and products, Prepared foods, Red/other non-poultry meat and products, Tofu/non-animal protein, Wine, spirits, beer, hard cider"
farmers market,"Jan 25th, 2021",default-farmersmarket-4-3.jpg,300332,Down to Earth Morningside Park Farmers Market,,Dacotah Rousseau,info@downtoearthmarkets.com,9149234837,PO Box 567,https://www.facebook.com/morningsideparkfarmersmarket/,https://twitter.com/DowntoEarthMkts,,,,,"110th Street and Manhattan Avenue, Manhattan, New York 10026",New York,Manhattan,110th Street and Manhattan Avenue,10026,-73.959645,40.801254,January to May,"Fresh fruits, Fresh vegetables, Baked goods, Bedding plants, Canned or preserved fruits/vegetables, Coffee/tea, Cut flowers, Dairy products., Eggs, Fish/seafood, Fresh/dried herbs, Honey, Juices/non-alcoholic ciders, Maple products, Poultry/fowl meat and products, Prepared foods, Red/other non-poultry meat and products, Soap/body care products, Wine, spirits, beer, hard cider"
farmers market,"Jan 25th, 2021",default-farmersmarket-4-3.jpg,300453,Down to Earth Ossining Farmers Market,,Down to Earth Markets,info@downtoearthmarkets.com,9149234837,PO Box 567,https://www.facebook.com/ossiningfarmersmarket/,https://twitter.com/DowntoEarthMkts,,,,,"Near the corner of Spring & Main Streets, Ossining, New York 10562",New York,Ossining,Near the corner of Spring & Main Streets,10562,-73.863410,41.160793,January to May,"Fresh fruits, Fresh vegetables, Baked goods, Bedding plants, Canned or preserved fruits/vegetables, Coffee/tea, Crafts/woodworking items, Cut flowers, Dairy products., Dry beans, Eggs, Fish/seafood, Fresh/dried herbs, Grains/flour, Honey, Juices/non-alcoholic ciders, Maple products, Mushrooms, Nuts, Poultry/fowl meat and products, Prepared foods, Red/other non-poultry meat and products, Soap/body care products, Wine, spirits, beer, hard cider"
farmers market,"Jan 25th, 2021",default-farmersmarket-4-3.jpg,301390,Down to Earth Cunningham Park Farmers Market,,Down to Earth Markets,info@downtoearthmarkets.com,9149234837,https://downtoearthmarkets.com/,https://www.facebook.com/cunninghamparkfarmersmarket,,,,,,"Parking lot off Union Turnpike, Queens, New York 11366",New York,Queens,Parking lot off Union Turnpike,11366,-73.773482,40.730800,May to November,"Fresh fruits, Fresh vegetables, Baked goods, Bedding plants, Canned or preserved fruits/vegetables, Coffee/tea, Cut flowers, Dairy products., Eggs, Fish/seafood, Fresh/dried herbs, Honey, Juices/non-alcoholic ciders, Maple products, Mushrooms, Poultry/fowl meat and products, Prepared foods, Red/other non-poultry meat and products, Wine, spirits, beer, hard cider"
farmers market,"Jan 27th, 2021",default-farmersmarket-4-3.jpg,300050,Utica Farmers Market,,"Dave Short Manager  or Thalia Hunter, Coordinator",thunter@cityofutica.com,315-792-0114,www.CityofUtica.com,,,,,,,"Chancellor Park, Elizabeth St., Utica, New York 13501",New York,Utica,Elizabeth St.,13501,-75.225983,43.096382,June to October,"Fresh fruits, Fresh vegetables, Baked goods, Canned or preserved fruits/vegetables, Eggs, Honey, Maple products"
farmers market,"Jan 27th, 2021",default-farmersmarket-4-3.jpg,300055,Belmont Farmers Market,,Debra Wagoner,thebelmontfarmersmarket@gmail.com,585-610-8836,,Belmont Farmers Market,,,,,,"5429 State Route 19N, Belmont, New York 14813",New York,Belmont,5429 State Route 19N,14813,-78.053508,42.234077,June to October,"Fresh fruits, Fresh vegetables, Baked goods, Bedding plants, Canned or preserved fruits/vegetables, Crafts/woodworking items, Cut flowers, Eggs, Fresh/dried herbs, Honey, Maple products, Red/other non-poultry meat and products, Soap/body care products"
farmers market,"Jan 30th, 2021",default-farmersmarket-4-3.jpg,301416,Aurora Farmers Market,,Ellen W Hall,vewh2014@gmail.com,315-515-8354,,,,,,,,"170 Main Street, Aurora, New York 13026",New York,Aurora,170 Main Street,13026,-76.699995,42.744684,May to October,"Fresh fruits, Fresh vegetables, Baked goods, Bedding plants, Canned or preserved fruits/vegetables, Coffee/tea, Crafts/woodworking items, Cut flowers, Eggs, Honey, Maple products, Nuts, Prepared foods, Soap/body care products, Wild harvested forest products"
farmers market,"Jan 4th, 2021",default-farmersmarket-4-3.jpg,300688,East Side Farmers' Market,,Danielle Howie,dkh54@cornell.edu,6077344453,http://chemung.cce.cornell.edu/agriculture/buy-local/farmers-markets,https://www.facebook.com/EastSideMarketElmiraNY/,,,,,,"760 E Water St Elmira, Elmira, New York 14901",New York,Elmira,760 E Water St Elmira,14901,-76.794875,42.088757,June to October,"Fresh fruits, Fresh vegetables, Baked goods, Bedding plants, Canned or preserved fruits/vegetables, Crafts/woodworking items, Dairy products., Eggs, Honey, Maple products, Mushrooms, Poultry/fowl meat and products, Prepared foods, Red/other non-poultry meat and products, Soap/body care products"
farmers market,"Jan 5th, 2021",default-farmersmarket-4-3.jpg,300008,"Webster's Joe Obbie Farmers' Market, Inc.",,Jason Bliek,admin@websterfarmersmarket.com,585-261-1533,www.webstersjoeobbiefarmersmarketinc.org,https://www.facebook.com/pages/Websters-Joe-Obbie-Farmers-Market-Inc/271407932889827,,,,,,"1028 Ridge Road, Webster Towne Center, Webster, New York 14580",New York,Webster,1028 Ridge Road,14580,-77.452948,43.212229,June to October,"Fresh fruits, Fresh vegetables, Baked goods, Bedding plants, Canned or preserved fruits/vegetables, Crafts/woodworking items, Cut flowers, Eggs, Honey, Juices/non-alcoholic ciders, Maple products, Red/other non-poultry meat and products"
farmers market,"Jan 5th, 2021",default-farmersmarket-4-3.jpg,301367,Broome County Regional Farmers Market,,Molly McManus,mlm452@cornell.edu,6075845025,www.broomecountyregionalmarket.com,Broome County Regional Farmers Market,,,,,,"840 Upper Front St, Binghamton, New York 13905",New York,Binghamton,840 Upper Front St,13905,-75.904648,42.129759,Year-round,"Fresh fruits, Fresh vegetables, Baked goods, Bedding plants, Canned or preserved fruits/vegetables, Coffee/tea, Crafts/woodworking items, Cut flowers, Dairy products., Eggs, Fish/seafood, Fresh/dried herbs, Honey, Maple products, Mushrooms, Nursery stock, Pet food, Poultry/fowl meat and products, Prepared foods, Soap/body care products, Wild harvested forest products, Wine, spirits, beer, hard cider"
farmers market,"Jul 29th, 2020",default-farmersmarket-4-3.jpg,301173,La Familia Verde Market,,Karen Washington,linkoree2@gmail.com,9178612783,lafamiliaverde.org,,,,,,,"Tremont Ave between Arthur Ave & LaFontaine Ave, Bronx, New York 10457",New York,Bronx,Tremont Ave between Arthur Ave & LaFontaine Ave,10457,-73.891978,40.849357,July to November,"Fresh fruits, Fresh vegetables, Baked goods, Eggs"
farmers market,"Jul 30th, 2020",default-farmersmarket-4-3.jpg,301174,Grass Roots Farmers Market,,Sonya Simmons,grassrootsfm@aol.com,6463554020,,Grassroots Farmers Market,,,,,,"W.145th. Street between Edgecombe & Bradhurst Aves., New York, New York 10031",New York,New York,W.145th. Street between Edgecombe & Bradhurst Aves.,10031,-73.943475,40.823804,July to November,"Fresh fruits, Fresh vegetables, Baked goods, Canned or preserved fruits/vegetables, Eggs, Honey"
farmers market,"Jul 6th, 2020",default-farmersmarket-4-3.jpg,301149,Fulton Stall Market - Indoor Farmers Market,,Bob Lewis,info@fultonstallmarket.org,9172316071,fultonstallmarket.org,fultonmarketnyc,fultonmarketnyc,,,,,"91 South St., New York , New York 10038",New York,New York,91 South St.,10038,-74.003474,40.706222,,"Fresh fruits, Fresh vegetables, Baked goods, Canned or preserved fruits/vegetables, Coffee/tea, Dairy products., Eggs, Fish/seafood, Fresh/dried herbs, Grains/flour, Honey, Juices/non-alcoholic ciders, Maple products, Mushrooms, Pet food, Poultry/fowl meat and products, Prepared foods, Red/other non-poultry meat and products, Wine, spirits, beer, hard cider"
farmers market,"Jun 19th, 2020",default-farmersmarket-4-3.jpg,301136,Sodus Farmers' Market,,Sandy Hall,Shall3@rochester.rr.com,315-879-7420,https://www.sutmc.org/sodus-farmers-market,https://www.facebook.com/SodusFarmersMarket/?eid=ARAx1anugPLGTuAOgrSyAlxV8qSLvqleZBvkN3fo2Pe5yANpwQzvWSFcv6MK2K1anPvrVy_2sGgpGRfe,,,,,,"58 West Main Street, sodus, New York 14551",New York,sodus,58 West Main Street,14551,-77.062753,43.237102,July to October,"Fresh fruits, Fresh vegetables, Baked goods, Bedding plants, Canned or preserved fruits/vegetables, Cut flowers, Dairy products., Fresh/dried herbs, Honey, Prepared foods, Soap/body care products"
farmers market,"Jun 28th, 2021",default-farmersmarket-4-3.jpg,301552,Newburgh Farmers' Market,,Ilyana Campos,newburgh@commongroundfarm.org,845-231-4424,https://www.commongroundfarm.org/markets/newburgh-farmers-market,https://www.facebook.com/NewburghNYFarmersMarket,,,,,,"97 Broadway, Newburgh, New York 12550",New York,Newburgh,97 Broadway,12550,-74.011014,41.499810,June to November,"Fresh fruits, Fresh vegetables, Baked goods, Canned or preserved fruits/vegetables, Coffee/tea, Crafts/woodworking items, Cut flowers, Eggs, Honey, Maple products, Prepared foods, Red/other non-poultry meat and products, Soap/body care products, Wine, spirits, beer, hard cider"
farmers market,"Mar 1st, 2021",default-farmersmarket-4-3.jpg,300650,Norwich Farmers Market,,Sandy Pierce,norwichfarmersmarket@frontier.com,607-334-4928,www.lambsquartersinc.com,Norwich NY Farmers Market,,,,,,"2-75 North Broad Street, Norwich, New York 13815",New York,Norwich,2-75 North Broad Street,13815,-75.523641,42.531632,Year-round,"Fresh fruits, Fresh vegetables, Baked goods, Cut flowers, Dairy products., Dry beans, Eggs, Fresh/dried herbs, Grains/flour, Honey, Maple products, Poultry/fowl meat and products, Prepared foods, Red/other non-poultry meat and products, Soap/body care products, Wild harvested forest products"
farmers market,"Mar 27th, 2023",default-farmersmarket-4-3.jpg,311796,125th Street Farmers' Market,,,HarlemFarmersMarket125th@gmail.com,,http://125thstreetfarmersmarket.com/,https://www.facebook.com/125thStreetFarmersMarket,,,,,,"163 W. 125th St., New York, NY, 10027",New York,New York,163 W. 125th St.,10027,-73.94724883098498,40.80852468606263,,
farmers market,"Mar 27th, 2023",default-farmersmarket-4-3.jpg,311797,175th Street Greenmarket,,,,,,,,,,,,"651 W 175th St, New York, New York 10033",New York,New York,651 W 175th St,10033,-73.93720581628509,40.845707592429065,,
farmers market,"Mar 27th, 2023",default-farmersmarket-4-3.jpg,311798,4th Ave Sunset Park Greenmarket,,,,,,,,,,,,"60 4th Ave, Brooklyn, New York 11220",New York,Brooklyn,60 4th Ave,11220,-73.97938879189957,40.68281048883112,,
farmers market,"Mar 27th, 2023",default-farmersmarket-4-3.jpg,311799,79th Street Greenmarket,,,,,,,,,,,,"366 Columbus Ave, New York, New York 10024",New York,New York,366 Columbus Ave,10024,-73.97616213937675,40.78102834727456,,
farmers market,"Mar 27th, 2023",default-farmersmarket-4-3.jpg,311800,82nd Street Greenmarket,,,,,,,,,,,,"408 E 82nd St, New York, New York 10028",New York,New York,408 E 82nd St,10028,-73.95070247020897,40.7740508964048,,
farmers market,"Mar 27th, 2023",default-farmersmarket-4-3.jpg,311801,97th Street Greenmarket,,,,,,,,,,,,"125 W 97th St, New York, New York 10025",New York,New York,125 W 97th St,10025,-73.96880192033252,40.79430307684874,,
farmers market,"Mar 27th, 2023",default-farmersmarket-4-3.jpg,311802,Abingdon Greenmarket,,,,,,,,,,,,"601 Hudson St, New York, New York 10014",New York,New York,601 Hudson St,10014,-74.00577131915908,40.737204360819646,,
farmers market,"Mar 27th, 2023",default-farmersmarket-4-3.jpg,311803,Akwesasne Farmers Market,,,,,,,,,,,,"580 NY-37, Hogansburg, New York 13655",New York,Hogansburg,580 NY-37,13655,-74.68638371269493,44.97857102741691,,
farmers market,"Mar 27th, 2023",default-farmersmarket-4-3.jpg,311804,Alden Farmers' Market,,,secretary@aldenny.org,,http://aldenny.org/market.asp,https://www.facebook.com/Alden-Farmers-Market-115086735200028/,,,,,,"13119 Broadway St., Alden, NY, 14004",New York,Alden,13119 Broadway St.,14004,-78.49918328338123,42.89910978779576,,
farmers market,"Mar 27th, 2023",default-farmersmarket-4-3.jpg,311805,Amenia Farmers Market,,,,,,,,,,,,"4988 NY-22, Amenia, New York 12501",New York,Amenia,4988 NY-22,12501,-73.55733599635607,41.84904645825276,,
farmers market,"Mar 27th, 2023",default-farmersmarket-4-3.jpg,311806,Andes Indoor Farmers Market,,,,607-832-4660,,http://www.facebook.com/AndesIndoorFarmMarket?ref=hl,,,,,,"143 Main Street Andes , NY 13731",New York,ANDES,143 MAIN ST,13731,-74.78335657020915,42.19004124657492,,
farmers market,"Mar 27th, 2023",default-farmersmarket-4-3.jpg,311807,Ann Street Market,,,,562-694-0110,,,,,,,,"107 Broadway, behind Ritz Theater Newburgh, NY 12550",New York,Newburgh,107 Broadway,12550,-74.01119443017744,41.50000940721936,,
farmers market,"Mar 27th, 2023",default-farmersmarket-4-3.jpg,311808,Auburn Farmers Co-op Market Inc.,,,,315-704-8609,http://auburnfarmerscoopmarketinc.com,http://www.facebook.com/AuburnFarmersCo-opMarket,,,,,,"96 state street, across from Curley's Restaurant Auburn, NY 13021",New York,SENNETT,96 STATE ST,13021,-76.57020626436754,42.93410146919378,,
farmers market,"Mar 27th, 2023",default-farmersmarket-4-3.jpg,311809,Avon Market Days,,,,585-226-3717,,,,,,,,"270 E. Main Street Avon, NY 14414",New York,Avon,270 E. Main Street,14414,-77.73491853292799,42.910333694158176,,
farmers market,"Mar 27th, 2023",default-farmersmarket-4-3.jpg,311810,Babylon Village Farmers Market,,,,,,,,,,,,"51 Railroad Ave, Babylon, New York 11702",New York,Babylon,51 Railroad Ave,11702,-73.32285312262938,40.7001709907519,,
farmers market,"Mar 27th, 2023",default-farmersmarket-4-3.jpg,311811,Barryville Farmers Market,,,,,,,,,,,,"3405 NY-97, Barryville, New York 12719",New York,Barryville,3405 NY-97,12719,-74.9166239442753,41.47864439898811,,
farmers market,"Mar 27th, 2023",default-farmersmarket-4-3.jpg,311812,Bartel Pritchard Greenmarket,,,,,,,,,,,,"205 Prospect Park West, Brooklyn, New York 11215",New York,Brooklyn,205 Prospect Park West,11215,-73.98022275644817,40.66057503516893,,
farmers market,"Mar 27th, 2023",default-farmersmarket-4-3.jpg,311813,Bensonhurst Greenmarket,,,,,,,,,,,,"8118 18th Ave, Brooklyn, New York 11214",New York,Brooklyn,8118 18th Ave,11214,-73.99958515943747,40.609827996160824,,
farmers market,"Mar 27th, 2023",default-farmersmarket-4-3.jpg,311814,Berkshire-Rome Vendors' Market,,,,315-335-6748,,https://www.facebook.com/Berkshire-Rome-Vendors-Market-903457103006178/,,,,,,"101 W. Dominick St., Rome, NY, 13440",New York,Rome,101 W. Dominick St.,13440,-75.45899675597023,43.21142979248937,,
farmers market,"Mar 27th, 2023",default-farmersmarket-4-3.jpg,311815,Blasdell Farmers' Market,,,marktng@hamburg-chamber.org,716-649-7917,,https://www.facebook.com/The-Blasdell-Farmers-Market-647868685299129/,,,,,,"4271 Lake Ave., Blasdell, NY, 14219",New York,Blasdell,4271 Lake Ave.,14219,-78.81888403589477,42.797052735070956,,
farmers market,"Mar 27th, 2023",default-farmersmarket-4-3.jpg,311816,Blue Fields Farmers Market,,,,718-681-2222,,,,,,,,"979 Ogden Avenue979 Ogden Avenue Bronx, NY 10452",New York,BRONX,979 OGDEN AVE,10452,-73.92977501775876,40.8322381911859,,
farmers market,"Mar 27th, 2023",default-farmersmarket-4-3.jpg,311817,Boonville Farmers Market,,,,315-942-4354,,,,,,,,"601 Main St. Boonville, NY 13309",New York,Boonville,601 Main St.,13309,-75.32746599752174,43.48064634245594,,
farmers market,"Mar 27th, 2023",default-farmersmarket-4-3.jpg,311818,Boonville Winter Farmers Market,,,,,,,,,,,,"109 Park Ave, Boonville, New York 13309",New York,Boonville,109 Park Ave,13309,-75.32666228183301,43.47986770586926,,
farmers market,"Mar 27th, 2023",default-farmersmarket-4-3.jpg,311819,Brewster Farmers Market,,,,914-671-6262,https://www.betterbrewster.org/,,,,,,,"208 Main Street, Brewster Village Hall Brewster, NY 10509",New York,Brewster,208 Main Street,10509,-73.60749765026249,41.39486873134305,,
farmers market,"Mar 27th, 2023",default-farmersmarket-4-3.jpg,311820,Brightly's Farm Market,,,,,,,,,,,,"525 Drake Rd, Hamlin, New York 14464",New York,Hamlin,525 Drake Rd,14464,-77.9434222253207,43.29452001884702,,
farmers market,"Mar 27th, 2023",default-farmersmarket-4-3.jpg,311821,Brighton Farmers Market,,,squashblossomfarmny@gmail.com,585-241-0088,https://www.brightonfarmersmarket.org/,,,,,,,"1150 Winton Road South Brighton, NY 14610",New York,Brighton,1150 Winton Road South,14610,-77.54378475240176,43.16678372498763,,
farmers market,"Mar 27th, 2023",default-farmersmarket-4-3.jpg,311822,Broadalbin Farmers Market,,,,,,,,,,,,"3687 NY-30, Middleburgh, New York 12122",New York,Middleburgh,3687 NY-30,12122,-74.38790029951176,42.58552228889477,,
farmers market,"Mar 27th, 2023",default-farmersmarket-4-3.jpg,311823,Broadway Market Farmers Market,,,,716-893-0705,,,,,,,,"999 Broadway 999 Broadway Buffalo, NY 14212",New York,BUFFALO,999 BROADWAY ST,14212,-78.83717721822798,42.89344566793577,,
farmers market,"Mar 27th, 2023",default-farmersmarket-4-3.jpg,311824,Brooklyn Borough Hall Greenmarket,,,,,,,,,,,,"211 Montague St, Brooklyn, New York 11201",New York,Brooklyn,211 Montague St,11201,-73.99179722743187,40.69411265186563,,
farmers market,"Mar 27th, 2023",default-farmersmarket-4-3.jpg,311825,Brooktondale/Caroline Farmers Market,,,,607-539-9928,,,,,,,,"522 Valley Road Brooktondale, NY 14817",New York,Brooktondale,522 Valley Road,14817,-76.39366428949329,42.38094743818129,,
farmers market,"Mar 27th, 2023",default-farmersmarket-4-3.jpg,311826,Brunswick Farmers' Market,,,info@townofbrunswick.org,518-279-3461,https://www.townofbrunswick.org/,,,,,,,"336 Town Office Rd Troy, NY 12180",New York,Troy,336 Town Office Rd,12180,-73.60880413009956,42.75523624382868,,
farmers market,"Mar 27th, 2023",default-farmersmarket-4-3.jpg,311827,Burnap's Farm Market & Garden Cafe,,,,315-483-4050,http://burnapsfarm.com,http://www.facebook.com/BurnapsFarmMarket,,,,,,"7277 Maple Ave Sodus, NY 14551",New York,SODUS,7277 MAPLE AVE,14551,-77.06384441513923,43.26340556521529,,
farmers market,"Mar 27th, 2023",default-farmersmarket-4-3.jpg,311828,Burnt Hills Farmers' Market,,,,518-384-0526,,,,,,,,"120 Lake Hill Road Burnt Hills, NY 12027",New York,Burnt Hills,120 Lake Hill Road,12027,-73.89862030363017,42.910335175336265,,
farmers market,"Mar 27th, 2023",default-farmersmarket-4-3.jpg,311829,Callicoon Indoor Winter Farmers' Market,,,,845-292-6180x115,http://sullivancountyfarmersmarkets.org,,,,,,,"8 Creamery Road Callicoon, NY 12723",New York,CALLICOON,8 CREAMERY RD,12723,-75.0552463304654,41.76404337152111,,
farmers market,"Mar 27th, 2023",default-farmersmarket-4-3.jpg,311830,Cambridge Valley Farmers Market,,,,,,,,,,,,"24 S Park St, Cambridge, New York 12816",New York,Cambridge,24 S Park St,12816,-73.37539368767516,43.02170648139137,,
farmers market,"Mar 27th, 2023",default-farmersmarket-4-3.jpg,311831,Canajoharie Farmers' Market,,,info@canajohariefarmersmarket.com,518-922-5127,http://www.canajohariefarmersmarket.com,https://www.facebook.com/canajohariefarmersmarket,,,,,,"2 Erie Blvd., Canajoharie, NY, 12072",New York,Canajoharie,2 Erie Blvd.,12072,-74.57192160942702,42.906987620304996,,
farmers market,"Mar 27th, 2023",default-farmersmarket-4-3.jpg,311832,Canandaigua Farmers' Winter Market,,,canandaiguafarmersmarket@yahoo.com,585-329-7666,http://www.canandaiguafarmersmarket.com/,https://www.facebook.com/canandaiguafarmersmarket,,,,,,"254 S. Main St., Canandaigua, NY, 14424",New York,Canandaigua,254 S. Main St.,14424,-77.27873236628004,42.88400517036504,,
farmers market,"Mar 27th, 2023",default-farmersmarket-4-3.jpg,311833,Canandaigua VA Farmers' Market,,,canandaiguafarmersmarket@yahoo.com,585-393-7552,http://www.canandaiguafarmersmarket.com/,https://www.facebook.com/VACanandaigua,,,,,,"400 Fort Hill Ave., VA Medical Center, Canandaigua, NY, 14424",New York,Canandaigua,400 Fort Hill Ave.,14424,-77.27041331250246,42.900917714154815,,
farmers market,"Mar 27th, 2023",default-farmersmarket-4-3.jpg,311834,Candor Farmers Market,,,,,,,,,,,,"101 Owego Rd, Candor, New York 13743",New York,Candor,101 Owego Rd,13743,-76.33332041252237,42.22971520117049,,
farmers market,"Mar 27th, 2023",default-farmersmarket-4-3.jpg,311835,Cape Street Market,,,,,,,,,,,,"357 Broadway St, Cape Vincent, New York 13618",New York,Cape Vincent,357 Broadway St,13618,-76.3449830818663,44.12491864254093,,
farmers market,"Mar 27th, 2023",default-farmersmarket-4-3.jpg,311836,Cape Vincent Farmers Market,,,,315-654-2481,,,,,,,,"341 Broadway Street Cape Vincent, NY 13618",New York,Cape Vincent,341 Broadway Street,13618,-76.34466934561412,44.12500628892702,,
farmers market,"Mar 27th, 2023",default-farmersmarket-4-3.jpg,311837,Capital District Farmers Market in Menands (Wholesale),,,,518-465-1023,https://www.capitaldistrictfarmersmarket.com/,,,,,,,"381 Broadway Menands, NY 12204",New York,Menands,381 Broadway,12204,-73.72132998853618,42.6958692310895,,
farmers market,"Mar 27th, 2023",default-farmersmarket-4-3.jpg,311838,Carmel Farmers' Market at Lake Mahopac,,,,845-628-7888,http://www.carmel.ny.org/recreation,http://www.facebook.com/CFMatLakeMahopac,,,,,,"953 South Lake Blvd Mahopac, NY 10541",New York,MAHOPAC,953 S LAKE BLVD,10541,-73.73514999437243,41.372348779617845,,
farmers market,"Mar 27th, 2023",default-farmersmarket-4-3.jpg,311839,Caroline Farmers Market,,,,,http://brooktondalecc.org,,,,,,,"522 Vallely Rd. Brooktondale, NY 14817",New York,BROOKTONDALE,522 VALLEY RD,14817,-76.39366428949329,42.38094743818129,,
farmers market,"Mar 27th, 2023",default-farmersmarket-4-3.jpg,311840,Carroll Gardens Greenmarket,,,,,,,,,,,,"330 Smith St, Brooklyn, New York 11231",New York,Brooklyn,330 Smith St,11231,-73.99512451883244,40.679857904668324,,
farmers market,"Mar 27th, 2023",default-farmersmarket-4-3.jpg,311841,Catskill Farmers' & Artisans' Market,,,liz@lovelycatskill.com,518-622-9820,http://welcometocatskill.com/content/event/catskill-farmers-artisans-market/,https://www.facebook.com/catskillfarmersmarket,,,,,,"344 Main St., Catskill, NY, 12414",New York,Catskill,344 Main St.,12414,-73.86509911512302,42.21816956530949,,
farmers market,"Mar 27th, 2023",default-farmersmarket-4-3.jpg,311842,Catskill Farmers Market,,,,518-943-7117,http://www.welcometocatskill.com,,,,,,,"422 Main Street Catskill, NY 12414",New York,CATSKILL,422 MAIN ST,12414,-73.86598660754915,42.22043371932871,,
farmers market,"Mar 27th, 2023",default-farmersmarket-4-3.jpg,311843,Cazenovia Farmers Market,,,,315-655-8639,,,,,,,,"59 Albany Street Cazenovia, NY 13035",New York,Cazenovia,59 Albany Street,13035,-75.85361623904309,42.92988221980356,,
farmers market,"Mar 27th, 2023",default-farmersmarket-4-3.jpg,311844,Central Avenue Farmers' Market,,,,518-462-4300,,,,,,,,"339 Central Ave Albany, NY 12206",New York,Albany,339 Central Ave,12206,-73.7734704372244,42.66564826851004,,
farmers market,"Mar 27th, 2023",default-farmersmarket-4-3.jpg,311845,Central New York Regional Farmers Market (Saturday & Sunday),,,,315-422-8647,,,,,,,,"2100 Park Street Syracuse, NY 13208",New York,Syracuse,2100 Park Street,13208,-76.16845262568619,43.072755778308235,,
farmers market,"Mar 27th, 2023",default-farmersmarket-4-3.jpg,311846,Chamberlain Acres Farmers Market,,,,,,,,,,,,"824 Broadway St, Elmira, New York 14904",New York,Elmira,824 Broadway St,14904,-76.81581000262747,42.06598892493555,,
farmers market,"Mar 27th, 2023",default-farmersmarket-4-3.jpg,311847,Chappaqua Farmers Market,,,info@chappaquafarmersmarket.org,914-478-8068,https://www.chappaquafarmersmarket.org/,,,,,,,"191 South Greeley Ave Chappaqua, NY 10514",New York,Chappaqua,191 South Greeley Ave,10514,-73.7738327946647,41.15511526200649,,
farmers market,"Mar 27th, 2023",default-farmersmarket-4-3.jpg,311848,Chatham Farmers Market,,,,518-392-3353,http://www.chathamrealfoodcoop.net/,http://www.facebook.com/pages/Chatham-Farmers-Market/120196864688252,,,,,,"15 Church Street Chatham, NY 12037",New York,CHATHAM,15 CHURCH ST,12037,-73.60188254330158,42.35680924170663,,
farmers market,"Mar 27th, 2023",default-farmersmarket-4-3.jpg,311849,Chelsea's Down to Earth Farmers Market,,,,,https://twitter.com/DowntoEarthMkts*http://downtoearthmarkets.com/markets?region=manhattan&market=chelsea+farmers+market,https://facebook.com/DowntoEarthMarkets,,,,,,"383 W 23rd St, New York, New York 10011",New York,New York,383 W 23rd St,10011,-74.00074590591575,40.74625723345884,,
farmers market,"Mar 27th, 2023",default-farmersmarket-4-3.jpg,311850,Chestnut Street Farmers Market,,,,,,,,,,,,"502 W Chestnut St, Rome, New York 13440",New York,Rome,502 W Chestnut St,13440,-75.44906943665796,43.23456888823689,,
farmers market,"Mar 27th, 2023",default-farmersmarket-4-3.jpg,311851,Chili Farmers' Market,,,,585-889-4680,,,,,,,,"3240 Chili Avenue Rochester, NY 14624",New York,Rochester,3240 Chili Avenue,14624,-77.75284676878199,43.103868052488146,,
farmers market,"Mar 27th, 2023",default-farmersmarket-4-3.jpg,311852,Cicero Farmers' Market,,,dking@nopl.org,315-699-2032,http://www.nopl.org/special-events/cicero-farmers-market/,https://www.facebook.com/CiceroFarmersMarketCNY/,,,,,,"8686 Knowledge Ln., Cicero, NY, 13039",New York,Cicero,8686 Knowledge Ln.,13039,-76.12687838862635,43.19094150836552,,
farmers market,"Mar 27th, 2023",default-farmersmarket-4-3.jpg,311853,Cincinnatus Farmers Market,,,,607-863-3828,,,,,,,,"2704 Lower Cincinnatus Road Cincinnatus, NY 13040",New York,Cincinnatus,2704 Lower Cincinnatus Road,13040,-75.89669336889172,42.537923848225915,,
farmers market,"Mar 27th, 2023",default-farmersmarket-4-3.jpg,311854,Clarence Farmers' Market,,,,716-759-1075,https://www.clarencehollow.org/,,,,,,,"10717 Main Street Clarence, NY 14031",New York,Clarence,10717 Main Street,14031,-78.58827675411403,42.98086919298722,,
farmers market,"Mar 27th, 2023",default-farmersmarket-4-3.jpg,311855,Clifton Park Farmers Market,,,,,,,,,,,,"971 NY-146, Clifton Park, New York 12065",New York,Clifton Park,971 NY-146,12065,-73.80849122485041,42.8687397590076,,
farmers market,"Mar 27th, 2023",default-farmersmarket-4-3.jpg,311856,Clinton-Bailey Farmers' Market,,,,716-822-2466,,,,,,,,"1443-1517 Clinton Street Buffalo, NY 14206",New York,Buffalo,1443-1517 Clinton Street,14206,-78.82204630889592,42.87284415325121,,
farmers market,"Mar 27th, 2023",default-farmersmarket-4-3.jpg,311857,Clyde Farmers Market,,,,,,,,,,,,"6 South Park Street Clyde, NY 14433",New York,Clyde,6 South Park Street,14433,-76.86999364946332,43.08368440028205,,
farmers market,"Mar 27th, 2023",default-farmersmarket-4-3.jpg,311858,Cold Spring Farmers Market,,,,845-265-3611,https://www.csfarmmarket.org/,,,,,,,"44 Chestnut Street Cold Spring, NY 10516",New York,Cold Spring,44 Chestnut Street,10516,-73.95267856462101,41.41872445495529,,
farmers market,"Mar 27th, 2023",default-farmersmarket-4-3.jpg,311859,Colden Community Farmers Market,,,,716-941-3550,,,,,,,,"8745 Supervisor Ave (at Heath Rd) Colden, NY 14033",New York,COLDEN,8745 SUPERVISOR AVE,14033,-78.68336283522031,42.64539353528236,,
farmers market,"Mar 27th, 2023",default-farmersmarket-4-3.jpg,311860,Coopertown Farmers Market,,,,,,,,,,,,"101 Main St, Cooperstown, New York 13326",New York,Cooperstown,101 Main St,13326,-74.92523529060458,42.70066763319191,,
farmers market,"Mar 27th, 2023",default-farmersmarket-4-3.jpg,311861,Copake Hillsdale Farmers Market,,,,,,,,,,,,"9140 NY-22, Granville, New York 12832",New York,Granville,9140 NY-22,12832,-73.27288884142777,43.40240548334175,,
farmers market,"Mar 27th, 2023",default-farmersmarket-4-3.jpg,311862,Corfu Farmers Market,,,,,,,,,,,,"63 Alleghany Rd, Corfu, New York 14036",New York,Corfu,63 Alleghany Rd,14036,-78.40586622841892,42.960783252424676,,
farmers market,"Mar 27th, 2023",default-farmersmarket-4-3.jpg,311863,Corning Farmers' Market,,,simonkneafsey@hotmail.com,607-936-4686,https://www.gafferdistrict.com/,,,,,,,"114 Pine Street Corning, NY 14830",New York,Corning,114 Pine Street,14830,-77.05493821595422,42.142038994881595,,
farmers market,"Mar 27th, 2023",default-farmersmarket-4-3.jpg,311864,Corning indoor Winter Farmers' Market,,,,607-546-4535,http://corningindoorwinterfarmersmarket.com/,http://www.facebook.com/CorningIndoorWinterFarmersMarket/,,,,,,"1 W. Market Street Corning, NY 14830 Free parking in the garage right next door on weekends!",New York,CORNING,1 W MARKET ST,14830,-77.05462477494191,42.14343626691953,,
farmers market,"Mar 27th, 2023",default-farmersmarket-4-3.jpg,311865,Corona Greenmarket,,,,,,,,,,,,"103-28 Roosevelt Ave, Corona, New York 11368",New York,Corona,103-28 Roosevelt Ave,11368,-73.86264448092193,40.74987401047055,,
farmers market,"Mar 27th, 2023",default-farmersmarket-4-3.jpg,311866,Cortelyou Greenmarket,,,,,,,,,,,,"1305 Cortelyou Rd, Brooklyn, New York 11226",New York,Brooklyn,1305 Cortelyou Rd,11226,-73.96607500022274,40.64048360189466,,
farmers market,"Mar 27th, 2023",default-farmersmarket-4-3.jpg,311867,Countryside Grocery & Farmers Market,,,,315-400-1717,http://countrysidegrocery.com,http://www.facebook.com/Countrysidegrocery?ref=hl,,,,,,"3355 Taylor Road Clifton Springs, NY 14432 Very easy to find off of County Road 7 and lovers lane Minutes off exit 43 New York State Thruway. OPEN ALL YEAR LONG",New York,CLIFTON SPGS,3355 TAYLOR RD,14432,-77.18075588506379,42.9388832628584,,
farmers market,"Mar 27th, 2023",default-farmersmarket-4-3.jpg,311868,Culinary Kids Farmers' Market,,,,718-584-2409,,,,,,,,"30-15 Seagirt Blvd Far Rockaway, NY 11691",New York,Far Rockaway,30-15 Seagirt Blvd,11691,-73.76306125597408,40.59597698271658,,
farmers market,"Mar 27th, 2023",default-farmersmarket-4-3.jpg,311869,Dag Hammarskjold Greenmarket,,,,,,,,,,,,"245 E 47th St, New York, New York 10017",New York,New York,245 E 47th St,10017,-73.97096532044611,40.75346053354123,,
farmers market,"Mar 27th, 2023",default-farmersmarket-4-3.jpg,311870,Danby Farmers Market,,,,607-272-2292,,,,,,,,"1780 Danby Road Ithaca, NY 14850",New York,Ithaca,1780 Danby Road,14850,-76.48303550124389,42.357749957350016,,
farmers market,"Mar 27th, 2023",default-farmersmarket-4-3.jpg,311871,"Dara Farms Seed & Marketplace, Inc.",,,,,,,,,,,,"2680 Shirley Ln, Bellmore, New York 11710",New York,Bellmore,2680 Shirley Ln,11710,-73.52562266499375,40.660827560579094,,
farmers market,"Mar 27th, 2023",default-farmersmarket-4-3.jpg,311872,Dave's Veggies Greenhouses & Farm Market,,,,,,,,,,,,"5178 NY-41, Homer, New York 13077",New York,Homer,5178 NY-41,13077,-76.20163914998497,42.65757991271219,,
farmers market,"Mar 27th, 2023",default-farmersmarket-4-3.jpg,311873,Deep Roots Farmers Market,,,,,,,,,,,,"100 Garvies Point Rd, Glen Cove, New York 11542",New York,Glen Cove,100 Garvies Point Rd,11542,-73.64427872585777,40.85892334797113,,
farmers market,"Mar 27th, 2023",default-farmersmarket-4-3.jpg,311874,Delaware Area Neighborhood Farmers' Market,,,Apples@valstar.com,518-432-0516,,,,,,,,"391 Delaware Ave., Albany, NY, 12209",New York,Albany,391 Delaware Ave.,12209,-73.78096465163313,42.641362745187095,,
farmers market,"Mar 27th, 2023",default-farmersmarket-4-3.jpg,311875,Delaware Community Farmers Market,,,,518-432-0516,,,,,,,,"331 Delaware Avenue in Albany (behind the library) Albany, NY 12209",New York,ALBANY,331 DELAWARE AVE,12209,-73.77802449329049,42.64253346304897,,
farmers market,"Mar 27th, 2023",default-farmersmarket-4-3.jpg,311876,Delhi Farmers Market,,,,607-746-6897,,,,,,,,"97 Main Street, Suite 5 Delhi, NY 13753",New York,Delhi,97 Main Street,13753,-74.91704355157762,42.27720060931417,,
farmers market,"Mar 27th, 2023",default-farmersmarket-4-3.jpg,311877,Delmar Farmers' Market,,,,518-893-2669,,,,,,,,"428 Kenwood Ave Delmar, NY 12054",New York,Delmar,428 Kenwood Ave,12054,-73.83612896811496,42.62298012856136,,
farmers market,"Mar 27th, 2023",default-farmersmarket-4-3.jpg,311878,Deposit Farmers Market,,,,607-531-8656,,,,,,,,"107 Second St Deposit, NY 13754",New York,Deposit,107 Second St,13754,-75.42488965375007,42.061998885442605,,
farmers market,"Mar 27th, 2023",default-farmersmarket-4-3.jpg,311879,Dolgeville Farmers' Market/Flea Market,,,,315-429-9382,,,,,,,,"55 N. Main Street Dolgeville, NY 13329",New York,Dolgeville,55 N. Main Street,13329,-74.7701313454435,43.10387582396723,,
farmers market,"Mar 27th, 2023",default-farmersmarket-4-3.jpg,311880,Domino Park Greenmarket,,,,,,,,,,,,"15 River St, Brooklyn, New York 11211",New York,Brooklyn,15 River St,11211,-73.96644407525827,40.71656476327231,,
farmers market,"Mar 27th, 2023",default-farmersmarket-4-3.jpg,311881,Down to Earth Mamaroneck Winter Farmers Market,,,,,http://www.downtoearthmarkets.com*https://twitter.com/DowntoEarthMkts,https://facebook.com/downtoearthmarketsmamaroneck,,,,,,"168 W Boston Post Rd, Mamaroneck, New York 10543",New York,Mamaroneck,168 W Boston Post Rd,10543,-73.73383424303222,40.947759642310274,,
farmers market,"Mar 27th, 2023",default-farmersmarket-4-3.jpg,311882,Down to Earth Ossining Winter Farmers Market,,,,,http://www.downtoearthmarkets.com*https://twitter.com/DowntoEarthMkts,https://facebook.com/ossiningfarmersmarket,,,,,,"34 S Highland Ave, Ossining, New York 10562",New York,Ossining,34 S Highland Ave,10562,-73.86085574907773,41.15947315531492,,
farmers market,"Mar 27th, 2023",default-farmersmarket-4-3.jpg,311883,Downtown Binghamton Farmers' Market,,,farm@binghamtonfarmersmarket.com,607-131-7782,https://www.binghamtonfarmersmarket.com/,https://www.facebook.com/BinghamtonFarmersMarket,,,,,,"52 Court St Binghamton, NY 12058",New York,Binghamton,52 Court St,12058,-75.91330947642948,42.09870294573593,,
farmers market,"Mar 27th, 2023",default-farmersmarket-4-3.jpg,311884,Downtown Country Market,,,,,,,,,,,,"1 Main St, Buffalo, New York 14203",New York,Buffalo,1 Main St,14203,-78.87751947660522,42.87600306156384,,
farmers market,"Mar 27th, 2023",default-farmersmarket-4-3.jpg,311885,Downtown Farmers' Market,,,info@binghamtonfarmersmarket.com,,http://www.binghamtonfarmersmarket.com/Home.html,,,,,,,"80 Collier St., Binghamton, NY, 13901",New York,Binghamton,80 Collier St.,13901,-75.91160839944303,42.09831666525048,,
farmers market,"Mar 27th, 2023",default-farmersmarket-4-3.jpg,311886,Downtown Syracuse Farmers Market,,,,,,,,,,,,"161 W Genesee St, Fayetteville, New York 13066",New York,Fayetteville,161 W Genesee St,13066,-76.01395610285886,43.029321482018524,,
farmers market,"Mar 27th, 2023",default-farmersmarket-4-3.jpg,311887,Dundee Farmers Market,,,,607-678-4087,,,,,,,,"43 Water St. Dundee, NY 14837",New York,Dundee,43 Water St.,14837,-76.97687831776022,42.52485508851522,,
farmers market,"Mar 27th, 2023",default-farmersmarket-4-3.jpg,311888,Dunham Public Library Winter Market,,,,315-736-9734,http://www.whitesborolibrary.org,http://www.facebook.com/DunhamPublicLibrary/facebook.com,,,,,,"76 Main St Whitesboro, NY 13492",New York,WHITESBORO,76 MAIN ST,13492,-75.28951534630728,43.12058781692053,,
farmers market,"Mar 27th, 2023",default-farmersmarket-4-3.jpg,311889,East Greenbush Community Library Farmers Market,,,,,http://eastgreenbushlibrary.org/events/farmers-market/,http://www.facebook.com/EastGreenbushLibraryYMCAFarmerMarket/,,,,,,"10 Community Way East Greenbush, NY 12061 The market is located in the parking lot between the library and the YMCA.",New York,E GREENBUSH,10 COMMUNITY WAY,12061,-73.69474002723,42.61926468055825,,
farmers market,"Mar 27th, 2023",default-farmersmarket-4-3.jpg,311890,"East Hampton Farmers Market, LLC",,,,,,,,,,,,"80 Park Pl, East Hampton, New York 11937",New York,East Hampton,80 Park Pl,11937,-72.1875016976038,40.963812443459446,,
farmers market,"Mar 27th, 2023",default-farmersmarket-4-3.jpg,311891,East Meadow Farmers Market,,,,631-323-3653,,,,,,,,"2201 Hempstead Turnpike East Meadow, NY 11554",New York,East Meadow,2201 Hempstead Turnpike,11554,-73.55427250203039,40.72530633589014,,
farmers market,"Mar 27th, 2023",default-farmersmarket-4-3.jpg,311892,East New York Farmers Market,,,,,http://www.eastnewyorkfarms.org,,,,,,,"613 New Lots Ave, Brooklyn, New York 11207",New York,Brooklyn,613 New Lots Ave,11207,-73.88656406088565,40.66472091831227,,
farmers market,"Mar 27th, 2023",default-farmersmarket-4-3.jpg,311893,Eastchester Farmers Market,,,,914-479-9423,,http://www.facebook.com/eastchesterfarmersmarket,,,,,,"344 White Plains Rd Eastchester, NY 10709 The market is located in the rear parking lot of Country Markets supermarket. You can also find parking in this area.",New York,EASTCHESTER,344 WHITE PLAINS RD,10709,-73.8158769837036,40.952446288357486,,
farmers market,"Mar 27th, 2023",default-farmersmarket-4-3.jpg,311894,Eastside Market,,,admin@nyfarmersmarket.com,607-734-4453,http://www.nyfarmersmarket.com/regioncentralchemung.htm,https://www.facebook.com/EastSideMarketElmiraNY,,,,,,"760 Water St., Elmira, NY, 14901",New York,Elmira,760 Water St.,14901,-76.7905454308062,42.08959467091878,,
farmers market,"Mar 27th, 2023",default-farmersmarket-4-3.jpg,311895,Eastside Neighborhood Farmers Market,,,,,,,,,,,,"826 Euclid Ave, Syracuse, New York 13210",New York,Syracuse,826 Euclid Ave,13210,-76.11987573388298,43.03674997656394,,
farmers market,"Mar 27th, 2023",default-farmersmarket-4-3.jpg,311896,Eden Farmers Market,,,,,http://www.edennyfarmersmarket.com,http://www.facebook.com/edenfarmersmarket,,,,,,"2912 Legion Drive Eden, NY 14057 Parking on-site. Handicap spaces available.",New York,EDEN,2912 LEGION DR,14057,-78.88969638865262,42.66215816566538,,
farmers market,"Mar 27th, 2023",default-farmersmarket-4-3.jpg,311897,Elizabethtown Farmers' Market,,,ovitt.kim@gmail.com,518-293-7877,https://www.adirondackfarmersmarket.com/,,,,,,,"7590 Court Street, Adirondack Center Museum Elizabethtown, NY 12932",New York,Elizabethtown,7590 Court Street,12932,-73.59113715821714,44.21593542591851,,
farmers market,"Mar 27th, 2023",default-farmersmarket-4-3.jpg,311898,Elmira Eastside Farmers Market,,,,607-734-4453,,,,,,,,"760 E Water St. Elmira, NY 14901",New York,Elmira,760 E Water St.,14901,-76.79052932254332,42.08959699671074,,
farmers market,"Mar 27th, 2023",default-farmersmarket-4-3.jpg,311899,Empire State Plaza Summer Farmers Market,,,,,,,,,,,,"279 Madison Ave, Albany, New York 12242",New York,Albany,279 Madison Ave,12242,-73.76145013357448,42.64891141784639,,
farmers market,"Mar 27th, 2023",default-farmersmarket-4-3.jpg,311900,Enchanted Mountain Farmers Market,,,,716-543-5475,,,,,,,,"1900 Constitution Ave. Olean, NY 14760",New York,OLEAN,1900 CONSTITUTION AVE,14760,-78.45224852122979,42.08308845974471,,
farmers market,"Mar 27th, 2023",default-farmersmarket-4-3.jpg,311901,Fairport Farmers' Market,,,info@fairportpartnership.org,585-421-3209,https://www.fairportpartnership.org/,,,,,,,"58 S. Main Street behind Bank of America Fairport, NY 14450",New York,Fairport,58 S. Main Street,14450,-77.44196844419909,43.0996060281714,,
farmers market,"Mar 27th, 2023",default-farmersmarket-4-3.jpg,311902,Family Fruit Farmers Market,,,,718-317-4949,http://www.familyfruitsi.com/,,,,,,,"2200 Arthur Kill Road Staten Island, NY 10309",New York,Staten Island,2200 Arthur Kill Road,10309,-74.2075857828465,40.55753170798501,,
farmers market,"Mar 27th, 2023",default-farmersmarket-4-3.jpg,311903,Farm & Artisan Market at the Villa,,,info@marketatthevilla.com,585-786-8766,,https://www.facebook.com/Farm-Artisan-Market-at-the-Villa-590415804387690/,,,,,,"140 N. Main St., Warsaw, NY, 14569",New York,Warsaw,140 N. Main St.,14569,-78.13256782739305,42.743252681136916,,
farmers market,"Mar 27th, 2023",default-farmersmarket-4-3.jpg,311904,Farm to Preschool Market: Mercy Cares for Kids,,,,518-426-7181,http://www.cdcccc.org/page/farm-to-preschool-31.html,,,,,,,"310 S Manning Blvd Albany , NY 12206 Market is located next to the preschool center, right in front of the preschool gardens. Parking is available on site.",New York,ALBANY,310 MANNING BLVD,12206,-73.78669826321405,42.67115070513362,,
farmers market,"Mar 27th, 2023",default-farmersmarket-4-3.jpg,311905,Farmer Browns Marketplace Farmers Market,,,,,,,,,,,,"4280 NY-434, Apalachin, New York 13732",New York,Apalachin,4280 NY-434,13732,-76.19123572463636,42.08443825162797,,
farmers market,"Mar 27th, 2023",default-farmersmarket-4-3.jpg,311906,Farmers' Market at the Williamsville Mill,,,,518-222-3019,,,,,,,,"56 E. Spring St. Williamsville, NY 14221",New York,WILLIAMSVILLE,56 E SPRING ST,14221,-78.74505941636508,42.963669947433985,,
farmers market,"Mar 27th, 2023",default-farmersmarket-4-3.jpg,311907,Farmers Market in Menands,,,,518-465-1023,http://capitaldistrictfarmersmarket.org,,,,,,,"381 Broadway Menands, NY 12204",New York,MENANDS,381 BROADWAY,12204,-73.72132998853618,42.6958692310895,,
farmers market,"Mar 27th, 2023",default-farmersmarket-4-3.jpg,311908,Fillmore Farmers Market,,,,,,,,,,,,"35 S Genesee St, Fillmore, New York 14735",New York,Fillmore,35 S Genesee St,14735,-78.11227138777426,42.46295770341791,,
farmers market,"Mar 27th, 2023",default-farmersmarket-4-3.jpg,311909,First NY Federal Credit Union Farmers' Market,,,,518-765-3500,,,,,,,,"2 Wall Street Albany, NY 12205",New York,Albany,2 Wall Street,12205,-73.8412458153467,42.741385161027615,,
farmers market,"Mar 27th, 2023",default-farmersmarket-4-3.jpg,311910,First United Methodist Farmers Market,,,,518-732-2991,,,,,,,,"428 Kenwood Avenue 428 Kenwood Avenue Delmar, NY 12054",New York,DELMAR,428 KENWOOD AVE,12054,-73.83612896811496,42.62298012856136,,
farmers market,"Mar 27th, 2023",default-farmersmarket-4-3.jpg,311911,Flanders Farmers Market,,,,631-702-1908,,https://www.facebook.com/FlandersFarmFreshFoodMarket/,,,,,,"655 Flanders Road (Rt 25) Flanders, NY 11901",New York,Flanders,655 Flanders Road,11901,-72.63695780154973,40.90956913967569,,
farmers market,"Mar 27th, 2023",default-farmersmarket-4-3.jpg,311912,Florida Farmers' Market,,,floridanyfarmersmarket@gmail.com,845-772-2662,http://www.warwickinfo.net/floridafarmersmarket,https://www.facebook.com/FloridaNYFarmersMarket/,,,,,,"179 N. Main St., Florida, NY, 10921",New York,Florida,179 N. Main St.,10921,-74.3575514408917,41.33939854700175,,
farmers market,"Mar 27th, 2023",default-farmersmarket-4-3.jpg,311913,Flushing Greenmarket,,,,,,,,,,,,"42-45 Kissena Blvd, Flushing, New York 11355",New York,Flushing,42-45 Kissena Blvd,11355,-73.82588048970902,40.75642312728826,,
farmers market,"Mar 27th, 2023",default-farmersmarket-4-3.jpg,311914,Fort Edward Canal Street Marketplace Farmers Market,,,,,,,,,,,,"63 Canal St, New York, New York 10002",New York,New York,63 Canal St,10002,-73.9922000858226,40.715000460567545,,
farmers market,"Mar 27th, 2023",default-farmersmarket-4-3.jpg,311915,Fort Edward Farmers Market,,,,518-792-0198,,,,,,,,"359 Broadway, Route 4 Fort Edward, NY 12828",New York,Fort Edward,359 Broadway,12828,-73.58651177221387,43.28320975290438,,
farmers market,"Mar 27th, 2023",default-farmersmarket-4-3.jpg,311916,Fredonia Farmers Market,,,,716-672-4818,https://village.fredonia.ny.us/,,,,,,,"9-11 Church Street Fredonia, NY 14063",New York,Fredonia,9-11 Church Street,14063,-79.33241837305806,42.44050158299115,,
farmers market,"Mar 27th, 2023",default-farmersmarket-4-3.jpg,311917,Genesee County Farmers Market,,,,585-343-9491,,,,,,,,"8315 Park Rd. Batavia, NY 14020",New York,Batavia,8315 Park Rd.,14020,-78.2024017141383,43.012052897368825,,
farmers market,"Mar 27th, 2023",default-farmersmarket-4-3.jpg,311918,Glen Cove Farmers Market,,,,631-323-3653,,,,,,,,"18 Village Square Glen Cove, NY 11542",New York,Glen Cove,18 Village Square,11542,-73.6325208603619,40.86484074311946,,
farmers market,"Mar 27th, 2023",default-farmersmarket-4-3.jpg,311919,Glens Falls Winter Farmers' Market,,,,518-792-0438,,,,,,,,"54 Bay Street Glens Falls, NY 12801",New York,Glens Falls,54 Bay Street,12801,-73.64732176191656,43.31350818730559,,
farmers market,"Mar 27th, 2023",default-farmersmarket-4-3.jpg,311920,GOOD OLE DAYS Indoor Farm Market (Macedon Center),,,,585-771-0636,,,,,,,,"1208 Macedon Center Rd Macedon, NY 14502",New York,MACEDON,1208 CENTER RD,14502,-77.31992734585867,43.094224349552,,
farmers market,"Mar 27th, 2023",default-farmersmarket-4-3.jpg,311921,Gossett's Farmer's Market,,,,914-763-3001,http://www.gossettsfarmmarket.com,,,,,,,"1202 Route 35 South Salem, NY 10590",New York,SOUTH SALEM,1202 STATE RTE 35,10590,-73.56697285520147,41.27451626853144,,
farmers market,"Mar 27th, 2023",default-farmersmarket-4-3.jpg,311922,Greater Bellport Farmers Market,,,,631-944-8088,,,,,,,,"685 Station Road Bellport, NY 11713",New York,Bellport,685 Station Road,11713,-72.94449931183799,40.779116344751884,,
farmers market,"Mar 27th, 2023",default-farmersmarket-4-3.jpg,311923,Green Hills Farmers' Market,,,,315-492-1707,,,,,,,,"5933 S. Salina Street Syracuse, NY 13205",New York,Syracuse,5933 S. Salina Street,13205,-76.14332074076009,42.98412453717874,,
farmers market,"Mar 27th, 2023",default-farmersmarket-4-3.jpg,311924,Greenport Farmers Market,,,,631-494-8512,,,,,,,,"622 First Street Greenport, NY 11944",New York,Greenport,622 First Street,11944,-72.36233421474093,41.106788118387165,,
farmers market,"Mar 27th, 2023",default-farmersmarket-4-3.jpg,311925,Greenwich Farmers' Market,,,,518-944-7149,,,,,,,,"70 Main St., Greenwich, NY, 12834",New York,Greenwich,70 Main St.,12834,-73.49822860288086,43.089373580751214,,
farmers market,"Mar 27th, 2023",default-farmersmarket-4-3.jpg,311926,Groton Farmers Market,,,,607-272-2292,,,,,,,,"200 S. Street, Route 38 Groton, NY 13073",New York,Groton,"200 S. Street, Route 38",13073,-76.3683309321687,42.58463213748208,,
farmers market,"Mar 27th, 2023",default-farmersmarket-4-3.jpg,311927,Guilderland Farmers Market,,,,,http://guilderlandMarket.com,http://www.facebook.com/m.home.php,,,,,,"6147 state farm rd Guilderland, NY 12084 The Guilderland Farmers Market goes from the first Sunday in July till the second Sunday in October 2019. The market is open from 10 till 2 every Sunday during",New York,GUILDERLAND,6147 STATE FARM RD,12084,-73.8895905009987,42.69580405989847,,
farmers market,"Mar 27th, 2023",default-farmersmarket-4-3.jpg,311928,Hamburg Farmers Market,,,,,,,,,,,,"45 Church St, Hamburg, New York 14075",New York,Hamburg,45 Church St,14075,-78.84041355345047,42.724083934730295,,
farmers market,"Mar 27th, 2023",default-farmersmarket-4-3.jpg,311929,Hamilton Farmers Market,,,evan@parryshamilton.com,315-824-1111,https://www.hamiltonny.com/village.htm,,,,,,,"3 Broad Street, Village Green Hamilton, NY 13346",New York,Hamilton,3 Broad Street,13346,-75.5434816433544,42.82690295341981,,
farmers market,"Mar 27th, 2023",default-farmersmarket-4-3.jpg,311930,Hamlin Farmers Market,,,covid19@monroecounty.gov,585-964-2421,https://www.hamlinny.org/,,,,,,,"1658 Lake Road Hamlin, NY 14464",New York,Hamlin,1658 Lake Road,14464,-77.92085229386396,43.297729708037174,,
farmers market,"Mar 27th, 2023",default-farmersmarket-4-3.jpg,311931,Hancock Community Education Farmers' Market,,,,607-637-5262,,,,,,,,"11 East Main St., Great American Store lot Hancock, NY 13783",New York,Hancock,11 East Main St.,13783,-75.28183016571538,41.95499088339282,,
farmers market,"Mar 27th, 2023",default-farmersmarket-4-3.jpg,311932,Harlem Hospital Market,,,,,,,,,,,,"628-1 Lenox Ave, New York, New York 10037",New York,New York,628-1 Lenox Ave,10037,-73.93804201729431,40.8179471815375,,
farmers market,"Mar 27th, 2023",default-farmersmarket-4-3.jpg,311933,Harvest Home Jacobi Hospital Market,,,info@harvesthomefm.org,212-828-3361,http://www.harvesthomefm.org/home.aspx,https://www.facebook.com/pages/Harvest-Home-Farmers-Market/161578873903374,,,,,,"1400 Pelham Pkwy., Jacobi Hospital, Bronx, NY, 10461",New York,Bronx,1400 Pelham Pkwy.,10461,-73.84764005597361,40.857504184530946,,
farmers market,"Mar 27th, 2023",default-farmersmarket-4-3.jpg,311934,Harvest Home Murray Hill Farmers Market,,,info@harvesthomefm.org,212-828-3361,https://www.harvesthomefm.org/,https://www.facebook.com/HarvestHomeMkts/,,,,,,"8 West 126th Street New York, NY 10016",New York,New York,8 West 126th Street,10016,-73.94220407445611,40.80726756467693,,
farmers market,"Mar 27th, 2023",default-farmersmarket-4-3.jpg,311935,Harvest Home Youth Market,,,info@harvesthomefm.org,212-828-3361,https://www.harvesthomefm.org/,,,,,,,"70 E.129th St. New York, NY 10029",New York,New York,70 E.129th St.,10029,-73.93794075050664,40.80791584023381,,
farmers market,"Mar 27th, 2023",default-farmersmarket-4-3.jpg,311936,Herkimer Farmers Market,,,,,,,,,,,,"104 N Washington St, Herkimer, New York 13350",New York,Herkimer,104 N Washington St,13350,-74.98465563192579,43.026276382697134,,
farmers market,"Mar 27th, 2023",default-farmersmarket-4-3.jpg,311937,Herkimer/ Early Birds Farmers Market,,,,315-858-1025,,,,,,,,"105 N Caroline St. Herkimer, NY 13350",New York,Herkimer,105 N Caroline St.,13350,-74.99380444528329,43.02396390870819,,
farmers market,"Mar 27th, 2023",default-farmersmarket-4-3.jpg,311938,High School For Public Service Farmers Market,,,,,,,,,,,,"600 Kingston Ave, Brooklyn, New York 11203",New York,Brooklyn,600 Kingston Ave,11203,-73.94253470133724,40.6597115025419,,
farmers market,"Mar 27th, 2023",default-farmersmarket-4-3.jpg,311939,Highland Park Winter Farmers Market,,,,,http://highlandwintermarket.com,,,,,,,"249 Highland Ave. Rochester, NY 14620",New York,ROCHESTER,249 HIGHLAND AVE,14620,-77.60747797821564,43.12945679150854,,
farmers market,"Mar 27th, 2023",default-farmersmarket-4-3.jpg,311940,Hilltown Farmers' Market - Preston Hollow,,,,518-239-4039,https://www.jwgreenhouse.com/,,,,,,,"2958 Route 145 Preston Hollow, NY 12469",New York,Preston Hollow,2958 Route 145,12469,-74.20357516081363,42.43974314628095,,
farmers market,"Mar 27th, 2023",default-farmersmarket-4-3.jpg,311941,Hilltown Farmers' Market - Rensselaerville,,,,518-239-4039,,,,,,,,"26 County Route 353 Rensselaerville, NY 12147",New York,Rensselaerville,26 County Route 353,12147,-74.14365562820045,42.51141484671817,,
farmers market,"Mar 27th, 2023",default-farmersmarket-4-3.jpg,311942,Hilton Farmers Market,,,,,,,,,,,,"55 Hovey St. Hilton, NY 14468",New York,HILTON,55 HOVEY ST,14468,-77.79129615181738,43.28883672098462,,
farmers market,"Mar 27th, 2023",default-farmersmarket-4-3.jpg,311943,Holland Farmers Market,,,,716-537-9590,,,,,,,,"49 N. Main Street Holland, NY 14080",New York,Holland,49 N. Main Street,14080,-78.54303115693111,42.641815452626304,,
farmers market,"Mar 27th, 2023",default-farmersmarket-4-3.jpg,311944,Homer Farmers Market,,,,607-756-2814,,,,,,,,"53 South Main Street Homer, NY 13077",New York,Homer,53 South Main Street,13077,-76.17869233782311,42.63538995612541,,
farmers market,"Mar 27th, 2023",default-farmersmarket-4-3.jpg,311945,Hornell Farmers Market,,,hornellpartners@gmail.com,607-324-9786,https://www.hornellhpg.com/,,,,,,,"40 Main Street Hornell, NY 14843",New York,Hornell,40 Main Street,14843,-77.66316356791457,42.32819291581621,,
farmers market,"Mar 27th, 2023",default-farmersmarket-4-3.jpg,311946,Horseheads Farmers Market,,,,607-739-5691,https://www.horseheads.org/,,,,,,,"202 Main St. , Teal Park Horseheads, NY 14845",New York,Horseheads,202 Main St.,14845,-76.77634650599641,42.1831701769329,,
farmers market,"Mar 27th, 2023",default-farmersmarket-4-3.jpg,311947,Hudson Falls Farmers Market,,,,518-792-0198,,,,,,,,"1161 Dix Ave Hudson Falls, NY 12839",New York,Hudson Falls,1161 Dix Ave,12839,-73.58276492202482,43.31951649552195,,
farmers market,"Mar 27th, 2023",default-farmersmarket-4-3.jpg,311948,Hudson Valley Regional Farmers Market,,,,845-878-9078,http://www.hudsonvalleyfarmermarket.org,http://www.facebook.com/hvregionalfarmersmarket,,,,,,"15 Mt. Ebo Road South Brewster, NY 10509 Off of Route 22 to Doansburg Road. At the HVCPA Building and Grounds",New York,BREWSTER,15 MOUNT EBO RD S,10509,-73.57246914248311,41.435190844160836,,
farmers market,"Mar 27th, 2023",default-farmersmarket-4-3.jpg,311949,Huntington Village Farmers Market,,,,,,,,,,,,"228 Main St, Huntington, New York 11743",New York,Huntington,228 Main St,11743,-73.4246876631962,40.87156319527741,,
farmers market,"Mar 27th, 2023",default-farmersmarket-4-3.jpg,311950,Hyde Park Farmers Market,,,,,,,,,,,,"12 White Oaks Rd, Hyde Park, New York 12538",New York,Hyde Park,12 White Oaks Rd,12538,-73.9226244228781,41.78349405869819,,
farmers market,"Mar 27th, 2023",default-farmersmarket-4-3.jpg,311951,Ilion Farmers Market,,,,315-866-4660,,,,,,,,"437 Otsego St. Ilion, NY 13357",New York,Ilion,437 Otsego St.,13357,-75.04539802586469,43.002058203175636,,
farmers market,"Mar 27th, 2023",default-farmersmarket-4-3.jpg,311952,Inwood Greenmarket,,,,,,,,,,,,"620 Isham St, New York, New York 10034",New York,New York,620 Isham St,10034,-73.9203689660966,40.869068746809816,,
farmers market,"Mar 27th, 2023",default-farmersmarket-4-3.jpg,311953,Irondequoit Farmers Market,,,,,,,,,,,,"1280 Titus Ave, Irondequoit, New York 14617",New York,Irondequoit,1280 Titus Ave,14617,-77.58263051639183,43.211136849307096,,
farmers market,"Mar 27th, 2023",default-farmersmarket-4-3.jpg,311954,Ithaca Farmers Market (Saturday),,,info@ithacamarket.com,607-592-4060,https://www.ithacamarket.com/,,,,,,,"545 3rd Street on waterfront, Rt. 13 Ithaca, NY 14850",New York,Ithaca,545 3rd Street,14850,-76.50817160752592,42.449922422126946,,
farmers market,"Mar 27th, 2023",default-farmersmarket-4-3.jpg,311955,Jackson Heights Greenmarket,,,,,,,,,,,,"78-09 34th Ave, Jackson Heights, New York 11372",New York,Jackson Heights,78-09 34th Ave,11372,-73.88867875190445,40.75335435791281,,
farmers market,"Mar 27th, 2023",default-farmersmarket-4-3.jpg,311956,John Jay Homestead Farmers Market,,,,000-000-0000,https://www.johnjayhomestead.org/,https://www.facebook.com/John-Jay-Homestead-Farm-Market,,,,,,"400 Jay St Katonah, NY 10536",New York,Katonah,400 Jay St,10536,-73.66061483484454,41.24835882619902,,
farmers market,"Mar 27th, 2023",default-farmersmarket-4-3.jpg,311957,Johnson City Farmers Market,,,,607-692-7911,,,,,,,,"635 Harry L Drive, Oakdale Mall Johnson City, NY 13790",New York,Johnson City,635 Harry L Drive,13790,-75.97511310929258,42.12462802580417,,
farmers market,"Mar 27th, 2023",default-farmersmarket-4-3.jpg,311958,Johnstown Farmers' Market,,,,518-421-5355,,,,,,,,"55 E. Main Street Johnstown, NY 12095",New York,Johnstown,55 E. Main Street,12095,-74.36900733829044,43.00653248866886,,
farmers market,"Mar 27th, 2023",default-farmersmarket-4-3.jpg,311959,Joseph Addabbo Family Health Center's Farmers Market,,,,457-150-3332,,,,,,,,"6200 Beach Channel Drive Far Rockaway, NY 11692",New York,Far Rockaway,6200 Beach Channel Drive,11692,-73.79140925092472,40.58842766009844,,
farmers market,"Mar 27th, 2023",default-farmersmarket-4-3.jpg,311960,Katonah/Lewisboro Farmers' Market,,,,914-923-4837,https://www.communitymarkets.biz/,,,,,,,"60 N. Salem Road, Route 121 Cross River, NY 10518",New York,Cross River,60 N. Salem Road,10518,-73.61118998743952,41.27784509812902,,
farmers market,"Mar 27th, 2023",default-farmersmarket-4-3.jpg,311961,Kauneonga Lake Farmers Market,,,,845-985-2425,,,,,,,,"3586 State Road 55 Kauneonga Lake, NY 12749",New York,Kauneonga Lake,3586 State Road 55,12749,-74.83140799948308,41.68574098770448,,
farmers market,"Mar 27th, 2023",default-farmersmarket-4-3.jpg,311962,Keeseville Farmers' Market,,,underwoodherbs@gmail.com,518-293-7877,http://www.adirondackfarmersmarket.com/keeseville.html,,,,,,,"1698 Front St., Keeseville, NY, 12944",New York,Keeseville,1698 Front St.,12944,-73.48083732312595,44.503178959228535,,
farmers market,"Mar 27th, 2023",default-farmersmarket-4-3.jpg,311963,Kenmore Farmers' Market,,,,716-874-1784,,,,,,,,"2919 Delaware Avenue Buffalo, NY 14223",New York,Buffalo,2919 Delaware Avenue,14223,-78.87015604362048,42.96386790112419,,
farmers market,"Mar 27th, 2023",default-farmersmarket-4-3.jpg,311964,Kennedy Plaza Farmers' Market,,,info@longbeachny.gov,631-678-5227,https://www.longbeachny.org/,,,,,,,"1 West Chester Street Long Beach, NY 11561",New York,Long Beach,1 West Chester Street,11561,-73.665983931027,40.5893999304251,,
farmers market,"Mar 27th, 2023",default-farmersmarket-4-3.jpg,311965,Kingston Farmers Market,,,,,,,,,,,,"285 Wall St, Kingston, New York 12401",New York,Kingston,285 Wall St,12401,-74.01952118591899,41.93314684617169,,
farmers market,"Mar 27th, 2023",default-farmersmarket-4-3.jpg,311966,Kingston Winter Farmers' Market,,,info@kingstonfarmersmarket.org,845-853-8512,http://www.kingstonfarmersmarket.org,,,,,,,"272 Wall St., The Old Dutch Church , Kingston, NY, 12401",New York,Kingston,272 Wall St.,12401,-74.01946407562791,41.93298466059979,,
farmers market,"Mar 27th, 2023",default-farmersmarket-4-3.jpg,311967,"Kingston, New York Farmers' Market",,,,845-853-8512,http://www.kingstonfarmersmarket.org,,,,,,,"328 Wall Street Kingston, NY 12401",New York,KINGSTON,328 WALL ST,12401,-74.01979133163951,41.934257294792395,,
farmers market,"Mar 27th, 2023",default-farmersmarket-4-3.jpg,311968,Koo Koose Farmers Market,,,,607-467-2956,,,,,,,,"192 Front Street, Town Garage Pavilion Deposit, NY 13754",New York,Deposit,192 Front Street,13754,-75.42358304601599,42.06097650204982,,
farmers market,"Mar 27th, 2023",default-farmersmarket-4-3.jpg,311969,La Grange Farmers Market,,,,845-452-2911,,,,,,,,"1000 Route 55 Lagrangeville, NY 12540",New York,Lagrangeville,1000 Route 55,12540,-73.80775345436967,41.67210399152839,,
farmers market,"Mar 27th, 2023",default-farmersmarket-4-3.jpg,311970,Lake Placid Farmers Market,,,,518-834-7306,https://www.lakeplacidfarmersmarket.com/,,,,,,,"17 Algonquin Avenue Lake Placid, NY 12946",New York,Lake Placid,17 Algonquin Avenue,12946,-73.9999559040452,44.29166437270937,,
farmers market,"Mar 27th, 2023",default-farmersmarket-4-3.jpg,311971,Lakeville UCC Farmers Market,,,,,,,,,,,,"5687 Big Tree Rd, Orchard Park, New York 14127",New York,Orchard Park,5687 Big Tree Rd,14127,-78.77321121724685,42.76481190931356,,
farmers market,"Mar 27th, 2023",default-farmersmarket-4-3.jpg,311972,Lancaster Market,,,,716-481-2961,http://lancastervillagemarket.com,,,,,,,"11 W Main St Lancaster, NY 14086",New York,LANCASTER,11 W MAIN ST,14086,-78.67057585155818,42.90120768130221,,
farmers market,"Mar 27th, 2023",default-farmersmarket-4-3.jpg,311973,Lansing Farmers Market,,,,607-533-8896,,,,,,,,"29 Auburn Rd. (NYS Rt. 34) Lansing, NY 14882",New York,Lansing,29 Auburn Rd.,14882,-76.5034011998748,42.53805798219455,,
farmers market,"Mar 27th, 2023",default-farmersmarket-4-3.jpg,311974,"Lansing, NY Farmers' Market",,,,,http://www.lansingfarmersmarket.com/,http://www.facebook.com/LansingNYFarmersMarket,,,,,,"27-29 Auburn Rd. Lansing, NY 14882",New York,LANSING,27 AUBURN RD,14882,-76.5034011998748,42.53805798219455,,
farmers market,"Mar 27th, 2023",default-farmersmarket-4-3.jpg,311975,Lebanon Valley Farmers Market,,,,518-505-1535,,,,,,,,"36 Old Route 20 New Lebanon, NY 12125",New York,New Lebanon,36 Old Route 20,12125,-73.3811573799279,42.4734582467032,,
farmers market,"Mar 27th, 2023",default-farmersmarket-4-3.jpg,311976,Lewis County Gen Hospital Market,,,,315-376-5087,,,,,,,,"7785 N. State St. Lowville, NY 13367",New York,Lowville,7785 N. State St.,13367,-75.49813091082515,43.79577717263277,,
farmers market,"Mar 27th, 2023",default-farmersmarket-4-3.jpg,311977,Lima Presbyterian Church Farmers' Market,,,,585-582-1737,,,,,,,,"7295 W. Main St Lima, NY 14485",New York,Lima,7295 W. Main St,14485,-77.61205460560095,42.90484296484404,,
farmers market,"Mar 27th, 2023",default-farmersmarket-4-3.jpg,311978,Little Falls Farmers' & Flea Market,,,,315-866-2619,,,,,,,,"502 Albany Street Little Falls, NY 13365",New York,Little Falls,502 Albany Street,13365,-74.85610945652247,43.04369750177993,,
farmers market,"Mar 27th, 2023",default-farmersmarket-4-3.jpg,311979,"Little Falls Winter Farmers"""" Market",,,,,,http://www.facebook.com/LFWinterFarmersMarket,,,,,,"20 Albany Street Little Falls, NY 13365 Inside the Travelodge.",New York,LITTLE FALLS,20 ALBA ST,13365,-74.85797728036998,43.042963223855466,,
farmers market,"Mar 27th, 2023",default-farmersmarket-4-3.jpg,311980,Lockport Community Farmers Market,,,,,,,,,,,,"57 Canal St, Lockport, New York 14094",New York,Lockport,57 Canal St,14094,-78.69391294254969,43.17056736764342,,
farmers market,"Mar 27th, 2023",default-farmersmarket-4-3.jpg,311981,Lockport Community Winter Farmers Market,,,,,,,,,,,,"140 South St, Lockport, New York 14094",New York,Lockport,140 South St,14094,-78.68483276383621,43.16928307508507,,
farmers market,"Mar 27th, 2023",default-farmersmarket-4-3.jpg,311982,Locust Valley Farmers Market,,,,631-323-3653,,,,,,,,"114 Forest Avenue Locust Valley, NY 11560",New York,Locust Valley,114 Forest Avenue,11560,-73.60071360148292,40.87551514524564,,
farmers market,"Mar 27th, 2023",default-farmersmarket-4-3.jpg,311983,Lyme Community Center Farmers Market,,,,,,,,,,,,"12030 NY-12E, Chaumont, New York 13622",New York,Chaumont,12030 NY-12E,13622,-76.13110337851982,44.06761526550367,,
farmers market,"Mar 27th, 2023",default-farmersmarket-4-3.jpg,311984,Lyons Falls Farmers Market,,,,315-348-5167,,,,,,,,"6904 Laura Street Lyons Falls, NY 13368",New York,Lyons Falls,6904 Laura Street,13368,-75.35583714475624,43.614368504336504,,
farmers market,"Mar 27th, 2023",default-farmersmarket-4-3.jpg,311985,Lyons Farmers Market,,,,,,,,,,,,"32 Church St, Lyons, New York 14489",New York,Lyons,32 Church St,14489,-76.99358660074141,43.06371662397033,,
farmers market,"Mar 27th, 2023",default-farmersmarket-4-3.jpg,311986,Macedon Farmers Market,,,,585-377-3116,https://www.macedontown.net/,,,,,,,"32 Main Street Macedon, NY 14502",New York,Macedon,32 Main Street,14502,-77.30646663089529,43.066623183432874,,
farmers market,"Mar 27th, 2023",default-farmersmarket-4-3.jpg,311987,Mahopac Farmers Market,,,,000-000-0000,,,,,,,,"1085 Route 6 Mahopac, NY 10541",New York,Mahopac,1085 Route 6,10541,-73.71642001276341,41.397620636031235,,
farmers market,"Mar 27th, 2023",default-farmersmarket-4-3.jpg,311988,Main Street Farmers Market,,,,315-546-5471,,http://www.facebook.com/MainStreetFarmersMarket,,,,,,"1273 State Route 5 Elbridge, NY 13060",New York,ELBRIDGE,1273 STATE RTE 5,13060,-76.41605062713653,43.0383553452698,,
farmers market,"Mar 27th, 2023",default-farmersmarket-4-3.jpg,311989,Malone Farmers' Market,,,ovitt.kim@gmail.com,518-497-0083,https://www.adirondackfarmersmarket.com/,,,,,,,"29 Airport Road, Malone Airport Malone, NY 12953",New York,Malone,29 Airport Road,12953,-74.32775817430783,44.84790703850639,,
farmers market,"Mar 27th, 2023",default-farmersmarket-4-3.jpg,311990,Manlius Farmers' Market,,,listserv@civicplus.com,315-682-7887,https://www.manliusvillage.org/,,,,,,,"315 Fayette Street Manlius, NY 13104",New York,Manlius,315 Fayette Street,13104,-75.98329614398062,43.00491456613296,,
farmers market,"Mar 27th, 2023",default-farmersmarket-4-3.jpg,311991,Massena Farmers And Artisans Cooperative Market,,,,,,,,,,,,"105 Harte Haven Plz, Massena, New York 13662",New York,Massena,105 Harte Haven Plz,13662,-74.88086746588732,44.92070553907576,,
farmers market,"Mar 27th, 2023",default-farmersmarket-4-3.jpg,311992,Mendon Farmers' Market,,,info@mendonfarmersmkt.com,585-208-2933,http://www.mendonfarmersmkt.com/,https://www.facebook.com/pages/Mendon-Farmers-Market-NY/187873981233177,,,,,,"101 Mendon Ionia Rd., Mendon Fire Hall, Mendon , NY, 14506",New York,Mendon,101 Mendon Ionia Rd.,14506,-77.5034912278829,42.990335085835355,,
farmers market,"Mar 27th, 2023",default-farmersmarket-4-3.jpg,311993,Metropolitan Hospital Market,,,,,,,,,,,,"1 2nd Ave, New York, New York 10017",New York,New York,1 2nd Ave,10017,-73.99124377848271,40.72375345807646,,
farmers market,"Mar 27th, 2023",default-farmersmarket-4-3.jpg,311994,Mexico Farmers' Market,,,,315-963-0642,,,,,,,,"3284 Main Street, Firemen%27s Field Mexico, NY 13114",New York,Mexico,3284 Main Street,13114,-76.23029565233787,43.45959839673529,,
farmers market,"Mar 27th, 2023",default-farmersmarket-4-3.jpg,311995,Middleport Farmers' Market,,,,716-735-7425,,,,,,,,"81 Telegraph Road Middleport, NY 14105",New York,Middleport,81 Telegraph Road,14105,-78.48219344986235,43.205237323021954,,
farmers market,"Mar 27th, 2023",default-farmersmarket-4-3.jpg,311996,Milan Farmers Market 12571,,,,845-756-5350,http://milanfarmersmarket.com,http://www.facebook.com/MilanFarmersMarket,,,,,,"20 Wilcox Circle Red Hook, NY 12571",New York,RED HOOK,20 WILCOX CIR,12571,-73.76570552083334,41.954677721783604,,
farmers market,"Mar 27th, 2023",default-farmersmarket-4-3.jpg,311997,Milford Farmers & Craft Market,,,,,,,,,,,,"3909 NY-28, Milford, New York 13807",New York,Milford,3909 NY-28,13807,-74.95137453652502,42.5998750027002,,
farmers market,"Mar 27th, 2023",default-farmersmarket-4-3.jpg,311998,Millerton Farmers Market,,,,,,,,,,,,"6 Dutchess Ave, Millerton, New York 12546",New York,Millerton,6 Dutchess Ave,12546,-73.5093642940947,41.95546931723535,,
farmers market,"Mar 27th, 2023",default-farmersmarket-4-3.jpg,311999,Millerton Farmers Market - Winter Season,,,,,,,,,,,,"6 Dutchess Ave, Millerton, New York 12546",New York,Millerton,6 Dutchess Ave,12546,-73.5093642940947,41.95546931723535,,
farmers market,"Mar 27th, 2023",default-farmersmarket-4-3.jpg,312000,Mohawk Farmers Market,,,,315-866-1671,,,,,,,,"41 West Main St. Mohawk, NY 13407",New York,Mohawk,41 West Main St.,13407,-75.00716515191733,43.01092322182797,,
farmers market,"Mar 27th, 2023",default-farmersmarket-4-3.jpg,312001,Monday Neighborhood Farmers' Market,,,,315-788-1933,,,,,,,,"203 N. Hamilton Street Watertown, NY 13601",New York,WATERTOWN,203 HAMILTON ST N,13601,-75.89409766533075,43.97325961617334,,
farmers market,"Mar 27th, 2023",default-farmersmarket-4-3.jpg,312002,Monroe Village Farmers' Market,,,buylocal@monroevillage.org,585-750-1714,http://www.monroevillagefarmersmarket.org/,https://www.facebook.com/MonroeVillageFM,,,,,,"700 Monroe Ave., Rochester, NY, 14607",New York,Rochester,700 Monroe Ave.,14607,-77.58820080968674,43.14341102652064,,
farmers market,"Mar 27th, 2023",default-farmersmarket-4-3.jpg,312003,Montour Falls Farmers Market,,,,607-535-7489,http://MontourFallsFarmersMarket.com,http://www.facebook.com/MontourFallsFarmersMarket/,,,,,,"300 West Main Street Montour Falls, NY 14865 The market will be easy to find in the center of the village. Parking is available nearby in lots and on the street.",New York,MONTOUR FALLS,300 W MAIN ST,14865,-76.84815407892613,42.34613992012074,,
farmers market,"Mar 27th, 2023",default-farmersmarket-4-3.jpg,312004,Moravia Farmers Market,,,,315-497-8375,,,,,,,,"130 Main Street Moravia, NY 13118",New York,Moravia,130 Main Street,13118,-76.42141907264364,42.711338853243724,,
farmers market,"Mar 27th, 2023",default-farmersmarket-4-3.jpg,312005,Morgans Farm Market,,,,315-926-0910,http://www.morgansfarmmarket.com,http://www.facebook.com/pages/Morgans-Farm-Market/208849889153254,,,,,,"3821 Cory Corners Road Marion, NY 14505",New York,MARION,3821 CORY CORNERS RD,14505,-77.22150746304993,43.14254550688681,,
farmers market,"Mar 27th, 2023",default-farmersmarket-4-3.jpg,312006,Mount Morris Farmers Market,,,,585-658-4160,,http://www.facebook.com/mountmorrisfarmersmarket,,,,,,"103 Main St Mount Morris, NY 14510 Public parking on Main St. and in the parking lot next to us by the Police Station.",New York,MOUNT MORRIS,103 MAIN ST,14510,-77.87349101458923,42.72472690019028,,
farmers market,"Mar 27th, 2023",default-farmersmarket-4-3.jpg,312007,Mount Morris Village Farmers Market,,,,585-658-4160,,,,,,,,"30 E. State St. Mount Morris, NY 14510",New York,Mount Morris,30 E. State St.,14510,-77.87713261847831,42.72493367396944,,
farmers market,"Mar 27th, 2023",default-farmersmarket-4-3.jpg,312008,Mount Sinai Greenmarket,,,,,,,,,,,,"1425 Madison Ave, New York, New York 10029",New York,New York,1425 Madison Ave,10029,-73.95316325619548,40.78858315254098,,
farmers market,"Mar 27th, 2023",default-farmersmarket-4-3.jpg,312009,Mount Vernon Farmers Market,,,,914-519-8467,,,,,,,,"1 Roosevelt Sq Mount Vernon, NY 10550",New York,Mount Vernon,1 Roosevelt Sq,10550,-73.83737295609276,40.91272895408611,,
farmers market,"Mar 27th, 2023",default-farmersmarket-4-3.jpg,312010,Muscoot Farmers Market,,,info@muscootfarm.org,914-864-7283,https://www.muscootfarm.org/,,,,,,,"51 Route 100 Katonah, NY 10536",New York,Katonah,51 Route 100,10536,-73.75158700416584,41.24657468679243,,
farmers market,"Mar 27th, 2023",default-farmersmarket-4-3.jpg,312011,Myrtle Wycoff Greenmarket,,,,,https://www.grownyc.org/greenmarket/queens/myrtle-wyckoff,,,,,,,"325 Wyckoff Ave, Ridgewood, New York 11385",New York,Ridgewood,325 Wyckoff Ave,11385,-73.9115814279646,40.699829209155965,,
farmers market,"Mar 27th, 2023",default-farmersmarket-4-3.jpg,312012,Naples Natural Farmers' Market,,,,585-374-2584,,,,,,,,"197 N. Main Street Naples, NY 14512",New York,Naples,197 N. Main Street,14512,-77.39535725711859,42.62548702504639,,
farmers market,"Mar 27th, 2023",default-farmersmarket-4-3.jpg,312013,Neighborhood Farmers Market - Albany JCC,,,,518-793-2032,,,,,,,,"340 Whitehall Road Albany, NY 12208",New York,ALBANY,340 WHITEHALL RD,12208,-73.81043378124957,42.65062651138203,,
farmers market,"Mar 27th, 2023",default-farmersmarket-4-3.jpg,312014,Nesconset Farmers Market,,,bmartin@ligreenmarket.org,516-543-6033,https://www.ligreenmarket.org/,,,,,,,"127 Smithtown Boulevard Nesconset, NY 11767",New York,Nesconset,127 Smithtown Boulevard,11767,-73.16141510331272,40.83787630543058,,
farmers market,"Mar 27th, 2023",default-farmersmarket-4-3.jpg,312015,New Cassel Farmers Market,,,,515-414-2898,,,,,,,,"212 Garden St. Westbury, NY 11590",New York,Westbury,212 Garden St.,11590,-73.56766742597746,40.76213772383133,,
farmers market,"Mar 27th, 2023",default-farmersmarket-4-3.jpg,312016,New Paltz Farmers Market,,,,845-255-5995,https://www.newpaltzfarmersmarket.com/,,,,,,,"24 Main St. New Paltz, NY 12561",New York,New Paltz,24 Main St.,12561,-74.08797238863154,41.74713624053019,,
farmers market,"Mar 27th, 2023",default-farmersmarket-4-3.jpg,312017,New York Hall of Science Farmers' Market,,,,914-923-4837,https://www.communitymarkets.biz/,,,,,,,"47-01 111th Street Corona, NY 11368",New York,Corona,47-01 111th Street,11368,-73.85322233422767,40.746785643927986,,
farmers market,"Mar 27th, 2023",default-farmersmarket-4-3.jpg,312018,Newburgh/Healthy Orange Farmers' Market,,,,845-565-5559,,,,,,,,"130 Broadway Newburgh, NY 12551",New York,Newburgh,130 Broadway,12551,-74.01235865231294,41.50010387190576,,
farmers market,"Mar 27th, 2023",default-farmersmarket-4-3.jpg,312019,North Amherst/ BNHV Farmers Market/ Amherst Museum,,,,716-439-0870,,,,,,,,"30 Hi-Point Drive Lockport, NY 14094",New York,Lockport,30 Hi-Point Drive,14094,-78.67636723768132,43.16249851728179,,
farmers market,"Mar 27th, 2023",default-farmersmarket-4-3.jpg,312020,North Buffalo Farmers Market,,,,,http://www.northbuffalofarmersmarket.com/,http://www.facebook.com/NorthBuffaloFarmersMarket,,,,,,"780 Parkside Buffalo, NY 14216 https://www.google.com/maps/place/780+Parkside+Ave,+Buffalo,+NY+14216/@42.9521133,-78.8505071,17z/data=!3m1!4b1!4m5!3m4!1s0x89d36d5b411f040f:0x80f409ed3b1b9c62!8m2!3d42.",New York,BUFFALO,780 PARKSIDE AVE,14216,-78.84884303132792,42.95086788845887,,
farmers market,"Mar 27th, 2023",default-farmersmarket-4-3.jpg,312021,Northside Farmers' Market,,,,607-624-8686,,,,,,,,"435 State St. Binghamton, NY 13903",New York,Binghamton,435 State St.,13903,-75.90513129076928,42.10733687310049,,
farmers market,"Mar 27th, 2023",default-farmersmarket-4-3.jpg,312022,Northville Farmers Market,,,,518-863-4211,,,,,,,,"162 South Main St Northville, NY 12134",New York,Northville,162 South Main St,12134,-74.17157129955265,43.22520014349202,,
farmers market,"Mar 27th, 2023",default-farmersmarket-4-3.jpg,312023,NOTA Farmers Market,,,,,,,,,,,,"1080 East Ave, Rochester, New York 14607",New York,Rochester,1080 East Ave,14607,-77.57573448907034,43.150477307096764,,
farmers market,"Mar 27th, 2023",default-farmersmarket-4-3.jpg,312024,Oculus Plaza Greenmarket,,,,,,,,,,,,"185 Greenwich St, New York, New York 10006",New York,New York,185 Greenwich St,10006,-74.01331903923712,40.70857774068154,,
farmers market,"Mar 27th, 2023",default-farmersmarket-4-3.jpg,312025,Olde School Farmers Market,,,,518-358-0049,,,,,,,,"1259 Washington St. Brushton, NY 12916",New York,Brushton,1259 Washington St.,12916,-74.51429801871912,44.830070985391544,,
farmers market,"Mar 27th, 2023",default-farmersmarket-4-3.jpg,312026,Olean Center Mall Farmers Market,,,,716-372-7898,,,,,,,,"400 North Union St Olean, NY 14760",New York,Olean,400 North Union St,14760,-78.42990824863745,42.0825795545714,,
farmers market,"Mar 27th, 2023",default-farmersmarket-4-3.jpg,312027,Oneida County Public Market,,,,315-736-3394,http://oneidacountymarket.com,http://www.facebook.com/oneidacountymarket.com,,,,,,"321 Main Street Utica, NY 13501 Union Station is one block off Broad Street at 321 Main Street in the historic Bagg's Square neighborhood of downtown Utica, NY. Parking is in designated lots around U",New York,UTICA,321 MAIN ST,13501,-75.22381452221418,43.10389442516073,,
farmers market,"Mar 27th, 2023",default-farmersmarket-4-3.jpg,312028,Oneonta Farmers Market (Saturday),,,,607-437-0158,https://www.cadefarms.org/markets.htm,,,,,,,"202 Main Street (Route 7) Oneonta, NY 13820",New York,Oneonta,202 Main Street,13820,-75.0617591575394,42.45408894255463,,
farmers market,"Mar 27th, 2023",default-farmersmarket-4-3.jpg,312029,Ontario Orchards Farms and Farmers Market,,,,315-343-6328,https://www.ontarioorchards.com/,,,,,,,"7735 St. Rte. 104 Oswego, NY 13126",New York,Oswego,7735 St. Rte. 104,13126,-76.57871700355207,43.409718675440175,,
farmers market,"Mar 27th, 2023",default-farmersmarket-4-3.jpg,312030,Orleans County Farmers Market - Albion,,,,585-798-3986,,,,,,,,"320 West Ave Albion, NY 14411",New York,Albion,320 West Ave,14411,-78.20219196488267,43.2408435670376,,
farmers market,"Mar 27th, 2023",default-farmersmarket-4-3.jpg,312031,Otsiningo Park Farmers' Market,,,,607-692-7911,,,,,,,,"1 Bevier St Binghamton, NY 13905",New York,BINGHAMTON,1 BEVIER ST,13901,-75.90125715750408,42.118627022092674,,
farmers market,"Mar 27th, 2023",default-farmersmarket-4-3.jpg,312032,Owego Farmers Market,,,,,,,,,,,,"153 Main St, Owego, New York 13827",New York,Owego,153 Main St,13827,-76.26345201374468,42.103099710581716,,
farmers market,"Mar 27th, 2023",default-farmersmarket-4-3.jpg,312033,Palisades Winter Farmers Market,,,,,,,,,,,,"675 Oak Tree Rd, Palisades, New York 10964",New York,Palisades,675 Oak Tree Rd,10964,-73.91785000927064,41.0117588294075,,
farmers market,"Mar 27th, 2023",default-farmersmarket-4-3.jpg,312034,Palmyra Farmers' Market,,,townclerk@palmyrany.com,315-597-0011,https://www.palmyrany.com/,,,,,,,"131 E. Main Street Palmyra, NY 14522",New York,Palmyra,131 E. Main Street,14522,-77.232645589281,43.06358734195682,,
farmers market,"Mar 27th, 2023",default-farmersmarket-4-3.jpg,312035,Parker's Historic Cider Mill and Farmer's Market,,,,315-894-4660,,http://www.facebook.com/pages/Parkers-Historic-Cider-Mill-and-Farmers-Market/134224810019391,,,,,,"437 Otsego St Ilion, NY 13357",New York,ILION,437 OTSEGO ST,13357,-75.04539802586469,43.002058203175636,,
farmers market,"Mar 27th, 2023",default-farmersmarket-4-3.jpg,312036,Patchogue Farmers Market,,,,631-323-3653,,,,,,,,"225 East Main Street Patchogue, NY 11772",New York,Patchogue,225 East Main Street,11772,-73.00907811505884,40.76588080132649,,
farmers market,"Mar 27th, 2023",default-farmersmarket-4-3.jpg,312037,Peaceful Soul Farmers Market,,,,,,,,,,,,"11359 Southwestern Blvd, Irving, New York 14081",New York,Irving,11359 Southwestern Blvd,14081,-79.08777410092253,42.5749570516106,,
farmers market,"Mar 27th, 2023",default-farmersmarket-4-3.jpg,312038,Pearl River Farmers Market,,,,,,,,,,,,"8 N William St, Pearl River, New York 10965",New York,Pearl River,8 N William St,10965,-74.02037682721247,41.05934075552812,,
farmers market,"Mar 27th, 2023",default-farmersmarket-4-3.jpg,312039,Peekskill Farmers Market,,,,,,,,,,,,"1 Bank St, New York, New York 10014",New York,New York,1 Bank St,10014,-74.00151672546134,40.7371662226983,,
farmers market,"Mar 27th, 2023",default-farmersmarket-4-3.jpg,312040,Penfield Farmers' Market,,,,585-377-1982x224,http://www.grossmans.com,http://www.facebook.com/penfieldfarmersmarket/,,,,,,"1801 Fairport Nine Mile Point Rd. Penfield, NY 14526",New York,PENFIELD,1801 FAIRPORT NINE MILE POINT RD,14526,-77.43628336250701,43.14876916620559,,
farmers market,"Mar 27th, 2023",default-farmersmarket-4-3.jpg,312041,Pennings Orchard & Farm Market,,,,845-986-1059,,,,,,,,"161 S. Route 94 Warwick, NY 10990",New York,WARWICK,161 STATE RTE 94,10990,-74.3901085537658,41.236761320359165,,
farmers market,"Mar 27th, 2023",default-farmersmarket-4-3.jpg,312042,Philadelphia Farmers Market,,,,315-783-8640,https://www.phillyny.com/,,,,,,,"2 South Main St. Philadelphia, NY 13673",New York,Philadelphia,2 South Main St.,13673,-75.70772263286955,44.15665603793419,,
farmers market,"Mar 27th, 2023",default-farmersmarket-4-3.jpg,312043,Philmont Farmers' Market,,,info@pbinc.org,518-672-7556,https://www.pbinc.org/,,,,,,,"93 Main St., Albert Tripp Center parking lot, Philmont, NY 12565",New York,Philmont,93 Main St.,12565,-73.64988058817521,42.248975961307295,,
farmers market,"Mar 27th, 2023",default-farmersmarket-4-3.jpg,312044,Phoenicia Farmers Market,,,,,,,,,,,,"85 Main St, Phoenicia, New York 12464",New York,Phoenicia,85 Main St,12464,-74.31371738789088,42.08335494219446,,
farmers market,"Mar 27th, 2023",default-farmersmarket-4-3.jpg,312045,Pine Island Farmers Market,,,,845-258-4574,http://pineislandfarmersmarket.com,http://www.facebook.com/PIFMLLC,,,,,,"327-329 Glenwood Road Pine Island, NY 10990",New York,PINE ISLAND,327 GLENWOOD RD,10969,-74.47698828822065,41.27946555219895,,
farmers market,"Mar 27th, 2023",default-farmersmarket-4-3.jpg,312046,Pittsford Village Farmers Market,,,,315-760-4890,http://www.pittfordvillagefarmersmarket.org,http://www.facebook.com/pages/Pittsford-Village-Farmers-Market/736386309713056,,,,,,"10 North Main St. Pittsford, NY 14534 The market occupies both the lawn and pavement at the N Main St. entrance to the Pittsford Library parking lot. Parking is available across the street at Bank of",New York,PITTSFORD,10 N MAIN ST,14534,-77.51491638625649,43.09147257854924,,
farmers market,"Mar 27th, 2023",default-farmersmarket-4-3.jpg,312047,Pomonok Farmers Market,,,,718-591-6060,,,,,,,,"67-00 Kissena Blvd., Flushing Flushing, NY 11367",New York,Flushing,67-00 Kissena Blvd.,11367,-73.81470732990135,40.73695113505347,,
farmers market,"Mar 27th, 2023",default-farmersmarket-4-3.jpg,312048,Port Jefferson Farmers Market,,,,631-323-3653,,,,,,,,"102 W. Broadway, Parking lot next to Ferry Port Jefferson, NY 11777",New York,Port Jefferson,102 W. Broadway,11777,-73.0725720953912,40.94562375037678,,
farmers market,"Mar 27th, 2023",default-farmersmarket-4-3.jpg,312049,Port Jervis Farmers Market,,,,,,,,,,,,"1 Hammond St, Port Jervis, New York 12771",New York,Port Jervis,1 Hammond St,12771,-74.69072238501259,41.37428193655178,,
farmers market,"Mar 27th, 2023",default-farmersmarket-4-3.jpg,312050,Port Washington Farmers Market,,,GEE@grassrootsinfo.org,516-883-0887,https://www.grassrootsinfo.org/,,,,,,,"52 Main Street Port Washington, NY 11050",New York,Port Washington,52 Main Street,11050,-73.68718506333023,40.8307078745137,,
farmers market,"Mar 27th, 2023",default-farmersmarket-4-3.jpg,312051,Port Washington Organic Farmers Market,,,,,,,,,,,,"347 Main St, Port Washington, New York 11050",New York,Port Washington,347 Main St,11050,-73.70117860376752,40.83227714703051,,
farmers market,"Mar 27th, 2023",default-farmersmarket-4-3.jpg,312052,Potsdam Farmers Market,,,,,,,,,,,,"3 Riverside Dr, New York, New York 10023",New York,New York,3 Riverside Dr,10023,-73.98557883420489,40.7805342225485,,
farmers market,"Mar 27th, 2023",default-farmersmarket-4-3.jpg,312053,Potsdam Main Street Farmers' Market,,,,315-265-0585,,,,,,,,"1 Main Street Potsdam, NY 13676",New York,Potsdam,1 Main Street,13676,-74.98643258578682,44.668645389278296,,
farmers market,"Mar 27th, 2023",default-farmersmarket-4-3.jpg,312054,Prestwick Chase Farmers' Market,,,,518-584-7766,http://www.prestwickchasefarmersmarket.com,,,,,,,"100 Saratoga Boulevard Saratoga Springs, NY 12866",New York,SARATOGA SPGS,100 SARATOGA BLVD,12866,-73.81756838278305,43.094734666550536,,
farmers market,"Mar 27th, 2023",default-farmersmarket-4-3.jpg,312055,Pulaski Farmers' Market & Music in the Park,,,,,,,,,,,,"4847 N. Jefferson St Pulaski, NY 13142",New York,PULASKI,4847 JEFFERSON ST,13142,-76.12751571103117,43.56681559219194,,
farmers market,"Mar 27th, 2023",default-farmersmarket-4-3.jpg,312056,Putnam Valley Farmers Market,,,,000-000-0000,,,,,,,,"337 Peekskill Hollow Road Putnam Valley, NY 10579",New York,Putnam Valley,337 Peekskill Hollow Road,10579,-73.83559879577655,41.35708643327017,,
farmers market,"Mar 27th, 2023",default-farmersmarket-4-3.jpg,312057,Queens Botanical Garden Farmers' Market,,,,914-923-4837,https://www.communitymarkets.biz/,,,,,,,"43-50 Main Street Flushing, NY 11358",New York,Flushing,43-50 Main Street,11358,-73.82640759009273,40.75190913302386,,
farmers market,"Mar 27th, 2023",default-farmersmarket-4-3.jpg,312058,Queens Hospital Center Farmers Market,,,,718-883-4500,,,,,,,,"82-68 164th St. Jamaica, NY 11432",New York,Jamaica,82-68 164th St.,11432,-73.8035461733148,40.71769529001168,,
farmers market,"Mar 27th, 2023",default-farmersmarket-4-3.jpg,312059,Queensbury Farmers Market,,,,518-792-0438,,,,,,,,"23 Cronin Road Queensbury, NY 12804",New York,Queensbury,23 Cronin Road,12804,-73.64502512147021,43.337105422609454,,
farmers market,"Mar 27th, 2023",default-farmersmarket-4-3.jpg,312060,Ramapo Farmers Market,,,,845-262-1217,http://www.ramapoparks.org,http://www.facebook.com/townoframapofarmersmarket,,,,,,"920 Route 45 Pomona, NY 10970",New York,POMONA,920 STATE RTE 45,10970,-74.03194140050944,41.174059979837025,,
farmers market,"Mar 27th, 2023",default-farmersmarket-4-3.jpg,312061,Red Hook Village Farmers Market,,,,646-831-8311,http://redhookvillagefarmersmarket.com,http://www.facebook.com/Redhookvillagefarmers'market,,,,,,"7467 South Broadway at Prince Red Hook, NY 12571",New York,RED HOOK,7467 S BROADWAY,12571,-73.87656937228276,41.994014002964825,,
farmers market,"Mar 27th, 2023",default-farmersmarket-4-3.jpg,312062,Rhinebeck Farmers Market,,,,,,,,,,,,"61 E Market St, Rhinebeck, New York 12572",New York,Rhinebeck,61 E Market St,12572,-73.91015284673918,41.92701506212216,,
farmers market,"Mar 27th, 2023",default-farmersmarket-4-3.jpg,312063,Riverhead Farmers Market,,,,631-323-3653,,,,,,,,"431 E. Main Street Riverhead, NY 11901",New York,Riverhead,431 E. Main Street,11901,-72.65690318430966,40.91854294950431,,
farmers market,"Mar 27th, 2023",default-farmersmarket-4-3.jpg,312064,Rochester Public Market,,,pmarket@cityofrochester.gov,585-428-6907,http://www.cityofrochester.gov/publicmarket/,https://www.facebook.com/friendsoftherochesterpublicmarket,,,,,,"280 N. Union St. , Rochester, NY, 14609",New York,Rochester,280 N. Union St.,14609,-77.59212628760007,43.163625430019884,,
farmers market,"Mar 27th, 2023",default-farmersmarket-4-3.jpg,312065,Rockefeller Center Greenmarket,,,,,,,,,,,,"45 Rockefeller Plaza, New York, New York 10111",New York,New York,45 Rockefeller Plaza,10111,-73.9782920512956,40.75926519088919,,
farmers market,"Mar 27th, 2023",default-farmersmarket-4-3.jpg,312066,Rome Farmers Market,,,,315-339-7653,,,,,,,,"130 East Dominick Street Rome, NY 13440",New York,Rome,130 East Dominick Street,13440,-75.45934097465116,43.211606622121366,,
farmers market,"Mar 27th, 2023",default-farmersmarket-4-3.jpg,312067,Roosevelt Community Farmers Market,,,,516-378-8132,,,,,,,,"380 Nassau Rd. Roosevelt, NY 11575",New York,Roosevelt,380 Nassau Rd.,11575,-73.59160486686288,40.6822770460462,,
farmers market,"Mar 27th, 2023",default-farmersmarket-4-3.jpg,312068,Roslyn Farmers Market,,,,,,,,,,,,"500 Searingtown Rd, Roslyn, New York 11576",New York,Roslyn,500 Searingtown Rd,11576,-73.66860918634242,40.795645971537816,,
farmers market,"Mar 27th, 2023",default-farmersmarket-4-3.jpg,312069,Rouse Point Farmers Market,,,,,,,,,,,,"144 Lake St, Rouses Point, New York 12979",New York,Rouses Point,144 Lake St,12979,-73.3638490833088,44.99015456548118,,
farmers market,"Mar 27th, 2023",default-farmersmarket-4-3.jpg,312070,Route 22 Farmers Market,,,,,,,,,,,,"88 Quaker St, Granville, New York 12832",New York,Granville,88 Quaker St,12832,-73.26582768774499,43.39838566726864,,
farmers market,"Mar 27th, 2023",default-farmersmarket-4-3.jpg,312071,Saranac Farmers' Greenmarket,,,ovitt.kim@gmail.com,518-293-7849,https://www.adirondackfarmersmarket.com/,,,,,,,"3662 Route 3 Saranac, NY 12981",New York,Saranac,3662 Route 3,12981,-73.75146378446497,44.63978155582887,,
farmers market,"Mar 27th, 2023",default-farmersmarket-4-3.jpg,312072,Saratoga Farmers' Market - Clifton Park,,,info@yankeedistillers.com,518-695-3131,https://saratogafarmersmarket.org/,https://www.facebook.com/SaratogaFarmersMarket/,,,,,,"971 Route 146 Clifton Park, NY 12065",New York,Clifton Park,971 Route 146,12065,-73.80849122485041,42.8687397590076,,
farmers market,"Mar 27th, 2023",default-farmersmarket-4-3.jpg,312073,Sauder's Farmers Market,,,,315-568-2673,,,,,,,,"2146 River Road Seneca Falls, NY 13148",New York,Seneca Falls,2146 River Road,13148,-76.82266326445674,42.905499860502566,,
farmers market,"Mar 27th, 2023",default-farmersmarket-4-3.jpg,312074,Saw Mill Farmers Market,,,,000-000-0000,,,,,,,,"1 Larkin Plaza Yonkers, NY 10701",New York,Yonkers,1 Larkin Plaza,10701,-73.89907086598383,40.935419428236905,,
farmers market,"Mar 27th, 2023",default-farmersmarket-4-3.jpg,312075,Scarsdale Farmers Market,,,,,http://www.Facebook.com/ScarsdaleFarmersMarket,https://facebook.com/ScarsdaleFarmersMarket,,,,,,"1 Boniface Cir, Scarsdale, New York 10583",New York,Scarsdale,1 Boniface Cir,10583,-73.80687039574129,40.9891955262266,,
farmers market,"Mar 27th, 2023",default-farmersmarket-4-3.jpg,312076,Schenectady farmers Market Ellis Health Center,,,,518-386-2225,,,,,,,,"600 McClellan Street Schenectady, NY 12304",New York,SCHENECTADY,600 MCCLELLAN ST,12304,-73.91781553826611,42.80506664523552,,
farmers market,"Mar 27th, 2023",default-farmersmarket-4-3.jpg,312077,Schenectady Greenmarket,,,,,,,,,,,,"105 Jay St, Schenectady, New York 12305",New York,Schenectady,105 Jay St,12305,-73.9401882483477,42.81380118753227,,
farmers market,"Mar 27th, 2023",default-farmersmarket-4-3.jpg,312078,Schenectady Greenmarket - Winter,,,mail@schenectadygreenmarket.org,518-374-1956,https://www.schenectadygreenmarket.org/,,,,,,,"432 State Street Schenectady, NY 12305",New York,Schenectady,432 State Street,12305,-73.94163412585584,42.81265365868778,,
farmers market,"Mar 27th, 2023",default-farmersmarket-4-3.jpg,312079,Schoharie Country Music Festival Farmers Market (Saturday),,,,518-284-2609,https://www.nymusicfestival.com/,,,,,,,"100 Cherry Lane Cobleskill, NY 12043",New York,Cobleskill,100 Cherry Lane,12043,-74.48491398604189,42.68135840358726,,
farmers market,"Mar 27th, 2023",default-farmersmarket-4-3.jpg,312080,Schoharie County Festival Farmers' Market,,,crosslk@midtel.net,518-284-2609,http://upstatevacations.com/markets,https://www.facebook.com/festivalfarmersmarket,,,,,,"942 E. Main St., Cobleskill, NY, 12043",New York,Cobleskill,942 E. Main St.,12043,-74.4665343321601,42.680049174977675,,
farmers market,"Mar 27th, 2023",default-farmersmarket-4-3.jpg,312081,Scottsville Farmers Markets,,,,585-889-1817,http://scottsvilleicearena.com,,,,,,,"1800 Scottsville-Chili Rd. Scottsville, NY 14543",New York,SCOTTSVILLE,1800 -CHILI RD,14546,-77.77204146492177,43.03149289922711,,
farmers market,"Mar 27th, 2023",default-farmersmarket-4-3.jpg,312082,Shiloh Community Farmers' Market - Grand Opening,,,,,,,,,,,,"211 Merritt Ave Wyndanch, NY 11798",New York,WYANDANCH,211 MERRITT AVE,11798,-73.36668782539918,40.75299249868516,,
farmers market,"Mar 27th, 2023",default-farmersmarket-4-3.jpg,312083,Shinglekill Falls Farmers Market,,,,,,,,,,,,"500 Mountain Ave, Purling, New York 12470",New York,Purling,500 Mountain Ave,12470,-74.00770661368198,42.28442235751385,,
farmers market,"Mar 27th, 2023",default-farmersmarket-4-3.jpg,312084,Side Track Farmers Market,,,,,http://www.sidetrackfarmersmarket.org/,http://www.facebook.com/sidetrackfarmersmarket/,,,,,,"4975 State Route 31 Clay, NY 13041 Side Track Farmers Market in the heart of Historic Olde Clay provides a gathering place for local farmers, crafters and customers. The market site is located on the",New York,CLAY,4975 STATE RTE 31,13041,-76.17079680086115,43.18569796388321,,
farmers market,"Mar 27th, 2023",default-farmersmarket-4-3.jpg,312085,Sidney Farmers' Market,,,,607-865-6531,,,,,,,,"21 Liberty Street, Sidney Civic Center Sidney, NY 13838",New York,Sidney,21 Liberty Street,13838,-75.39042663733757,42.316247899183146,,
farmers market,"Mar 27th, 2023",default-farmersmarket-4-3.jpg,312086,Siler's Farm Market,,,,585-457-9712,,,,,,,,"1911 Rt 78 Java Center, NY 14082",New York,JAVA CENTER,1911 STATE RTE 78,14082,-78.35301782121918,42.649822981308624,,
farmers market,"Mar 27th, 2023",default-farmersmarket-4-3.jpg,312087,Skaneateles Farmers Market,,,,315-685-6427,,,,,,,,"97 State St. Skaneateles, NY 13152",New York,Skaneateles,97 State St.,13152,-76.4260346089937,42.95213072409597,,
farmers market,"Mar 27th, 2023",default-farmersmarket-4-3.jpg,312088,Skaneateles Greener Bean Farmers Market,,,,315-685-3473,,,,,,,,"40 Fennell Street Skaneateles, NY 13152",New York,Skaneateles,40 Fennell Street,13152,-76.43319989207441,42.948187585248704,,
farmers market,"Mar 27th, 2023",default-farmersmarket-4-3.jpg,312089,Sodus Farmers Market,,,,,,,,,,,,"58 W Main St, Sodus, New York 14551",New York,Sodus,58 W Main St,14551,-77.06594377846764,43.23612125801391,,
farmers market,"Mar 27th, 2023",default-farmersmarket-4-3.jpg,312090,South Village Farmers Market,,,,646-752-4954,,,,,,,,"6th Ave. at Carmine St. New York, NY 10014",New York,New York,6th Ave. at Carmine St.,10014,-74.00267535891862,40.730255650831445,,
farmers market,"Mar 27th, 2023",default-farmersmarket-4-3.jpg,312091,South Wedge Farmers' Market,,,info@swfm.org,585-210-9140,http://www.swfm.org/,https://www.facebook.com/pages/South-Wedge-Farmers-Market/105831529438313,,,,,,"151 Mt. Hope Ave., Rochester, NY, 14620",New York,Rochester,151 Mt. Hope Ave.,14620,-77.60968507857261,43.145477027569164,,
farmers market,"Mar 27th, 2023",default-farmersmarket-4-3.jpg,312092,Southern Tier Farmers Market,,,,716-942-3710,,,,,,,,"1900 Constitution Ave. Olean, NY 14760",New York,Olean,1900 Constitution Ave.,14760,-78.45224852122979,42.08308845974471,,
farmers market,"Mar 27th, 2023",default-farmersmarket-4-3.jpg,312093,Springville Farmers' Market,,,,716-560-0198,,,,,,,,"341 W. Main Street Springville, NY 14141",New York,Springville,341 W. Main Street,14141,-78.68014085444796,42.50904829600829,,
farmers market,"Mar 27th, 2023",default-farmersmarket-4-3.jpg,312094,St. George Greenmarket,,,,,,,,,,,,"35 Hyatt St, Staten Island, New York 10301",New York,Staten Island,35 Hyatt St,10301,-74.07726953227315,40.64187072611348,,
farmers market,"Mar 27th, 2023",default-farmersmarket-4-3.jpg,312095,St. John's Church Farmers Market,,,,914-033-9633,https://www.stjohnsgs.org/,,,,,,,"1 Hudson St Yonkers, NY 10701",New York,Yonkers,1 Hudson St,10701,-73.89872841526598,40.93324526598161,,
farmers market,"Mar 27th, 2023",default-farmersmarket-4-3.jpg,312096,St. Josephs Hospital Health Centers Mobile Market,,,,315-111-4485,,,,,,,,"206 Prospect Ave Syracuse, NY 14830",New York,Syracuse,206 Prospect Ave,14830,-76.1485136488697,43.054770777063304,,
farmers market,"Mar 27th, 2023",default-farmersmarket-4-3.jpg,312097,St. Vincent de Paul Church Farmers Market,,,,518-273-4384,,,,,,,,"900 Madison Avenue Albany, NY 12208",New York,ALBANY,900 MADISON AVE,12208,-73.78399864605754,42.661770844811535,,
farmers market,"Mar 27th, 2023",default-farmersmarket-4-3.jpg,312098,Staten Island Ferry Greenmarket,,,,,http://www.grownyc.org/siferrygreenmarket,,,,,,,"4 South Street, inside Whitehall Ferry Terminal Building, upper level New York, NY 10004",New York,BOWLING GREEN,4 SOUTH ST,10004,-74.01212856837083,40.701591454968,,
farmers market,"Mar 27th, 2023",default-farmersmarket-4-3.jpg,312099,Staten Island Mall Greenmarket,,,kpryor@greenmarket.grownyc.org,,http://www.grownyc.org/greenmarket/staten-island/si-mall,https://www.facebook.com/StatenIslandGreenmarkets,,,,,,"2559-2799 Richmond Ave., Staten Island, NY, 10314",New York,Staten Island,2559-2799 Richmond Ave.,10314,-74.16891445036816,40.583318397738424,,
farmers market,"Mar 27th, 2023",default-farmersmarket-4-3.jpg,312100,Stuyvesant Farmers' Market,,,,518-758-6474,https://stuyvesantfarmersmarket.org/,,,,,,,"55 Riverview St., Railroad Station Stuyvesant, NY 12173",New York,Stuyvesant,55 Riverview St.,12173,-73.78371112631113,42.389211875075105,,
farmers market,"Mar 27th, 2023",default-farmersmarket-4-3.jpg,312101,Suffolk Y JCC Farmers Market,,,bmartin@ligreenmarket.org,515-543-6033,https://www.ligreenmarket.org/,,,,,,,"74 Hauppauge Rd Commack, NY 11725",New York,Commack,74 Hauppauge Rd,11725,-73.30101765591388,40.82803339305015,,
farmers market,"Mar 27th, 2023",default-farmersmarket-4-3.jpg,312102,Sullivan Fresh Mobile Farmers Market at Wurtsboro,,,,,https://www.sullivancce.org/,,,,,,,"137 Sullivan St, Wurtsboro, New York 12790",New York,Wurtsboro,137 Sullivan St,12790,-74.4860748584934,41.57641817049679,,
farmers market,"Mar 27th, 2023",default-farmersmarket-4-3.jpg,312103,Sullivan Fresh Monticello Farmers Market,,,,,,,,,,,,"10 Jefferson St, Monticello, New York 12701",New York,Monticello,10 Jefferson St,12701,-74.6929343219572,41.656849665104446,,
farmers market,"Mar 27th, 2023",default-farmersmarket-4-3.jpg,312104,Sunday Putnam Market,,,,845-628-6133,http://tbsmahopac.org,,,,,,,"760 Route 6 Mahopac, NY 10541",New York,MAHOPAC,760 US HWY 6,10541,-73.72574485670864,41.3795328731283,,
farmers market,"Mar 27th, 2023",default-farmersmarket-4-3.jpg,312105,Sunset View Farmers Market,,,,,,,,,,,,"1618 Co Rte 15, Odessa, New York 14869",New York,Odessa,1618 Co Rte 15,14869,-76.7849304288818,42.31293224814282,,
farmers market,"Mar 27th, 2023",default-farmersmarket-4-3.jpg,312106,Syracuse Farm Fresh Mobile Market,,,,,,,,,,,,"500 W Newell St, Syracuse, New York 13205",New York,Syracuse,500 W Newell St,13205,-76.15356437075786,43.01683859826109,,
farmers market,"Mar 27th, 2023",default-farmersmarket-4-3.jpg,312107,The City of Poughkeepsie Water Front Farmers' Market,,,info@mhcm.org,845-473-1415,http://mhcm.org/visit/poughkeepsie-waterfront-market/,,,,,,,"75 N. Water St Poughkeepsie, NY 12603",New York,Poughkeepsie,75 N. Water St,12603,-73.93759952213946,41.71167635873667,,
farmers market,"Mar 27th, 2023",default-farmersmarket-4-3.jpg,312108,The Cross Roads Farm and Craft Market,,,,716-326-4857,https://www.thecrossroadsmarket.com/,,,,,,,"6017 Sherman Westfield Road Westfield, NY 14787",New York,Westfield,6017 Sherman Westfield Road,14787,-79.5957349881686,42.260911428669054,,
farmers market,"Mar 27th, 2023",default-farmersmarket-4-3.jpg,312109,The Emerald Pearl Artist Market,,,,,,,,,,,,"33 Maple Ave, Patchogue, New York 11772",New York,Patchogue,33 Maple Ave,11772,-73.0114842888767,40.767028697859885,,
farmers market,"Mar 27th, 2023",default-farmersmarket-4-3.jpg,312110,The Mall At Greece Ridge Farmers Market,,,,,,,,,,,,"271 Greece Ridge Center Dr, Rochester, New York 14626",New York,Rochester,271 Greece Ridge Center Dr,14626,-77.69610758204888,43.204756582049114,,
farmers market,"Mar 27th, 2023",default-farmersmarket-4-3.jpg,312111,The Windmill Farm & Craft Market,,,,,,,,,,,,"3900 NY-14A, Penn Yan, New York 14527",New York,Penn Yan,3900 NY-14A,14527,-77.03581350252199,42.57385063996826,,
farmers market,"Mar 27th, 2023",default-farmersmarket-4-3.jpg,312112,The Y Farmers Market,,,,607-622-7709,,,,,,,,"740 Main St Johnson City, NY 10901",New York,Johnson City,740 Main St,10901,-75.97705245871225,42.11635767202121,,
farmers market,"Mar 27th, 2023",default-farmersmarket-4-3.jpg,312113,TJ's Farmers' Market,,,,607-546-2405,,,,,,,,"6069 State Route 414 Hector, NY 14841",New York,Hector,6069 State Route 414,14841,-76.87514953091444,42.527208807099164,,
farmers market,"Mar 27th, 2023",default-farmersmarket-4-3.jpg,312114,Tompkins Square Greenmarket,,,,,,,,,,,,"111 Avenue A, New York, New York 10009",New York,New York,111 Avenue A,10009,-73.98350356241781,40.72610574033582,,
farmers market,"Mar 27th, 2023",default-farmersmarket-4-3.jpg,312115,Town of Conquest Farmers Market,,,,315-776-4539,,,,,,,,"1289 Fuller Rd Port Byron, NY 13140",New York,Port Byron,1289 Fuller Rd,13140,-76.65422304440216,43.122302095456796,,
farmers market,"Mar 27th, 2023",default-farmersmarket-4-3.jpg,312116,Town of Pendleton Farmers Market,,,,716-833-6258,https://www%2Cpendletonny.us/,,,,,,,"6570 Campbell Blvd Lockport, NY 14094",New York,Lockport,6570 Campbell Blvd,14094,-78.77293436048885,43.10112119343876,,
farmers market,"Mar 27th, 2023",default-farmersmarket-4-3.jpg,312117,Tribeca Greenmarket,,,,,,,,,,,,"315 Greenwich St, New York, New York 10013",New York,New York,315 Greenwich St,10013,-74.01081362171323,40.71697110906705,,
farmers market,"Mar 27th, 2023",default-farmersmarket-4-3.jpg,312118,Tucker Greenmarket,,,,,,,,,,,,"315 Greenwich St, New York, New York 10013",New York,New York,315 Greenwich St,10013,-74.01081362171323,40.71697110906705,,
farmers market,"Mar 27th, 2023",default-farmersmarket-4-3.jpg,312119,Unadilla Farmers Market,,,,607-369-2474,,,,,,,,"187 Main St. Unadilla, NY 13849",New York,Unadilla,187 Main St.,13849,-75.3163107477977,42.324833321222016,,
farmers market,"Mar 27th, 2023",default-farmersmarket-4-3.jpg,312120,Union Square Greenmarket,,,,,,,,,,,,"31 Union Square W, New York, New York 10003",New York,New York,31 Union Square W,10003,-73.9907215680188,40.73658422207169,,
farmers market,"Mar 27th, 2023",default-farmersmarket-4-3.jpg,312121,Valley Stream Farmers Market,,,,,,,,,,,,"123 W Merrick Rd, Valley Stream, New York 11580",New York,Valley Stream,123 W Merrick Rd,11580,-73.70357043066673,40.66635737211981,,
farmers market,"Mar 27th, 2023",default-farmersmarket-4-3.jpg,312122,Vestal Farmers Market,,,,607-798-0041,https://www.farmbroome.com/,,,,,,,"320 Vestal Pkwy Vestal, NY 13850",New York,Vestal,320 Vestal Pkwy,13850,-76.04696954434385,42.08776188754123,,
farmers market,"Mar 27th, 2023",default-farmersmarket-4-3.jpg,312123,Victor Farmers Market,,,,,,,,,,,,"60 E Main St, Victor, New York 14564",New York,Victor,60 E Main St,14564,-77.40831721519596,42.98219896477045,,
farmers market,"Mar 27th, 2023",default-farmersmarket-4-3.jpg,312124,Vienna Farmers Market,,,,315-886-6824,,http://www.facebook.com/ViennaFarmersMarket/,,,,,,"7812 State Route 13 Blossvale, NY 13308 Plenty of parking, wrap around driveway. Visible from road!",New York,BLOSSVALE,7812 STATE RTE 13,13308,-75.7019672722012,43.24127994276891,,
farmers market,"Mar 27th, 2023",default-farmersmarket-4-3.jpg,312125,Village Of Champlain Farmers Market,,,,,,,,,,,,"11104 US-9, Champlain, New York 12919",New York,Champlain,11104 US-9,12919,-73.44533473570053,44.98360366766924,,
farmers market,"Mar 27th, 2023",default-farmersmarket-4-3.jpg,312126,Village of Fredonia WINTER Farmers Market,,,,716-679-2302,,,,,,,,"9-11 Church St. Fredonia, NY 14063",New York,Fredonia,9-11 Church St.,14063,-79.33241837305806,42.44050158299115,,
farmers market,"Mar 27th, 2023",default-farmersmarket-4-3.jpg,312127,Village of Tuckahoe Farmers Market,,,TuckahoePRRC@tuckahoe-ny.com,914-221-2310,https://www.tuckahoe.com/,,,,,,,"65 Main Street Tuckahoe, NY 10707",New York,Tuckahoe,65 Main Street,10707,-73.82668956628805,40.949994278534525,,
farmers market,"Mar 27th, 2023",default-farmersmarket-4-3.jpg,312128,Virgil Farmers Market,,,,,,,,,,,,"1265 NY-392, Cortland, New York 13045",New York,Cortland,1265 NY-392,13045,-76.1914757766711,42.510676911514324,,
farmers market,"Mar 27th, 2023",default-farmersmarket-4-3.jpg,312129,Walton Farmers' Market,,,,,http://www.ccedelaware.org,https://facebook.com/WaltonFarmersMarket,,,,,,"2 Titus Pl, Walton, New York 13856",New York,Walton,2 Titus Pl,13856,-75.12851307870403,42.164481281025004,,
farmers market,"Mar 27th, 2023",default-farmersmarket-4-3.jpg,312130,Warrensburgh Riverfront Farmers Market,,,,,,,,,,,,"176 River St, Warrensburg, New York 12885",New York,Warrensburg,176 River St,12885,-73.77826761404359,43.48854117191472,,
farmers market,"Mar 27th, 2023",default-farmersmarket-4-3.jpg,312131,Waterford Harbor Farmers Market,,,,518-665-8344,https://www.waterfordmarket.org/,,,,,,,"1 Tugboat Alley Waterford, NY 12188",New York,Waterford,1 Tugboat Alley,12188,-73.67919664438743,42.78761650313106,,
farmers market,"Mar 27th, 2023",default-farmersmarket-4-3.jpg,312132,Waterloo Farmers' Market,,,,315-539-8834,,,,,,,,"365 E. Main St. Waterloo, NY 13165",New York,Waterloo,365 E. Main St.,13165,-76.84624689197119,42.901782398447985,,
farmers market,"Mar 27th, 2023",default-farmersmarket-4-3.jpg,312133,Watertown Mobile Farmers' Market - Curtis Apartments,,,,315-788-1933,,,,,,,,"336 W. Main Street Watertown, NY 13601",New York,Watertown,336 W. Main Street,13601,-75.94852601303943,43.998744512731236,,
farmers market,"Mar 27th, 2023",default-farmersmarket-4-3.jpg,312134,Watertown Mobile Farmers' Market - Leray Apartments,,,,315-788-1933,,,,,,,,"848 Leray Street Watertown, NY 13601",New York,Watertown,848 Leray Street,13601,-75.90901595582082,43.988221914205354,,
farmers market,"Mar 27th, 2023",default-farmersmarket-4-3.jpg,312135,Watertown Mobile Farmers' Market - Midtown Towers Housing,,,,315-788-1933,,,,,,,,"142 Mechanic Street, Midtown Towers Watertown, NY 13601",New York,Watertown,142 Mechanic Street,13601,-75.90380987668509,43.97397950679446,,
farmers market,"Mar 27th, 2023",default-farmersmarket-4-3.jpg,312136,Watertown Mobile Farmers' Market - North Country Children's Clinic,,,,315-788-1933,,,,,,,,"238 Arsenal St. Watertown, NY 13601",New York,Watertown,238 Arsenal St.,13601,-75.91539923357624,43.976149887236744,,
farmers market,"Mar 27th, 2023",default-farmersmarket-4-3.jpg,312137,Watertown Monday Neighborhood Farmers' Market,,,,315-788-1933,,,,,,,,"203 N. Hamilton Street Watertown, NY 13601",New York,Watertown,203 N. Hamilton Street,13601,-75.89409766533075,43.97325961617334,,
farmers market,"Mar 27th, 2023",default-farmersmarket-4-3.jpg,312138,Watertown Saturday Farmers Market,,,,,,,,,,,,"141 JB Wise Place, Watertown, New York 13601",New York,Watertown,141 JB Wise Place,13601,-75.90971021418346,43.975311497020904,,
farmers market,"Mar 27th, 2023",default-farmersmarket-4-3.jpg,312139,Watt Farms Country Market,,,,,,,,,,,,"3121 Oak Orchard Rd, Albion, New York 14411",New York,Albion,3121 Oak Orchard Rd,14411,-78.19283734954523,43.26644689960811,,
farmers market,"Mar 27th, 2023",default-farmersmarket-4-3.jpg,312140,Wayland Farmers Market,,,,,,,,,,,,"102 N Main St, Wayland, New York 14572",New York,Wayland,102 N Main St,14572,-77.59159242293497,42.56878671816631,,
farmers market,"Mar 27th, 2023",default-farmersmarket-4-3.jpg,312141,Weedsport Area Farmers Market,,,,315-834-2022,http://weedsportchamber.org/farmersmarket/,http://www.facebook.com/WeedsportAreaFarmersMarket/,,,,,,"2690 E. Brutus St. Weedsport, NY 13166 The market will be held in the Village municipal lot at the corner of Route 34 and E. Brutus Street. Parking is available off of Furnace Street, on Streets withi",New York,WEEDSPORT,2690 E BRUTUS ST,13166,-76.56201008621525,43.04864018320208,,
farmers market,"Mar 27th, 2023",default-farmersmarket-4-3.jpg,312142,Weeksville Farmers Market,,,,646-623-6751,,,,,,,,"1698 Bergen Street Brooklyn, NY 11223",New York,BROOKLYN,1698 BERGEN ST,11213,-73.92636001991741,40.674807083802285,,
farmers market,"Mar 27th, 2023",default-farmersmarket-4-3.jpg,312143,Wellsville Farmers Market,,,,585-610-0565,,,,,,,,"191 North Main Street Wellsville, NY 14895",New York,Wellsville,191 North Main Street,14895,-77.9500699905545,42.12304619614488,,
farmers market,"Mar 27th, 2023",default-farmersmarket-4-3.jpg,312144,West Point/Town of Highlands Farmers' Market,,,,845-446-2459,,,,,,,,"414 Main Street Highland Falls, NY 10928",New York,Highland Falls,414 Main Street,10928,-73.96406966731239,41.372977512640794,,
farmers market,"Mar 27th, 2023",default-farmersmarket-4-3.jpg,312145,Westhampton Beach Farmers Market,,,,631-288-3337,https://www.westhamptonbeachfarmersmarket.com/,https://www.facebook.com/pages/Westhampton-Beach-Farmers-Market/207498782600878,,,,,,"85 Mill Road Westhampton Beach, NY 11978",New York,Westhampton Beach,85 Mill Road,11978,-72.64289285918946,40.81194373020802,,
farmers market,"Mar 27th, 2023",default-farmersmarket-4-3.jpg,312146,Westside Farmers Market,,,,,,,,,,,,"831 Genesee St, Corfu, New York 14036",New York,Corfu,831 Genesee St,14036,-78.42439465707409,42.956483278632305,,
farmers market,"Mar 27th, 2023",default-farmersmarket-4-3.jpg,312147,White Plains International Farmers Market,,,,312-502-5603,,,,,,,,"255 Main Street White Plains, NY 10601",New York,White Plains,255 Main Street,10601,-73.76507456474839,41.03318810874806,,
farmers market,"Mar 27th, 2023",default-farmersmarket-4-3.jpg,312148,White Plains International Open Air Farmers Market,,,,914-422-1411,http://www.cityofwhiteplains.com,,,,,,,"255 Main Street White Plains, NY 10601",New York,WHITE PLAINS,255 MAIN ST,10601,-73.76507456474839,41.03318810874806,,
farmers market,"Mar 27th, 2023",default-farmersmarket-4-3.jpg,312149,Whitesboro Farmers Market,,,,315-600-2727,,,,,,,,"10 Moseley St. Whitesboro, NY 13492",New York,Whitesboro,10 Moseley St.,13492,-75.29388176859275,43.124989112285235,,
farmers market,"Mar 27th, 2023",default-farmersmarket-4-3.jpg,312150,Whitney Point Farmers Market,,,,607-692-7911,,,,,,,,"2887 Route 11 Whitney Point, NY 13862",New York,Whitney Point,2887 Route 11,13862,-75.97347947330704,42.33581093316102,,
farmers market,"Mar 27th, 2023",default-farmersmarket-4-3.jpg,312151,Winter Farmers Market at Circa Restaurant,,,,315-768-6558,https://www.circarestaurant.net/,,,,,,,"76 Albany St. Cazenovia, NY 13035",New York,Cazenovia,76 Albany St.,13035,-75.85316600016229,42.92987093554623,,
farmers market,"Mar 27th, 2023",default-farmersmarket-4-3.jpg,312152,Yonkers Down to Earth Market,,,,,http://www.downtoearthmarkets.com,,,,,,,"41 Dock St, Yonkers, New York 10701",New York,Yonkers,41 Dock St,10701,-73.90020758788842,40.93551879143914,,
farmers market,"Mar 27th, 2023",default-farmersmarket-4-3.jpg,312153,Yonkers/St. John's Church Farmers Market,,,,914-963-3033,,,,,,,,"1 Hudson Street, St. John%27s Church courtyard Yonkers, NY 10701",New York,Yonkers,1 Hudson Street,10701,-73.89872841526598,40.93324526598161,,
farmers market,"Mar 27th, 2023",default-farmersmarket-4-3.jpg,312154,Youthmarket-Flatbush Junction,,,ludvig@fellowfarmer.com,212-788-7900,https://grownyc.org/,,,,,,,"51 Chambers St. New York, NY 10007",New York,New York,51 Chambers St.,10007,-74.00556013851609,40.7138260552486,,
farmers market,"Nov 25th, 2022",default-farmersmarket-4-3.jpg,300292,Down to Earth Park Slope Farmers Market,,Down to Earth Markets,info@downtoearthmarkets.com,9149234837,PO Box 567,https://www.facebook.com/parkslopefarmersmarket/,https://twitter.com/DowntoEarthMkts,,,,,"4th Street at 5th Avenue, Park Slope, New York 11215",New York,Park Slope,4th Street at 5th Avenue,11215,-73.983867,40.672303,Year-round,"Fresh fruits, Fresh vegetables, Baked goods, Bedding plants, Canned or preserved fruits/vegetables, Coffee/tea, Cut flowers, Dairy products., Dry beans, Eggs, Fish/seafood, Fresh/dried herbs, Grains/flour, Honey, Juices/non-alcoholic ciders, Maple products, Mushrooms, Nuts, Poultry/fowl meat and products, Prepared foods, Red/other non-poultry meat and products, Soap/body care products, Tofu/non-animal protein, Wine, spirits, beer, hard cider"
farmers market,"Nov 28th, 2022",default-farmersmarket-4-3.jpg,300291,Down to Earth Chelsea Farmers Market,,Down to Earth Markets,info@downtoearthmarkets.com,9149234837,https://downtoearthmarkets.com/,https://www.facebook.com/chelseanycfarmersmarket,,https://www.instagram.com/chelseafarmersmarketnyc,,,https://downtoearthmarkets.tumblr.com/,"W. 23rd Street off 9th Avenue, New York, New York 10011",New York,New York,W. 23rd Street off 9th Avenue,10011,-74.000805,40.746359,May to December,"Fresh fruits, Fresh vegetables, Baked goods, Bedding plants, Canned or preserved fruits/vegetables, Coffee/tea, Cut flowers, Dairy products., Dry beans, Eggs, Fish/seafood, Fresh/dried herbs, Grains/flour, Honey, Juices/non-alcoholic ciders, Maple products, Mushrooms, Nuts, Poultry/fowl meat and products, Prepared foods, Red/other non-poultry meat and products, Tofu/non-animal protein, Wine, spirits, beer, hard cider"
farmers market,"Sep 11th, 2020",default-farmersmarket-4-3.jpg,301331,Elmwood Bidwell Farmers' Market,,Karen Vilonen,favilonen@gmail.com,17164183376,elmwoodmarket.org,ElmwoodBidwellFarmersMarket,,,,,,"Elmwood and Bidwell, Buffalo, New York 14221",New York,Buffalo,Elmwood and Bidwell,14221,-78.877625,42.923862,,"Fresh fruits, Fresh vegetables, Baked goods, Bedding plants, Coffee/tea, Cut flowers, Dairy products., Eggs, Fish/seafood, Honey, Maple products, Mushrooms, Nursery stock, Poultry/fowl meat and products, Red/other non-poultry meat and products, Soap/body care products, Wine, spirits, beer, hard cider"
farmers market,"Sep 9th, 2020",default-farmersmarket-4-3.jpg,301328,Canal Village Farmers' Market,,Gail Miller,canalvillagemarket@gmail.com,5857983904,,Canal Village Farmers' Market,,,,,,"127 West Center Street, Medina, New York 14103",New York,Medina,127 West Center Street,14103,-78.388368,43.220102,Year-round,"Fresh fruits, Fresh vegetables, Baked goods, Bedding plants, Canned or preserved fruits/vegetables, Crafts/woodworking items, Eggs, Fresh/dried herbs, Poultry/fowl meat and products, Prepared foods, Red/other non-poultry meat and products, Soap/body care products, Wine, spirits, beer, hard cider"
on-farm market,"Apr 14th, 2022",onfarmmarket_701584_12529_20220414160257.png,701584,Wrong Direction Farm,"Wrong Direction Farm delivers Certified Organic, Pasture Raised Chicken and Turkey, along with our Grass Fed Beef from our family farm directly to customers throughout the Northeast.",Dave Perozzi,info@wrongdirectionfarm.com,5185882633,wrongdirectionfarm.com,,,,,,,"431 Seebers Lane, Canajoharie, New York 13317",New York,Canajoharie,431 Seebers Lane,13317,-74.611932,42.899915,,
on-farm market,"Apr 20th, 2015",default-onfarmmarket-4-3.jpg,700642,Abbott Farms,,Warren Abbott,apples@abbottfarms.com,315-638-7783,abbottfarms.com,abbottfarmsny,,,,,,"3275 Cold Springs Road, Baldwinsville, New York 13027",New York,Baldwinsville,3275 Cold Springs Road,13027,-76.281483,43.144523,,
on-farm market,"Apr 25th, 2018",default-onfarmmarket-4-3.jpg,701450,Loon Lake Organics,,Joshua Cartwright,jcartwright579@yahoo.com,5859918777,,Loon Lake Organics,,,,,,"10569 County Route 92, Wayland, New York 14572",New York,Wayland,10569 County Route 92,14572,-77.569955,42.513065,,
on-farm market,"Aug 13th, 2014",default-onfarmmarket-4-3.jpg,700833,Dart's Tree Farm,,Kerry and Paula Dart,normdart@gmail.com,804-814-0017,,https://www.facebook.com/dartstreefarm,,,,,,"7745 Hill Road , Hubbardsville , New York 13355",New York,Hubbardsville,7745 Hill Road,13355,-75.483456,42.829149,,
on-farm market,"Aug 14th, 2014",default-onfarmmarket-4-3.jpg,700321,Gillie Brook Farm,,Gillie Brook Farm,Info@GillieFarms.com,315-672-3706,www.gilliefarms.com,,,,,,,"6147 Gillie Brook Road, Memphis, New York 13112",New York,Memphis,6147 Gillie Brook Road,13112,-76.352603,43.073066,,
on-farm market,"Aug 14th, 2014",default-onfarmmarket-4-3.jpg,700740,Critz Farms,,Juanita Critz,info@critzfarms.com,315-662-3355,www.critzfarms.com,https://www.facebook.com/pages/Critz-Farms,https://www.twitter.com/critzfarms,,,,,"3232 Rippleton Road, Cazenovia, New York 13035",New York,Cazenovia,3232 Rippleton Road,13035,-75.871351,42.876558,,
on-farm market,"Aug 22nd, 2014",default-onfarmmarket-4-3.jpg,700878,Loiacono Farm,,Ron Loiacono,rcloia@yahoo.com,3158225864,,,,,,,,"573 Meeting House Road, West Winfield, New York 13491",New York,West Winfield,573 Meeting House Road,13491,-75.165333,42.914275,,
on-farm market,"Aug 22nd, 2014",default-onfarmmarket-4-3.jpg,700880,Lee Farms,,Lee Farms,LeeFarmsKent@cs.com,585 682-3036,,https://www.facebook.com/Lee.Farms.Organic.Beef?ref=hl,,,,,,"1417 Sawyer Rd, Kent, New York 14477",New York,Kent,1417 Sawyer Rd,14477,-78.157673,43.3466830,,
on-farm market,"Aug 23rd, 2014",default-onfarmmarket-4-3.jpg,700907,Catskill Cattle Co. - Catskill Fresh Farmstand,,Lonny Schaefer,lizz@catskillcattle.com,6074675762,http://www.catskillfresh.com,http://www.facebook.com/catskillcattle.com,,,,,,"96 Laurel Bank Ave, Deposit, New York 13754",New York,Deposit,96 Laurel Bank Ave,13754,-75.407016,42.066716,,
on-farm market,"Aug 23rd, 2017",default-onfarmmarket-4-3.jpg,701425,Happy Hooves Organic Farm,,Della Jastrzab,FarmSerf@yahoo.com,3154874336,http://betterbeef4u.com/,https://www.facebook.com/HappyHoovesOrganicFarm/,,,,,,"13054 Ira Station rd, Martville, New York 13111",New York,Martville,13054 Ira Station rd,13111,-76.611156,43.251306,,
on-farm market,"Aug 26th, 2014",default-onfarmmarket-4-3.jpg,700108,Lowland Farm,,Jason Friedman,wbrown50@verizon.net,9175667106,www.lowlandfarm.com/,https://www.facebook.com/lowlandfarm,,,,,,"68 Prices Switch Road, Warwick, New York 10990",New York,Warwick,68 Prices Switch Road,10990,-74.460853,41.260494,,
on-farm market,"Aug 26th, 2014",default-onfarmmarket-4-3.jpg,700223,Stonebeck Farm,,Melissa and Lance Sayward,stonebeckfarm@gmail.com,518-643-8530,http://stonebeckfarm.blogspot.com/,https://www.facebook.com/pages/Stonebeck-Farm/203077556515064,,,,,http://stonebeckfarm.blogspot.com/,"143 Strackville Road, Schuyler Falls, New York 12985",New York,Schuyler Falls,143 Strackville Road,12985,-73.688769,44.5976053,,
on-farm market,"Aug 26th, 2014",default-onfarmmarket-4-3.jpg,700948,The Orchards Of Concklin,,Lauren Sharp,concklins@aol.com,845-354-0369,http://theorchardsofconcklin.com,https://www.facebook.com/pages/The-Orchards-of-Concklin/111163468897423,,,,,,"2 So. Mountain Rd , Pomona, New York 10970",New York,Pomona,2 So. Mountain Rd,10970,-74.032045,41.1786064,,
on-farm market,"Aug 28th, 2014",default-onfarmmarket-4-3.jpg,700971,Kingston YMCA Farm Project,,KayCee Wimbish,kaycee.wimbish@gmail.com,845.338.3810,kingstonymcafarmproject.org,https://www.facebook.com/KingstonYMCAFarmProject,,,,,,"507 Broadway, Kingston, New York 12401",New York,Kingston,507 Broadway,12401,-74.001235,41.9276140,,
on-farm market,"Aug 4th, 2014",default-onfarmmarket-4-3.jpg,700073,Scarecrow Farm,,Peter and Virginia Ambrose,info@scarecrowfarmny.com,518-821-2453,www.scarecrowfarmny.com,https://www.facebook.com/pages/Scarecrow-Farm,,,,,,"29 Old Barrington Road, Hollowville, New York 12530",New York,Hollowville,29 Old Barrington Road,12530,-73.660002,42.215512,,
on-farm market,"Aug 5th, 2020",default-onfarmmarket-4-3.jpg,701544,Brookby Farm,,Jaime Vincent,brookbyfarmstore@gmail.com,8458323859,https://www.brookbyfarm.com/,https://www.facebook.com/BrookbyFarm/,,,,,,"62 Dover Furnace Rd, Dover Plains, New York 12522",New York,Dover Plains,62 Dover Furnace Rd,12522,-73.579068,41.684239,,
on-farm market,"Dec 11th, 2019",default-onfarmmarket-4-3.jpg,701492,Brighton Honey,,Edward Graham,ward@brightonhoney.com,585-758-1060,https://www.brightonhoney.com/,https://www.facebook.com/brightonhoney,https://twitter.com/brightonhoney,,,,https://www.brightonhoney.com/blog/,"106 Norman Rd, Rochester, New York 14623",New York,Rochester,106 Norman Rd,14623,-77.639933,43.112030,,
on-farm market,"Dec 9th, 2015",default-onfarmmarket-4-3.jpg,701307,Hilltop Hanover Farm & Environmental Center,,Lucille Munz,Lucille@hilltophanoverfarm.org,9149622368,www.hilltophanoverfarm.org,https://www.facebook.com/hilltophanoverfarm/,https://twitter.com/friendsofhhfarm,,,,,"1271 Hanover Street, Yorktown Heights, New York 10598",New York,Yorktown Heights,1271 Hanover Street,10598,-73.774207,41.252254,,
on-farm market,"Feb 13th, 2016",default-onfarmmarket-4-3.jpg,701316,Creekside Market,,alan butzer,butzeralan@gmail.com,716-548-1863,http://www.creeksideproduce.com/,https://www.facebook.com/CreeksideMarketCollins/?ref=aymt_homepage_panel,,,,,,"13971 route 62, collins, New York 14034",New York,collins,13971 route 62,14034,-78.928479,42.4986310,,
on-farm market,"Feb 23rd, 2021",default-onfarmmarket-4-3.jpg,701588,Cedar Swamp Homestead,,Sheryl Davis,sheryldavis55@gmail.com,518-669-7015,cedarswamphomestead.com,www.facebook.com/cedarswamphomestead,,,,,,"3013 Hardscrabble Rd, Erieville, New York 13061",New York,Erieville,3013 Hardscrabble Rd,13061,-75.796473,42.882918,,
on-farm market,"Feb 3rd, 2015",default-onfarmmarket-4-3.jpg,701204,Steamy Farms,,Amy Farrand,SteamyFarms@yahoo.com,607-458-5505,,facebook.com/SteamyFarms,,,,,,"County Route 100, Woodhull, New York 14898",New York,Woodhull,County Route 100,14898,-77.408089,42.038941,,
on-farm market,"Feb 8th, 2017",default-onfarmmarket-4-3.jpg,701389,Olde Silo Farm,,Debra Tucker,oldesilofarm1@gmail.com,585-346-2813,,oldesilofarm1@gmail.com,,,,,,"5486 South Livonia Road, Conesus Lake , New York 14435",New York,Conesus Lake,5486 South Livonia Road,14435,-77.672284,42.754630,,
on-farm market,"Jan 7th, 2022",default-onfarmmarket-4-3.jpg,701625,"Hudson Valley Farmer's Market, LLC",,Norman Greig,greigfarm@gmail.com,8457588007,greigfarm.com,Greig Farm,,,,,,"227 Pitcher Lane, Red Hook, New York 12571",New York,Red Hook,227 Pitcher Lane,12571,-73.853029,42.028543,,
on-farm market,"Jul 17th, 2016",default-onfarmmarket-4-3.jpg,701361,Arnold's Farm Fresh Produce,,Jason Arnold,Jla244@cornell.edu,518-269-9562,www.arnoldsproduce.com,,,,,,,"1319 Sacandaga Rd, West Charlton, New York 12010",New York,West Charlton,1319 Sacandaga Rd,12010,-74.029509,42.971771,,
on-farm market,"Jul 21st, 2020",default-onfarmmarket-4-3.jpg,701537,AMERICAN INDIAN Gray's Homestead Farm,,Francine Gray,francinemgray@gmail.com,315-514-4164,,https://www.facebook.com/grayshomesteadfarm/,,,,,,"1109 Drum Street, Hogansburg, New York 13655",New York,Hogansburg,1109 Drum Street,13655,-74.593024,44.988345,,
on-farm market,"Jul 24th, 2014",default-onfarmmarket-4-3.jpg,700313,The Meadows Farm,,Richard Woodard,info@meadowsfarmmarket.com,914-962-4306,Meadowsfarmmarket.com,,,,,,,"329 Underhill Ave, Yorktown Heights, New York 10598",New York,Yorktown Heights,329 Underhill Ave,10598,-73.780818,41.268860,,
on-farm market,"Jul 26th, 2014",default-onfarmmarket-4-3.jpg,700037,Shelterbelt Farm,,Erica Frenay,info@shelterbeltfarm.com,607-342-3771,http://www.shelterbeltfarm.com,https://www.facebook.com/ShelterbeltFarm,,,,,,"200 Creamery Road, Brooktondale, New York 14817",New York,Brooktondale,200 Creamery Road,14817,-76.352390,42.380125,,
on-farm market,"Jul 26th, 2014",default-onfarmmarket-4-3.jpg,700480,Candellas Farm,,Michael C Candella,smpapale@roadrunner.com,315-736-8782,www.candellasfarm.com,https://www.facebook.com/pages/Candellas-Farm-Marcy-You-Pick-Strawberries/110272999063769,,,,,,"9256 River Road, Marcy, New York 13403",New York,Marcy,9256 River Road,13403,-75.275666,43.1382071,,
on-farm market,"Jul 27th, 2014",default-onfarmmarket-4-3.jpg,700110,Lockwood Lavender Farm,,Karen Wheeler,lockwoodfarm@aol.com,315-685-5369,,https://www.facebook.com/lockwoodlavenderfarm,,,,,www.lockwoodfarm.blogspot.com,"1682 West Lake Road, Skaneateles, New York 13152",New York,Skaneateles,1682 West Lake Road,13152,-76.393362,42.853001,,
on-farm market,"Jul 27th, 2014",default-onfarmmarket-4-3.jpg,700152,Dakota Ridge Farm,,Katrina Capasso,llamawhisp@aol.com,518-885-0756,www.dakotaridgefarm.com,https://www.facebook.com/DakotaRidgeFarm,https://twitter.com/DakotaRidgeFarm,,,,,"189 East High Street, Ballston Spa, New York 12020",New York,Ballston Spa,189 East High Street,12020,-73.832763,43.002172,,
on-farm market,"Jul 27th, 2014",default-onfarmmarket-4-3.jpg,700277,Teasel Meadow Farms,,Kerry Hollier,Kerry@teaselmeadowfarms.com,315-383-0432,www.teaselmeadowfarms.com,https://www.facebook.com/pages/Teasel-Meadow-Farms/246518425811,,,,,,"11205 west Shelby Rd, Medina, New York 14103",New York,Medina,11205 west Shelby Rd,14103,-78.397814,43.1652420,,
on-farm market,"Jul 27th, 2014",default-onfarmmarket-4-3.jpg,700303,Sprout Creek Farm,,Audrey Aponte,cheese@sproutcreekfarm.org,845-485-9885,www.sproutcreekfarm.org,www.facebook.com/sproutcreekfarm,www.twitter.com/sproutcreekfarm,,,,http://sproutcreekfarm.tumblr.com/,"34 Lauer Road, Poughkeepsie, New York 12603",New York,Poughkeepsie,34 Lauer Road,12603,-73.814800,41.6598912,,
on-farm market,"Jul 27th, 2014",default-onfarmmarket-4-3.jpg,700765,Halls Hill Blueberry Farm,,Jeffrey Hall,hallshill@clearwire.net,(607) 753-0712,www.hallshillblueberryfarm.com,,,,,,,"2110 Tower Road, Cortland, New York 13045",New York,Cortland,2110 Tower Road,13045,-76.137209,42.554060,,
on-farm market,"Jul 28th, 2014",default-onfarmmarket-4-3.jpg,700011,Walbridge Farm Market,,Douglas and Cheryl Giles,walbridgemarket@optimum.net,845-677-6221,walbridgefarm.com,https://www.facebook.com/walbridgefarmmarket,,,,,,"538 Route 343, Millbrook, New York 12545",New York,Millbrook,538 Route 343,12545,-73.651539,41.775037,,
on-farm market,"Jul 28th, 2014",default-onfarmmarket-4-3.jpg,700202,Cowbella Creamery at Danforth Jersey Farm,,Shannon Mason,whollycowbella@hotmail.com,607-652-2814,www.cowbella.com,https://www.facebook.com/cowbella,,,,,,"Danforth Jersey Farm, 157 Danforth Road, Jefferson, New York 12093",New York,Jefferson,"Danforth Jersey Farm, 157 Danforth Road",12093,-74.570721,42.4952520,,
on-farm market,"Jul 28th, 2014",default-onfarmmarket-4-3.jpg,700395,Brick House Acres - Greenhouse & Berry Farm,,Alyssa Davis,BrickHouseAcres@inbox.com,315-737-5635,,,,,,,,"10628 Roberts Road, Frankfort, New York 13340",New York,Frankfort,10628 Roberts Road,13340,-75.192754,43.00074,,
on-farm market,"Jul 28th, 2014",default-onfarmmarket-4-3.jpg,700412,Annies Garlic,,Anne Clark,anniesgarlic@yahoo.com,315-386-3366,www.anniesgarlic.com,www.facebook.com/anniesgarlic,,,,,,"273 Morrill Rd, Canton, New York 13617",New York,Canton,273 Morrill Rd,13617,-75.044278,44.555825,,
on-farm market,"Jul 2nd, 2019",default-onfarmmarket-4-3.jpg,701485,East Meadow Farm - CCE of Nassau County,,Nella Stranieri,ns893@cornell.edu,5165655265,http://ccenassau.org/,https://www.facebook.com/EastMeadowFarmStand/,,,,,,"832 Merrick Ave, East Meadow, New York 11554",New York,East Meadow,832 Merrick Ave,11554,-73.567670,40.700695,,
on-farm market,"Jul 30th, 2014",default-onfarmmarket-4-3.jpg,700139,Full Moon Farm,,Paul Colucci,pec4ljw@gmail.com,845-255-5602,http://www.fullmoonfarmny.com/,https://www.facebook.com/fullmoonfarmny,,,,,,"54 Steves Lane, Gardiner, New York 12525",New York,Gardiner,54 Steves Lane,12525,-74.150286,41.6953480,,
on-farm market,"Jul 30th, 2014",default-onfarmmarket-4-3.jpg,700374,Dashing Star Farm,,Lynn Mordas,dashingstarfarmer@gmail.com,518-789-4576,dashingstarfarm.com,https://www.facebook.com/dashingstarfarm,,,,,,"157 Indian Lake Road, Millerton, New York 12546",New York,Millerton,157 Indian Lake Road,12546,-73.517753,41.9143410,,
on-farm market,"Jul 30th, 2014",default-onfarmmarket-4-3.jpg,700654,Navarino Orchard,,Teresa Sicignano,navarino_orchard@yahoo.com,315 673-9181,navarinoorchard.com,https://www.facebook.com/pages/Navarino-Orchard/94081824018,,,,,,"3655 Cherry Valley Tpk. (rt.20), Syracuse, New York 13215",New York,Syracuse,3655 Cherry Valley Tpk. (rt.20),13215,-76.236325,42.986208,,
on-farm market,"Jul 30th, 2014",default-onfarmmarket-4-3.jpg,700755,Heywoodss Blueberries,,Al Heywood,heywoodsblueberries@yahoo.com,315-831-8096,heywoodsblueberries.com,https://www.facebook.com/pages/Heywoods-Blueberries/269549785195?sk=timeline,,,,,,"9947 Evans Road, Remsen, New York 13438",New York,Remsen,9947 Evans Road,13438,-75.220813,43.3457168,,
on-farm market,"Jul 31st, 2014",default-onfarmmarket-4-3.jpg,700054,Reeves Farms,,Brian Reeves,info@reevesfarms.com,315-635-3357,www.reevesfarms.com,https://www.facebook.com/reevesfarmsllc,,,,,,"1220 W. Genesee Road, Baldwinsville, New York 13027",New York,Baldwinsville,1220 W. Genesee Road,13027,-76.415148,43.165342,,
on-farm market,"Jul 5th, 2016",default-onfarmmarket-4-3.jpg,701346,Apple Bin Farm Market,,Loretta Scaturro,PScaturro@hvc.rr.com,8455327421,www.theapplebinfarmmarket.com,Apple Bun Farm Market,,,,,,"810 Broadway Rt. 9W, Ulster Park, New York 12487",New York,Ulster Park,810 Broadway Rt. 9W,12487,-73.969526,41.8467297,,
on-farm market,"Jul 6th, 2016",default-onfarmmarket-4-3.jpg,701348,Rivermede Farm Market,,Robert Hastings,rivermede1@aol.com,518 576 2021,rivermedefarm.com,,,,,,,"1925 Rt. 73, Keene Valley, New York 12943",New York,Keene Valley,1925 Rt. 73,12943,-73.786625,44.199360,,
on-farm market,"Jul 6th, 2016",default-onfarmmarket-4-3.jpg,701350,Dressel Farms,,Sarah Dressel,sarah@dresselfarms.com,8452550693,http://www.dresselfarms.com/,https://www.facebook.com/dresselfarms/,,,,,,"271 State Route 208, New Paltz, New York 12561",New York,New Paltz,271 State Route 208,12561,-74.111172,41.7146100,,
on-farm market,"Jul 6th, 2016",default-onfarmmarket-4-3.jpg,701351,The Apple Shed,,Jessica Wells,jessica@theappleshed.com,315-331-6294,www.theappleshed.com,www.facebook.com/theappleshed,www.twitter.com/theappleshed.com,,,,,"3391 Fairville Maple Ridge Rd., Newark, New York 14513",New York,Newark,3391 Fairville Maple Ridge Rd.,14513,-77.097955,43.1292743,,
on-farm market,"Jun 1st, 2015",default-onfarmmarket-4-3.jpg,701268,Stoneyridge Orchard & Winery LLC,,Stoneyridge Orchard & Winery LLC,sales@stoneyridgeorchard.com,6077969842,www.stoneyridgeorchard.com,stoneyridgeorchard,,,,,,"160 Bixby rd, Erin, New York 14838",New York,Erin,160 Bixby rd,14838,-76.668529,42.1597360,,
on-farm market,"Jun 23rd, 2022",onfarmmarket_700083_13952_20220623200704.png,700083,Bellinger's Orchard,"Our 300 acre farm offers PYO sweet & tart cherries, apples (over 50 varieties!), peaches, nectarines, pears, plums, pumpkins, and a challenging 5-acre corn maze! Our new farm stand offers local fruits and vegetables, local honey, jams, fresh sweet cider, fudge, an on-site bakery,  gifts by local artisans, and more.",Linda Coyne,info@bellingersorchard.com,518-922-8558,www.bellingersorchard.com,https://www.facebook.com/pages/Bellingers-Orchard/117953028227463,https://twitter.com/Bellingersapple,https://www.instagram.com/bellingersorchard/,,,,"685 Argersinger Rd, Fultonviille, New York 12072",New York,Fultonviille,685 Argersinger Rd,12072,-74.393467,42.902931,September to November,"Fresh fruits, Fresh vegetables, Baked goods, Canned or preserved fruits/vegetables, Crafts/woodworking items, Cut flowers, Dairy products., Honey, Juices/non-alcoholic ciders, Maple products, Soap/body care products"
on-farm market,"Mar 19th, 2015",default-onfarmmarket-4-3.jpg,701093,Librock Beef,,Judy Librock,librock5288@aol.com,716-772-7723,www.librockbeef.com,https://www.facebook.com/pages/Librock-Beef/356668141060191,,,,,,"5288 Gasport Rd, Gasport, New York 14067",New York,Gasport,5288 Gasport Rd,14067,-78.577800,43.1564310,,
on-farm market,"Mar 19th, 2015",default-onfarmmarket-4-3.jpg,701144,The Lucky Dog Farm Store and Cafe,,Amber Gray,info@luckydogorganic.com,607 746 8383,http://www.luckydogorganic.com/,https://www.facebook.com/Lucky.Dog.Farm.And.Store?ref=bookmarks,,,,,http://us8.campaign-archive2.com/home/?u=e69d58c1ab0da87a0d0bd36f2&id=230af0b7b3,"35796 State Highway 10, Hamden, New York 13782",New York,Hamden,35796 State Highway 10,13782,-74.994065,42.191338,,
on-farm market,"Mar 23rd, 2015",default-onfarmmarket-4-3.jpg,700031,Stokoe Farms,,Suzanne Stokoe,info@stokoefarms.com,585-889-0770,stokoefarms.com,https://www.facebook.com/stokoefarm,,,,,,"656 South Road, Scottsville, New York 14546",New York,Scottsville,656 South Road,14546,-77.773829,42.992039,,
on-farm market,"Mar 23rd, 2015",default-onfarmmarket-4-3.jpg,700308,Ontario Orchards,,Kathy Ouellette,info@ontarioorchards.com,315-343-6328,ontarioorchards.com,ontaroorchards,,,,,,"7735 State Route 104, Oswego, New York 13126",New York,Oswego,7735 State Route 104,13126,-76.577513,43.4098990,,
on-farm market,"Mar 23rd, 2015",default-onfarmmarket-4-3.jpg,701226,G and S Orchards,,Gary Craft,gcraft@rochester.rr.com,315-524-3823,http://www.gandsorchards.com,https://www.facebook.com/YouPickFruit,https://www.twitter.com/GandSOrchards,,,,http://gandsorchards.blogspot.com,"825 Atlantic Avenue, Walworth, New York 14568",New York,Walworth,825 Atlantic Avenue,14568,-77.338466,43.165420,,
on-farm market,"Mar 25th, 2015",default-onfarmmarket-4-3.jpg,701002,J&W Farm,,Wayne Dries,wwd43@hotmail.com,585-768-6444,,,,,,,,"7971 Vallance Rd., LeRoy, New York 14482",New York,LeRoy,7971 Vallance Rd.,14482,-77.960827,43.034078,,
on-farm market,"Mar 27th, 2015",default-onfarmmarket-4-3.jpg,700103,MAWS Farm,,Michael Skwara,info@mawsfarm.com,315-985-0088,www.MAWSFarm.com,https://www.facebook.com/MAWSFarm,,,,,,"7342 Main Street, State Route 28, Newport, New York 13416",New York,Newport,"7342 Main Street, State Route 28",13416,-75.010097,43.180348,,
on-farm market,"Nov 10th, 2014",default-onfarmmarket-4-3.jpg,701167,Rocks and Roots Farm LLC,,John F Sferruzza,john.rocksandroots@gmail.com,2013043959,,,,,,,,"151 Hadsell rd, Warnerville , New York 12187",New York,Warnerville,151 Hadsell rd,12187,-74.511437,42.643584,,
on-farm market,"Nov 19th, 2014",default-onfarmmarket-4-3.jpg,701171,Damin Farm,,Damin Farm,daminfarm@frontiernet.net,(518) 568-2643,,,,,,,,"8083 State Hwy 5, St. Johnsville, New York 13452",New York,St. Johnsville,8083 State Hwy 5,13452,-74.725050,43.004559,,
on-farm market,"Nov 6th, 2014",default-onfarmmarket-4-3.jpg,701163,Edgwick Farm,,Talitha Thurau,edgwickfarm@gmail.com,8455348707,,https://www.facebook.com/edgwickfarm,,,,,http://edgwickfarm.wordpress.com/,"348 Angola Road, Cornwall, New York 12518",New York,Cornwall,348 Angola Road,12518,-74.054181,41.414519,,
on-farm market,"Oct 21st, 2016",default-onfarmmarket-4-3.jpg,701349,C. Rowe & Sons,,Charles C. Rowe,roweworker00@gmail.com,845-427-2254,,,,,,,,"113 Station Road, Campbell Hall, New York 10916",New York,Campbell Hall,113 Station Road,10916,-74.213920,41.4695350,,
on-farm market,"Oct 23rd, 2014",default-onfarmmarket-4-3.jpg,701152,Honey Hill Orchard & Apiaries,,Mike Martino,HoneyHillOrchard@aol.com,315-687-5313,,Honey Hill Orchard & Apiary,,,,,,"1250 Kinderhook Rd , Chittenango, New York 13037",New York,Chittenango,1250 Kinderhook Rd,13037,-75.913081,43.064624,,
on-farm market,"Sep 14th, 2014",default-onfarmmarket-4-3.jpg,701070,Windecker's Grassy Knoll Beef,,Dale & Deb Windecker,windeckerfarm@gmail.com,315-866-4221,www.windeckerfarm.com,,,,,,,"656 Minots Corner Rd, Frankfort, New York 13340",New York,Frankfort,656 Minots Corner Rd,13340,-75.048407,43.102139,,
on-farm market,"Sep 17th, 2014",default-onfarmmarket-4-3.jpg,700343,Harmony Farm Apiary,,Greg Kalicin,Greg@harmonyfarm.net,315-569-6144,http://www.harmonyfarm.net,,,,,,,"273 Randall Road, Waddington, New York 13658",New York,Waddington,273 Randall Road,13658,-75.238035,44.803357,,
on-farm market,"Sep 17th, 2014",default-onfarmmarket-4-3.jpg,700570,Rocking Horse Farm,,Julie Liebmann,Rockinghorse1257@aol.com,315-492-1100,www.rockinghorsefarmcny.com,Rocking Horse Farm,,,,,,"3736 Apulia Road, Jamesville, New York 13078",New York,Jamesville,3736 Apulia Road,13078,-76.068845,42.952424,,
on-farm market,"Sep 17th, 2014",default-onfarmmarket-4-3.jpg,701082,Mill Creek Farm,,Jonathan Schell,millcreekfarm@live.com,315-783-4271,,,,,,,,"19830 Eddy Road, Carthage, New York 13619",New York,Carthage,19830 Eddy Road,13619,-75.740696,43.954667,,
on-farm market,"Sep 17th, 2014",default-onfarmmarket-4-3.jpg,701083,Hawthorne Valley Farm Store,,Dana Wagner,StoreAdmin@hawthornevalleyfarm.org,518-672-7500,http://hawthornevalleyfarm.org/where-to-buy/farm-store/,Hawthorne Valley Farm Store,,,,,,"327 County Route 21C, Ghent, New York 12075",New York,Ghent,327 County Route 21C,12075,-73.594747,42.2706611,,
on-farm market,"Sep 17th, 2014",default-onfarmmarket-4-3.jpg,701084,Made in Ghent,,Mimi & Richard Beaven,mimi@madeinghent.com,518 392 0804,www.madeinghent.com,Made in Ghent,https://www.twitter.com/madeinghent,,,,,"Little Ghent Farm, 282 Snyder Road, Ghent, New York 12075",New York,Ghent,"Little Ghent Farm, 282 Snyder Road",12075,-73.643255,42.330964,,
on-farm market,"Sep 28th, 2014",default-onfarmmarket-4-3.jpg,701104,Dizzy Lizzie's Farm,,Elizabeth Ann Blackburn,lizzie@dizzylizziesfarm.com,315-662-7565,www.dizzylizziesfarm@gmail.com,https://www.facebook.com/dizzylizziesfarm?ref=hl,,,,,,"3823 Sanderson Road, Erieville, New York 13061",New York,Erieville,3823 Sanderson Road,13061,-75.744191,42.839187,,
on-farm market,"Sep 30th, 2014",default-onfarmmarket-4-3.jpg,700125,Hidden Nest Farm,,Sarah and Ed Brennan,hiddennestfarm@gmail.com,518-638-8188,https://www.hiddennestfarm.com,https://www.facebook.com/hiddennestfarm,,,,,,", Fort Edward, New York 12828",New York,Fort Edward,,12828,-73.519735,43.281767,,
on-farm market,"Sep 30th, 2014",default-onfarmmarket-4-3.jpg,700358,"Food Pantry Farm, Inc. @ the EECO Farm Stand",,Darcy Hutzenlaub,foodpantryfarm@gmail.com,917-282-5860,www.foodpantryfarm.org,www.facebook.com/FoodPantryFarm,,,,,,"55 Long Lane (EECO Farm Stand), East Hampton, New York 11937",New York,East Hampton,55 Long Lane (EECO Farm Stand),11937,-72.207546,40.970660,,
on-farm market,"Sep 30th, 2014",default-onfarmmarket-4-3.jpg,701107,Cook's Maple Products,,kimberly Cook,cooksmaple@gmail.com,6076276252,http://www.cooksmaple.com,http://www.facebook.com/cooksmaple,http://www.twitter.com/cooksmaple,,,,,"247 County Road 20, Sherburne, New York 13460",New York,Sherburne,247 County Road 20,13460,-75.546679,42.648135,,
on-farm market,"Sep 30th, 2014",default-onfarmmarket-4-3.jpg,701111,Cedar Hill Farm,,Eric Eschbach,rgebach@optimum.net,860-806-3803,,,,,,,,"176 Leedsville Rd, Amenia, New York 12501",New York,Amenia,176 Leedsville Rd,12501,-73.511234,41.8325419,,
on-farm market,"Sep 5th, 2014",default-onfarmmarket-4-3.jpg,701027,Herrdale Acres Grassfed Beef,,Larry Herr,herrdale@gmail.com,315 376 3413,www.herrdaleacres.com,herrdale acres,,,,,,"7161 West Rd, Lowville, New York 13367",New York,Lowville,7161 West Rd,13367,-75.521475,43.7639003,,
