,Type,ModifyDate,Image,ListingID,Name,Description,ContactName,ContactEmail,ContactPhone,Website,Facebook,Twitter,Instagram,Pinterest,Youtube,Blog,Address,State,City,Street,Zip,Longitude,Latitude,Dates,Products
0,farmers market,"Dec 30th, 2020",default-farmersmarket-4-3.jpg,300487,Seacoast Eat Local Winter Farmers' Market - Exeter High School,,Morgan Morani,morgan@seacoasteatlocal.org,2073870567,www.seacoasteatlocal.org,facebook.com/seacoasteatlocal,@SeacoastEatLocl,,,Seacoast Eat Local,,"1 Blue Hawk Drive, Exeter, New Hampshire 03833",New Hampshire,Exeter,1 Blue Hawk Drive,03833,-71.000312,43.0168516,November to April,"['Fresh fruits', 'Fresh vegetables', 'Baked goods', 'Canned or preserved fruits/vegetables', 'Coffee/tea', 'Dairy products.', 'Dry beans', 'Eggs', 'Honey', 'Juices/non-alcoholic ciders', 'Maple products', 'Mushrooms', 'Poultry/fowl meat and products', 'Prepared foods', 'Red/other non-poultry meat and products', 'Soap/body care products', 'Wine, spirits, beer, hard cider']"
1,farmers market,"Jan 22nd, 2021",default-farmersmarket-4-3.jpg,301383,Gilmanton Community Farmers Market Association,,Elizabeth Bower,Gilmantoncfm@gmail.com,6033931083,Gilmantonfarmersmarket.com,Facebook.com/gilmantoncommunityfarmersmarket,,,,,,"1385 NH Route 140, Gilmanton, New Hampshire 03237",New Hampshire,Gilmanton,1385 NH Route 140,03237,-71.332318,43.425347,June to October,"['Fresh fruits', 'Fresh vegetables', 'Baked goods', 'Canned or preserved fruits/vegetables', 'Coffee/tea', 'Crafts/woodworking items', 'Cut flowers', 'Dairy products.', 'Eggs', 'Fish/seafood', 'Fresh/dried herbs', 'Honey', 'Maple products', 'Mushrooms', 'Poultry/fowl meat and products', 'Prepared foods', 'Red/other non-poultry meat and products', 'Soap/body care products', 'Wild harvested forest products']"
2,farmers market,"Jan 5th, 2021",default-farmersmarket-4-3.jpg,301091,Bedford Farmers Market,,Lauren Ritz,bedfordfarmersmarketnh@gmail.com,4013681347,Www.bedfordfarmersmarketnh.org,https://www.facebook.com/BedfordFarmersMarketNH/,,,,,,"209 Route 101, Bedford, New Hampshire 03110",New Hampshire,Bedford,209 Route 101,03110,-71.525849,42.938268,June to October,"['Fresh fruits', 'Fresh vegetables', 'Baked goods', 'Bedding plants', 'Canned or preserved fruits/vegetables', 'Coffee/tea', 'Crafts/woodworking items', 'Cut flowers', 'Dairy products.', 'Eggs', 'Fish/seafood', 'Fresh/dried herbs', 'Honey', 'Juices/non-alcoholic ciders', 'Maple products', 'Mushrooms', 'Poultry/fowl meat and products', 'Prepared foods', 'Red/other non-poultry meat and products', 'Soap/body care products', 'Wine, spirits, beer, hard cider']"
3,farmers market,"Mar 27th, 2023",default-farmersmarket-4-3.jpg,311641,Antrim Farmers Market,,,,603-588-2446,http://www.placeinthewoodstradingpost.com,,,,,,,"128 Concord St Antrim, NH 03440",New Hampshire,ANTRIM,128 CONCORD ST,3440,-71.92929493023875,43.047755794814776,,[]
4,farmers market,"Mar 27th, 2023",default-farmersmarket-4-3.jpg,311642,Barnstead Farmer's Market,,,,,http://www.barnsteadfarmersmarket.com,http://www.facebook.com/BarnsteadFarmersMarket,,,,,,"96 Maple St. Center Barnstead, NH 03225 We are located off Rte 28 heading to the Lakes Region!",New Hampshire,CENTER BARNSTEAD,96 MAPLE ST,3225,-71.26294362534333,43.34835500979464,,[]
5,farmers market,"Mar 27th, 2023",default-farmersmarket-4-3.jpg,311643,Berlin Local Works Farmers Marketplace,,,lauralocalworks@gmail.com,603-752-0060,http://wrenworks.org/programs/farmers-market/,https://www.facebook.com/berlin.farmersmarket,,,,,,"117 Main St., Berlin, NH, 03570",New Hampshire,Berlin,117 Main St.,3570,-71.18090906541806,44.46969142345131,,[]
6,farmers market,"Mar 27th, 2023",default-farmersmarket-4-3.jpg,311644,Bethlehem Local Works Farmers' Market,,,,603-869-9736x15,http://wrencommunity.org,,,,,,,"2011-13 Main St. Bethlehem, NH 03574",New Hampshire,BETHLEHEM,2011 MAIN ST,3574,-71.69258832734204,44.28001073224004,,[]
7,farmers market,"Mar 27th, 2023",default-farmersmarket-4-3.jpg,311645,Bradford NH Community Farmers Market,,,,603-938-6228,http://bradfordnh.org,,,,,,,"134 E Main St Bradford, NH 03221",New Hampshire,BRADFORD,134 E MAIN ST,3221,-71.95617981681535,43.26877032986252,,[]
8,farmers market,"Mar 27th, 2023",default-farmersmarket-4-3.jpg,311646,Canterbury Community Farmers Market,,,,,http://www.canterburyfarmersmarket.com/,http://www.facebook.com/CCFMA/,,,,,,"9 Center Road Canterbury, NH 03224 The Market is located in the parking area and grassy field adjacent to the Elkins Library.",New Hampshire,CANTERBURY,9 CENTER RD,3224,-71.56476658110451,43.33711600880431,,[]
9,farmers market,"Mar 27th, 2023",default-farmersmarket-4-3.jpg,311647,Colebrook Farmers Market,,,,603-237-4430,,,,,,,,"43 Colby Street Colebrook, NH 03576",New Hampshire,COLEBROOK,43 COLBY ST,3576,-71.50166378458098,44.89287008050835,,[]
10,farmers market,"Mar 27th, 2023",default-farmersmarket-4-3.jpg,311648,Contoocook Farmers' Market (Summer),,,,603-491-4203,http://www.harvesttomarket.com,http://www.facebook.com/ContoocookFarmersMarket/,,,,,,"896 Main Street (summer) Contoocook, NH 03229 Contoocook Train Depot",New Hampshire,CONTOOCOOK,896 MAIN ST,3229,-71.71305764031479,43.22242017733616,,[]
11,farmers market,"Mar 27th, 2023",default-farmersmarket-4-3.jpg,311649,Danbury Winter Market,,,,,http://blazingstargrange.org,,,,,,,"15 North Road Danbury, NH 03230",New Hampshire,DANBURY,15 NORTH RD,3230,-71.86225494540375,43.528449331623854,,[]
12,farmers market,"Mar 27th, 2023",default-farmersmarket-4-3.jpg,311650,Deerfield NH Farmer's Market,,,,603-463-7127,http://www.farmersmarketdeerfield-nh.us,,,,,,,"8 Raymond Road Deerfield, NH 03037",New Hampshire,DEERFIELD,8 RAYMOND RD,3037,-71.23871037215449,43.13047489602379,,[]
13,farmers market,"Mar 27th, 2023",default-farmersmarket-4-3.jpg,311651,Derry Farmers' Market,,,,603-845-5407,http://www.derry-nh.org,http://www.facebook.com/derryfarmersmarket,,,,,,"14 Manning Street Derry, NH 03038",New Hampshire,DERRY,14 MANNING ST,3038,-71.32885374544965,42.88344240754907,,[]
14,farmers market,"Mar 27th, 2023",default-farmersmarket-4-3.jpg,311652,Derry Homegrown Farm & Artisan Market,,,,,http://www.derryhomegrown.org,http://www.facebook.com/derryhomegrown,,,,,,"1 West Broadway, Derry, NH 03038 Derry, NH 03038 Our Farmer's Market is in the heart of downtown Derry, NH at 1 West Broadway. We are located on Wednesdays in the green space next to the pocket park,",New Hampshire,DERRY,1 W BROADWAY,3038,-71.326927872,42.88048836915351,,[]
15,farmers market,"Mar 27th, 2023",default-farmersmarket-4-3.jpg,311653,Derry Main Street Farmers' Market,,,bevferrante@yahoo.com,603-434-8974,http://www.derry-nh.org/Pages/DerryNH_FarmersMarket/index,https://www.facebook.com/DerryFarmersMarket/,,,,,,"1 W. Broadway, Derry, NH, 03038",New Hampshire,Derry,1 W. Broadway,3038,-71.326927872,42.88048836915351,,[]
16,farmers market,"Mar 27th, 2023",default-farmersmarket-4-3.jpg,311654,Dover Farmers' Market,,,info@seacoastgrowers.org,,http://www.seacoastgrowers.org/,https://www.facebook.com/Market03820/,,,,,,"550 Central Ave., Dover Chamber Parking Lot, Dover, NH, 03820",New Hampshire,Dover,550 Central Ave.,3820,-70.87589203328311,43.201162611609455,,[]
17,farmers market,"Mar 27th, 2023",default-farmersmarket-4-3.jpg,311655,Everybody's Farm Market,,,,603-448-9644,,,,,,,,"397 Dartmouth College Highway/Route 4 Lebanon, NH 03766",New Hampshire,LEBANON,397 DARTMOUTH COLLEGE HWY,3766,-72.19905690955676,43.638272643408655,,[]
18,farmers market,"Mar 27th, 2023",default-farmersmarket-4-3.jpg,311656,Franklin Farmers Market,,,mrizzo@lrgh.org,603-934-2060x8369,,https://www.facebook.com/FranklinLocalMarket,,,,,,"15 Aiken Ave., Franklin, NH, 03235",New Hampshire,Franklin,15 Aiken Ave.,3235,-71.64234166931959,43.44748892484548,,[]
19,farmers market,"Mar 27th, 2023",default-farmersmarket-4-3.jpg,311657,Great North Woods NH Farmers' Markets,,,patriciagrace56@aol.com,603-237-4430,http://www.nhliving.com/farmersmarkets/greatnorthwoods/,,,,,,,"43 Colby St., Colebrook, NH, 03576",New Hampshire,Colebrook,43 Colby St.,3576,-71.50166378458098,44.89287008050835,,[]
20,farmers market,"Mar 27th, 2023",default-farmersmarket-4-3.jpg,311658,Hanover Area Farmers Market,,,farmersmarket@hanoverchamber.org,603-643-3115,http://www.hanoverfarmersmarket.org/,https://www.facebook.com/www.hanoverfarmersmarket.org,,,,,,"1 E. Wheelock St., The Dartmouth Green, Hanover, NH, 03755",New Hampshire,Hanover,1 E. Wheelock St.,3755,-72.28549442659396,43.703086384906115,,[]
21,farmers market,"Mar 27th, 2023",default-farmersmarket-4-3.jpg,311659,Holiday Winter Farmers' Market,,,,603-229-0655,http://www.colegardens.com/winterfarmersmarket,,,,,,,"430 Loudon Road Concord, NH 03301",New Hampshire,CONCORD,430 LOUDON RD,3301,-71.47529704691637,43.233380448542846,,[]
22,farmers market,"Mar 27th, 2023",default-farmersmarket-4-3.jpg,311660,Lisbon Farmers' Market,,,,603-838-2200,http://www.lisbonmainstreet.org,,,,,,,"26 North Main Street, Route 302 Lisbon, NH 03585",New Hampshire,LISBON,26 N MAIN ST,3585,-71.90936520493106,44.2140678080863,,[]
23,farmers market,"Mar 27th, 2023",default-farmersmarket-4-3.jpg,311661,Littleton Farmers Market,,,,,,,,,,,,"38 Cottage Street Littleton, NH 03561",New Hampshire,LITTLETON,38 COTTAGE ST,3561,-71.76978117803108,44.30470784916938,,[]
24,farmers market,"Mar 27th, 2023",default-farmersmarket-4-3.jpg,311662,Local Works Farmers' Market at WREN,,,,603-869-9736,,,,,,,,"2013 Main Street Route 302 Bethlehem, NH 03574",New Hampshire,BETHLEHEM,2013 MAIN ST,3574,-71.69208550521452,44.280040201668754,,[]
25,farmers market,"Mar 27th, 2023",default-farmersmarket-4-3.jpg,311663,Main Street Bridge Farmer's Market,,,,603-883-5700,http://www.downtownnashua.org/farmers,http://www.facebook.com/NashuaFarmersMarket,,,,,,"53 Main St. Nashua, NH 03060",New Hampshire,NASHUA,53 MAIN ST,3060,-71.4665378609661,42.763541052776915,,[]
26,farmers market,"Mar 27th, 2023",default-farmersmarket-4-3.jpg,311664,Market on the Green,,,redbarnfarm@comcast.net,603-558-8805,http://www.marketonthegreen.com/Home_Page.html,https://www.facebook.com/NewLondonFarmersMarket,,,,,,"375 Main St., New London, NH, 03257",New Hampshire,New London,375 Main St.,3257,-71.98420390700541,43.414055958484916,,[]
27,farmers market,"Mar 27th, 2023",default-farmersmarket-4-3.jpg,311665,Nashua Farmers' Market,,,info@greatamericandowntown.org,603-883-5700,https://www.facebook.com/NashuaFarmersMarket,https://www.facebook.com/NashuaFarmersMarket,,,,,,"65 Main St., Nashua, NH, 03060",New Hampshire,Nashua,65 Main St.,3060,-71.46630252300041,42.7630218359289,,[]
28,farmers market,"Mar 27th, 2023",default-farmersmarket-4-3.jpg,311666,New Durham Farmers' Market,,,newdurhamfarmersmarket@gmail.com,,http://newdurhamfarmersmarket.com/,,,,,,,"7 Depot Rd., Post Office Mall, New Durham, NH, 03855",New Hampshire,New Durham,7 Depot Rd.,3855,-71.16366737101448,43.43327459503756,,[]
29,farmers market,"Mar 27th, 2023",default-farmersmarket-4-3.jpg,311667,Newmarket Farmers' Market,,,,617-584-3292,http://us3.campaign-archive1.com/?u=4658420bac18f747912316150&id=34278defa7&e=e3d18d953c,http://www.facebook.com/NewmarketFarmersMarket,,,,,,"137 Main Street Newmarket, NH 03857",New Hampshire,NEWMARKET,137 MAIN ST,3857,-70.93629550247749,43.078937834984124,,[]
30,farmers market,"Mar 27th, 2023",default-farmersmarket-4-3.jpg,311668,Peterborough Farmers' Market,,,peterboroughfarmersmarket@gmail.com,603-847-9461,,https://www.facebook.com/PeterboroughNHFarmersMarketWinterEdition,,,,,,"25 Elm St, Peterborough Community Center, Peterborough, NH, 03458",New Hampshire,Peterborough,25 Elm St,3458,-71.95692322138443,42.87693481530481,,[]
31,farmers market,"Mar 27th, 2023",default-farmersmarket-4-3.jpg,311669,Portsmouth Farmers' Market,,,,,http://www.seacoastgrowers.org,http://www.facebook.com/Market03801/,,,,,,"1 Junkins Ave Portsmouth, NH 03801",New Hampshire,PORTSMOUTH,1 JUNKINS AVE,3801,-70.76704487190652,43.06144696149243,,[]
32,farmers market,"Mar 27th, 2023",default-farmersmarket-4-3.jpg,311670,Rochester Downtown Farmers' Market,,,talondpjs@metrocast.net,603-332-1765,,,,,,,,"60 Wakefield St., Ben Franklin Crafts, Rochester, NH, 03867",New Hampshire,Rochester,60 Wakefield St.,3867,-70.97631099012594,43.305812616795144,,[]
33,farmers market,"Mar 27th, 2023",default-farmersmarket-4-3.jpg,311671,Rolling Green Nursery Winter Market,,,wfmkt.rgn@gmail.com,603-436-2732,http://www.rollinggreennursery.com/,,,,,,,"64 Breakfast Hill Rd., Greenland, NH, 03840",New Hampshire,Greenland,64 Breakfast Hill Rd.,3840,-70.82957749574958,43.02030594440308,,[]
34,farmers market,"Mar 27th, 2023",default-farmersmarket-4-3.jpg,311672,Rye Farmers Market,,,,,http://www.town.rye.nh.us/Pages/RyeNH_BComm/Farmers/index,https://www.facebook.com/Rye-Farmers-Market-173637067401,,,,,,"580 Washington Rd., Rye Center, Rye, NH, 03870",New Hampshire,Rye,580 Washington Rd.,3870,-70.77203183338872,43.01252755990335,,[]
35,farmers market,"Mar 27th, 2023",default-farmersmarket-4-3.jpg,311673,Salem Farmers Market,,,info@salemnhfarmersmarket.org,603-339-8424,http://www.salemnhfarmersmarket.org/,https://www.facebook.com/salemnhfarmersmarket,,,,,,"224 N. Broadway, Salem , NH, 03079",New Hampshire,Salem,224 N. Broadway,3079,-71.23580847792745,42.792141873982885,,[]
36,farmers market,"Mar 27th, 2023",default-farmersmarket-4-3.jpg,311674,Salem NH Farmers Market,,,,,http://www.SalemNHFarmersMarket.org,http://www.facebook.com/salemnhfarmersmarket,,,,,,"14 Main Street Salem, NH 03079 Fisk Elementary School",New Hampshire,SALEM,14 MAIN ST,3079,-71.2351044405956,42.78239579803794,,[]
37,farmers market,"Mar 27th, 2023",default-farmersmarket-4-3.jpg,311675,Seacoast Eat Local Winter Farmers' Markets,,,,,http://www.seacoasteatlocal.org,http://www.facebook.com/SeacoastEatLocal?fref=ts,,,,,,"2 Washington St Ste 331 Dover, NH 03820",New Hampshire,DOVER,2 WASHINGTON ST,3820,-70.87186589573527,43.195136140926174,,[]
38,farmers market,"Mar 27th, 2023",default-farmersmarket-4-3.jpg,311676,Somersworth Farmers Market,,,farmersmarket@goodwinch.org,603-953-0066,,https://www.facebook.com/SomersworthFarmersMarket,,,,,,"311 Rte. 108, Somersworth, NH, 03878",New Hampshire,Somersworth,311 Rte. 108,3878,-70.9035167454778,43.259314494623034,,[]
39,farmers market,"Mar 27th, 2023",default-farmersmarket-4-3.jpg,311677,Stratham Farmers' Market,,,stratham300@gmail.com,603-686-1258,,,,,,,,"69 Portsmouth Ave., Stratham, NH, 03885",New Hampshire,Stratham,69 Portsmouth Ave.,3885,-70.91872520327964,43.00882239598946,,[]
40,farmers market,"Mar 27th, 2023",default-farmersmarket-4-3.jpg,311678,Summer Farmers Market at Rolling Green Nu...,,,,603-436-2732,http://www.rollinggreennursery.com/,,,,,,,"64 Breakfast Hill Rd., Greenland, NH, 03840",New Hampshire,Greenland,64 Breakfast Hill Rd.,3840,-70.82957749574958,43.02030594440308,,[]
41,farmers market,"Mar 27th, 2023",default-farmersmarket-4-3.jpg,311679,Sunapee Farmers Market,,,,,http://www.sunapeefarmersmarket.com,,,,,,,"68-72 Main Street Sunapee, NH 03782 Located in Historic Sunapee Harbor, Parking Available on River Road (next to Prospect Hill Antiques)",New Hampshire,SUNAPEE,68 MAIN ST,3782,-72.0836890079148,43.38651343172346,,[]
42,farmers market,"Mar 27th, 2023",default-farmersmarket-4-3.jpg,311680,The We Are One Farmers Market,,,,603-344-2323,http://www.weareonefarmersmarket.org,,,,,,,"118 Center Rd. Weare, NH 03281",New Hampshire,WEARE,118 CENTER RD,3281,-71.7382012395248,43.11063285392392,,[]
43,farmers market,"Mar 27th, 2023",default-farmersmarket-4-3.jpg,311681,Tilton Farmers' Market,,,joconnor@yahoo.com,603-496-1718,http://tiltonfarmersmarket.com/,https://www.facebook.com/TiltonFarmersMarket/,,,,,,"120 Laconia Rd., Tilton, NH, 03276",New Hampshire,Tilton,120 Laconia Rd.,3276,-71.56348273367915,43.45712758461962,,[]
44,farmers market,"Mar 27th, 2023",default-farmersmarket-4-3.jpg,311682,Warner Farmers Market,,,,603-456-2319,http://www.warnerfarmersmarket.org/,http://www.facebook.com/warnerareafarmersmarket,,,,,,"5 East Main Street Warner, NH 03278 Town Hall Lawn",New Hampshire,WARNER,5 E MAIN ST,3278,-71.81583756515565,43.2805725859795,,[]
45,farmers market,"Mar 27th, 2023",default-farmersmarket-4-3.jpg,311683,Weare Farmers Market,,,,603-491-4203,http://harvesttomarket.com/farmers-market/Weare-Farmers-Market-NH,http://www.facebook.com/pages/category/Community/Weare-Real-Food-Farmers-Market-101444321652005/,,,,,,"65 N Stark Hwy, Weare, NH 03281",New Hampshire,WEARE,65 N STARK HWY,3281,-71.73325176442553,43.09871690249018,,[]
46,farmers market,"Mar 27th, 2023",default-farmersmarket-4-3.jpg,311684,Wentworth Greenhouses Summer Farmers Market,,,,603-743-4919,http://wentworthgreenhouses.com/summer-farmers-market/,,,,,,,"141 Rollins Rd., Rollinsford, NH, 03869",New Hampshire,Rollinsford,141 Rollins Rd.,3869,-70.86109980341743,43.21563236861847,,[]
47,farmers market,"Mar 27th, 2023",default-farmersmarket-4-3.jpg,311685,Winter Farmers' Market at Cole Gardens,,,,603-229-0655,http://colegardens.com/winterfarmersmarket,,,,,,,"430 Loudon Road Concord, NH 03301",New Hampshire,CONCORD,430 LOUDON RD,3301,-71.47529704691637,43.233380448542846,,[]
48,farmers market,"Mar 27th, 2023",default-farmersmarket-4-3.jpg,311686,Yankee Farmers Market,,,,603-456-2833,http://www.yankeefarmersmarket.com,http://www.facebook.com/yankeefarmersmarket,,,,,,"360 Route 103 east, Warner NH 3278",New Hampshire,Warner,360 Route 103 east,3278,-71.7685692899867,43.25966292572407,,[]
49,farmers market,"Sep 11th, 2020",default-farmersmarket-4-3.jpg,300272,Wolfeboro Area Farmers Market,,Krystal Thurston,Secretary@WolfeboroAreaFarmersMarket.com,6035151841,www.wolfeboroareafarmersmarket.com,https://www.facebook.com/wolfeboroareafarmersmarket,,,,,,"233 South Main St, Wolfeboro, New Hampshire 03894",New Hampshire,Wolfeboro,233 South Main St,03894,-71.202747,43.580593,May to October,"['Fresh fruits', 'Fresh vegetables', 'Baked goods', 'Bedding plants', 'Canned or preserved fruits/vegetables', 'Coffee/tea', 'Cut flowers', 'Dairy products.', 'Eggs', 'Fish/seafood', 'Fresh/dried herbs', 'Honey', 'Juices/non-alcoholic ciders', 'Maple products', 'Poultry/fowl meat and products', 'Prepared foods', 'Red/other non-poultry meat and products', 'Soap/body care products', 'Wild harvested forest products', 'Wine, spirits, beer, hard cider']"
50,on-farm market,"Aug 13th, 2014",default-onfarmmarket-4-3.jpg,700633,Lower 35 Farm Stand,,Rickie Bauer,Bauer5681@aol.com,603-520-2640,,,,,,,,"Hunkins Pond Road, Sanbornton, New Hampshire 03269",New Hampshire,Sanbornton,Hunkins Pond Road,03269,-71.546131,43.509974,,[]
51,on-farm market,"Aug 14th, 2014",default-onfarmmarket-4-3.jpg,700513,RoseMartin Farms,,RoseMartin Farm,cmartinchas@surfbest.net,603-837-3045,,,,,,,,"960 Whitefield Road (route 142), Dalton, New Hampshire 3598",New Hampshire,Dalton,960 Whitefield Road (route 142),3598,-71.694809,44.4158924,,[]
52,on-farm market,"Aug 22nd, 2014",default-onfarmmarket-4-3.jpg,700887,Dietz's Farm,,Robert Diertz,maldenpd@msn.com,603-694-2041,,,,,,,,"1028 Main Rd, Chatham , New Hampshire 03813",New Hampshire,Chatham,1028 Main Rd,03813,-71.006856,44.1648428,,[]
53,on-farm market,"Aug 22nd, 2014",default-onfarmmarket-4-3.jpg,700889,Cornucopia Farm,,Cheryl Frey,Ckordas@mcttelecom.com,(603)848-2630,http://www.cornucopiafarmnh.com,,,,,,,"53 Woodview Heights, Bradford, New Hampshire 03221",New Hampshire,Bradford,53 Woodview Heights,03221,-71.977336,43.263441,,[]
54,on-farm market,"Aug 23rd, 2014",default-onfarmmarket-4-3.jpg,700892,Jennings Family Farm,,Lyn Jennings,ljjenningsmv@comcast.net,603-672-1281,,https://www.facebook.com/pages/Jennings-Family-Farm/207505105929625,,,,,,"58 Weston Hill Road, Mont Vernon, New Hampshire 03057",New Hampshire,Mont Vernon,58 Weston Hill Road,03057,-71.663603,42.9106738,,[]
55,on-farm market,"Aug 25th, 2014",default-onfarmmarket-4-3.jpg,700921,Windy Hill Natural Beef,,Windy Hill Natural Beef,windyhill038@hotmail.com,603-383-8917,www.windyhillbandb.com/beef.php,,,,,,,"19 Windy Hill Dr, Jackson, New Hampshire",New Hampshire,Jackson,19 Windy Hill Dr,,-71.153857,44.172492,,[]
56,on-farm market,"Aug 26th, 2014",default-onfarmmarket-4-3.jpg,700394,Broadview Farm,,Sharon McKay,broadviewfarm@hotmail.com,603-286-9423,www.broadviewfarm.com,,,,,,,"37 March Road, Sanbornton, New Hampshire 3269",New Hampshire,Sanbornton,37 March Road,3269,-71.593585,43.478446,,[]
57,on-farm market,"Aug 5th, 2014",default-onfarmmarket-4-3.jpg,700809,Huntoon Farm,,Donna Sprague,huntoonfarm@myfairpoint.net,603-768-5579,huntoonfarm.com,https://www.facebook.com/HuntoonFarm,,,,,,"46 Huntoon Road, Danbury, New Hampshire 03230",New Hampshire,Danbury,46 Huntoon Road,03230,-71.860923,43.512655,,[]
58,on-farm market,"Dec 13th, 2022",default-onfarmmarket-4-3.jpg,701212,Hemingway Farms,,Amy Hemingway,amy.hemingway@gmail.com,603-826-3336,www.hemingwayfarms.com,Hemingway Farms,,,,,,"1815 Claremont Road, Charlestown, New Hampshire 03603",New Hampshire,Charlestown,1815 Claremont Road,03603,-72.397229,43.283646,April to December,"['Fresh fruits', 'Fresh vegetables', 'Baked goods', 'Bedding plants', 'Canned or preserved fruits/vegetables', 'Cut flowers', 'Dairy products.', 'Eggs', 'Fresh/dried herbs', 'Honey', 'Maple products', 'Nursery stock']"
59,on-farm market,"Dec 23rd, 2014",default-onfarmmarket-4-3.jpg,701182,"Old Orchard farm, LLC",,"Old Orchard farm, LLC",ggcornwell@gmail.com,6038660464,http://www.oldorchard.farm/,https://www.facebook.com/pages/Old-Orchard-Farm-LLC/1402594990003111,,,,,,"42 Nute Road, Madbury, New Hampshire 03823",New Hampshire,Madbury,42 Nute Road,03823,-70.975992,43.185385,,[]
60,on-farm market,"Feb 28th, 2015",default-onfarmmarket-4-3.jpg,700133,Grand View Farm,,Elizabeth Kelley,gvfarms1@gmail.com,6036625421,http://grandviewfarm.blogspot.com/,https://www.facebook.com/gvfarms1,,,,,,"151 Tasker Hill Road, Conway, New Hampshire 03818",New Hampshire,Conway,151 Tasker Hill Road,03818,-71.117469,43.969910,,[]
61,on-farm market,"Jul 22nd, 2020",default-onfarmmarket-4-3.jpg,701538,Market & Cafe at Emery Farm,,Holly Philbrick,holly@emeryfarm.com,603-742-8495,https://emeryfarm.com,https://www.facebook.com/EmeryFarmNH/,,,,,https://emeryfarm.com/our-blog,"147 Piscataqua Road, Durham, New Hampshire 03824",New Hampshire,Durham,147 Piscataqua Road,03824,-70.875933,43.132150,,[]
62,on-farm market,"Jul 26th, 2014",default-onfarmmarket-4-3.jpg,700322,Gap Mountain Goats,,M/M Reid,Info@GapMountainGoats.com,,www.GapMountainGoats.com,,,,,,,"875 Jaffrey Road, Marlborough, New Hampshire 3455",New Hampshire,Marlborough,875 Jaffrey Road,3455,-72.156181,42.859482,,[]
63,on-farm market,"Jul 26th, 2014",default-onfarmmarket-4-3.jpg,700592,Russells Blueberries,,Peter Russell,pmrhop@aol.com,603-344-6913,www.russellcertifiedorganic.com,https://www.facebook.com/pages/Russells-Organic-Blueberries/115364307642,,,,,,"289 Maple Street, Contoocook, New Hampshire 3229",New Hampshire,Contoocook,289 Maple Street,3229,-71.709969,43.215632,,[]
64,on-farm market,"Jul 26th, 2014",default-onfarmmarket-4-3.jpg,700641,Appleview Orchard,,,apples@applevieworchard.com,603-435-3553,,,,,,,,"1266 Upper City Road, Pittsfield, New Hampshire 3263",New Hampshire,Pittsfield,1266 Upper City Road,3263,-71.342297,43.325531,,[]
65,on-farm market,"Jul 26th, 2014",default-onfarmmarket-4-3.jpg,700735,Gould Hill Farm,,Tim Bassett,info@gouldhillfarm.com,603-746-3811,Http://Www.gouldhillfarm.com,https://www.facebook.com/121710497201,HTTPS://twitter.com/gouldhillfarm,,,,,"656 Gould Hill Road, Hopkinton, New Hampshire 3229",New Hampshire,Hopkinton,656 Gould Hill Road,3229,-71.68936,43.22074,,[]
66,on-farm market,"Jul 27th, 2014",default-onfarmmarket-4-3.jpg,700047,Rocky Meadow Farm,,Wayne LeClair,wayne@rockymeadowfarm.com,603-547-6464,www.rockymeadowfarm.com,https://www.facebook.com/RockyMeadowFarm,,,,,,"201 Udall Road, Francestown, New Hampshire 03043",New Hampshire,Francestown,201 Udall Road,03043,-71.844788,42.978013,,[]
67,on-farm market,"Jul 27th, 2014",default-onfarmmarket-4-3.jpg,700145,"Elior Acres, LLC",,Denise Renk,info@EliorAcres.com,603-938-2771,www.EliorAcres.com,https://www.facebook.com/EliorAcres,,,,,,"2871 State Route 114, Bradford, New Hampshire 03221",New Hampshire,Bradford,2871 State Route 114,03221,-71.911341,43.235200,,[]
68,on-farm market,"Jul 27th, 2014",default-onfarmmarket-4-3.jpg,700567,Running Fox Farm,,,runningfoxnh@aol.com,603-496-8749,www.runningfoxfarmnh.com,https://www.facebook.com/running.f.farm,,,,,,"576 Northwest Road Route 132, Canterbury, New Hampshire 3224",New Hampshire,Canterbury,576 Northwest Road Route 132,3224,-71.565280,43.3372738,,[]
69,on-farm market,"Jul 27th, 2014",default-onfarmmarket-4-3.jpg,700569,Rossview Farm,,Donald Ross,rossviewfarm@hotmail.com,603-228-4872,www.rossviewfarm.com,,,,,,,"District #5 Road, Concord, New Hampshire 03303",New Hampshire,Concord,District #5 Road,03303,-71.615361,43.217957,,[]
70,on-farm market,"Jul 28th, 2014",default-onfarmmarket-4-3.jpg,700053,Remick Country Doctor Museum and Farm,,Karen Downing,kdowning@remickmuseum.org,603-323-7591,www.remickmuseum.org,https://www.facebook.com/remickcountrydoctormuseumandfarm,,,,,,"58 Cleveland Hill Rd, Tamworth, New Hampshire 03886",New Hampshire,Tamworth,58 Cleveland Hill Rd,03886,-71.268301,43.8584337,,[]
71,on-farm market,"Jul 31st, 2014",default-onfarmmarket-4-3.jpg,700628,BerryKnoll,,Linda Sorensen,bestberrylady@gmail.com,603-447-4844,BerryKnoll.com,,,,,,,"67 Old Portland Rd., off Brownfield Road, Eaton, New Hampshire 03832",New Hampshire,Eaton,"67 Old Portland Rd., off Brownfield Road",03832,-71.010638,43.916591,,[]
72,on-farm market,"Jun 11th, 2020",default-onfarmmarket-4-3.jpg,701526,Highland View Farm,,Karen West,highlandviewfarmalstead@gmail.com,6072264855,https://www.highlandviewfreerange.com/,,,,,,,"26 Sunset Cir, Alstead, New Hampshire 03602",New Hampshire,Alstead,26 Sunset Cir,03602,-72.364887,43.128949,,[]
73,on-farm market,"Mar 22nd, 2015",default-onfarmmarket-4-3.jpg,700292,Arbutus Hill Farm,,Jennifer Mayo,jennifer@ladyfarmer.com,508-681-9921,www.ladyfarmer.com,,,,,,,"150 Arbutus Hill Rd, Meredith, New Hampshire 03253",New Hampshire,Meredith,150 Arbutus Hill Rd,03253,-71.577164,43.606107,,[]
74,on-farm market,"Mar 22nd, 2015",default-onfarmmarket-4-3.jpg,701225,Apple Haven Farm,,Patricia Craig,info@applehavenfarm.com,603-246-3438,www.applehavenfarm.com,facebook/applehavenfarm,,,,,,"829 Piper Hill Road, Stewartstown, New Hampshire 03576",New Hampshire,Stewartstown,829 Piper Hill Road,03576,-71.491190,44.952681,,[]
75,on-farm market,"Mar 23rd, 2015",default-onfarmmarket-4-3.jpg,700781,Butternut Farm LLC,,Edward Burnap,giffandmae@butternutfarm.net,603 335-4705,www.Butternutfarm.net,,,,,,,"195 Meaderboro Road, Farmington, New Hampshire 03835",New Hampshire,Farmington,195 Meaderboro Road,03835,-71.068903,43.323159,,[]
76,on-farm market,"Mar 23rd, 2015",default-onfarmmarket-4-3.jpg,700875,Hidden Acres Farm,,Hidden Acres Farm,HAF10@outlook.com,603 421-4782,,,,,,,,"42 Thornell Rd., Newton, New Hampshire 03858",New Hampshire,Newton,42 Thornell Rd.,03858,-71.054062,42.8639228,,[]
77,on-farm market,"Mar 24th, 2015",default-onfarmmarket-4-3.jpg,700876,Paradise Farm LLC,,Wayne and Adrienne Colsia,Wayne@Paradisefarmnh.com,603 345-0860,Paradisefarmnh.com,,,,,,,"468 Center Rd., Lyndeborough, New Hampshire 03082",New Hampshire,Lyndeborough,468 Center Rd.,03082,-71.733994,42.8709851,,[]
78,on-farm market,"Mar 24th, 2015",default-onfarmmarket-4-3.jpg,700908,Hatches Orchard,,Elaine Hatch,e.hatch@yahoo.com,603-447-5687,none,none,,,,,none,"1440 Brownfield Road, Center Conway, New Hampshire 03813",New Hampshire,Center Conway,1440 Brownfield Road,03813,-71.013385,43.9581759,,[]
79,on-farm market,"Mar 24th, 2015",default-onfarmmarket-4-3.jpg,701060,"Tracie's Community Farm, LLC",,Tracie Loock,farmers@traciesfarm.com,(603) 209-1851,www.traciesfarm.com,https://www.facebook.com/pages/Tracies-Community-Farm-LLC/172047872823613?ref=hl,,,,,http://traciesfarm.com/wordpress/?cat=4,"72 Jaffrey Rd., Fitzwilliam, New Hampshire 03447",New Hampshire,Fitzwilliam,72 Jaffrey Rd.,03447,-72.140829,42.782479,,[]
80,on-farm market,"Mar 26th, 2015",default-onfarmmarket-4-3.jpg,700066,Walpole Valley Farms,,Chris Caserta,chris@walpolevalleyfarms.com,603-756-2805,www.walpolevalleyfarms.com,https://www.facebook.com/WalpoleValleyFarms?ref=hl,,,,,,"663 Wentworth Road, Walpole, New Hampshire 03608",New Hampshire,Walpole,663 Wentworth Road,03608,-72.425371,43.032428,,[]
81,on-farm market,"Oct 19th, 2015",default-onfarmmarket-4-3.jpg,701300,Paradise Farm LLC,,Wayne Colsia,Wayne@ParadiseFarmNH.com,603-345-0860,www.ParadiseFarmNH.com,Paradise Farm NH,,,,,,"468 Center Rd, Lyndeborough, New Hampshire 03082",New Hampshire,Lyndeborough,468 Center Rd,03082,-71.733994,42.8709851,,[]
82,on-farm market,"Sep 13th, 2014",default-onfarmmarket-4-3.jpg,701068,Six Acre Farm,,Rick Gagne,sixacrefarm@yahoo.com,sixacrefarm@yahoo.co,sixacrefarm.com,,,,,,,"141 Spruceville Rd, Milan, New Hampshire 03588",New Hampshire,Milan,141 Spruceville Rd,03588,-71.309134,44.590829,,[]
83,on-farm market,"Sep 16th, 2014",default-onfarmmarket-4-3.jpg,700738,Demeritt Hill Farm,,Meg Wilson,info@demeritthillfarm.com,(603) 868-2111,www.demeritthillfarm.com,https://www.facebook.com/pages/DeMeritt-Hill-Farm/166676763359982?ref=bookmarks,https://twitter.com/NHapples,,,,,"66 Lee Road (route 155), Lee, New Hampshire 3861",New Hampshire,Lee,66 Lee Road (route 155),3861,-70.967587,43.157470,,[]
84,on-farm market,"Sep 24th, 2014",default-onfarmmarket-4-3.jpg,701095,Farmer John's Plot,,John Sandri,farmerjohnsplot@gmail.com,603-289-5927,http://farmerjohnsplot.org/,https://www.facebook.com/farmerjohnsplot?ref=br_tf,,,,,,"26 Chesham Road, Dublin, New Hampshire 03444",New Hampshire,Dublin,26 Chesham Road,03444,-72.150907,42.918938,,[]
85,on-farm market,"Sep 4th, 2015",default-onfarmmarket-4-3.jpg,700430,Windcrest Tree Farm,,Amy MacDonald,windcrestnh@gmail.com,603-772-4799,www.windcrestfarm.info,,,,,,,"35 North Road, East Kingston, New Hampshire 03827",New Hampshire,East Kingston,35 North Road,03827,-70.991808,42.927052,,[]
