,type,directory_name,updatetime,listing_image,listing_id,name,listing_desc,tags,mydesc,contact_name,contact_email,contact_phone,website,facebook,twitter,media_instagram,media_pinterest,media_youtube,media_blog,location_address,state,city,street,zip,longitude,latitude,term,distance
0,farmersmarket,farmers market,"Apr 6th, 2022",default-farmersmarket-4-3.jpg,301529,Historic Lewes Farmers Market,,Open: June to September; <br>Available Products: Fresh fruits;Fresh vegetables;Baked goods;Bedding plants;Cut flowers;Eggs;Fresh/dried herbs;Honey;Pet food;Poultry/fowl meat and products;Prepared foods;Soap/body care products;,,Helaine Harris,info@historiclewesfarmersmarket.orgi,3026441436,www.historiclewesfarmersmarket.org,https://www.facebook.com/historiclewesfarmersmarket/,,,,,,"36707 Crooked Hammock Way, Lewes, Delaware 19958",Delaware,Lewes,36707 Crooked Hammock Way,19958,-75.150657,38.746394,,1000
1,farmersmarket,farmers market,"Apr 6th, 2022",default-farmersmarket-4-3.jpg,301530,Historic Lewes Farmers Market,,Open: October to November; <br>Available Products: Fresh fruits;Fresh vegetables;Baked goods;Bedding plants;Canned or preserved fruits/vegetables;Coffee/tea;Cut flowers;Dairy products.;Dry beans;Eggs;Fresh/dried herbs;Honey;Juices/non-alcoholic ciders;Mushrooms;Nursery stock;Pet food;Poultry/fowl meat and products;Prepared foods;Soap/body care products;,,Helaine Harris,info@historiclewesfarmersmarket.org,3026441436,www.historiclewesfarmersmarket.org,https://www.facebook.com/historiclewesfarmersmarket/,,,,,,"820 Savannah Road, Lewes, Delaware, USA",Delaware,Lewes,820 Savannah Road,19958,-75.14353369999999,38.77009639999999,,1000
2,farmersmarket,farmers market,"Aug 3rd, 2020",default-farmersmarket-4-3.jpg,300377,Capital City Farmers Market,,Open: June to September; <br>Available Products: Fresh fruits;Fresh vegetables;Baked goods;Canned or preserved fruits/vegetables;Crafts/woodworking items;Cut flowers;Eggs;Fresh/dried herbs;Poultry/fowl meat and products;Soap/body care products;,,Brynn Voshell,brynn@downtowndoverpartnership.com,302-678-2940,http://www.downtowndoverpartnership.com/,https://www.facebook.com/capitalcityfarmersmarket/,,,,,,"126 West Loockerman Street (Loockerman Way Plaza), Dover, Delaware 19904",Delaware,Dover,126 West Loockerman Street,19904,-75.526229,39.1576541,,1000
3,farmersmarket,farmers market,"Jan 27th, 2021",default-farmersmarket-4-3.jpg,301410,"BETHANY BEACH FARMERS' MARKET, INC.",,Open: June to September; <br>Available Products: Fresh fruits;Fresh vegetables;Baked goods;Cut flowers;Honey;Juices/non-alcoholic ciders;Mushrooms;Soap/body care products;,,doug mowrey,dougmowrey@gmail.com,3017170492,https://bethanybeachfarmersmarket.com/,https://www.facebook.com/bethanybeachfarmersmarket,@BBFarmersMarket,,,,,"601 castle court, Bethany Beach, Delaware 19930",Delaware,Bethany Beach,601 castle court,19930,-75.056515,38.538397,,1000
4,farmersmarket,farmers market,"Jun 10th, 2021",default-farmersmarket-4-3.jpg,301533,Historic Lewes Farmers Market,,Open: May to September; <br>Available Products: Fresh fruits;Fresh vegetables;Baked goods;Bedding plants;Canned or preserved fruits/vegetables;Coffee/tea;Cut flowers;Dairy products.;Eggs;Fish/seafood;Fresh/dried herbs;Honey;Mushrooms;Poultry/fowl meat and products;Red/other non-poultry meat and products;Soap/body care products;,,helaine harris,info@historiclewesfarmersmarket.org,3026441436,P.O. Box 185,https://www.facebook.com/historiclewesfarmersmarket,,,,,,"Dupont and Johnson Avenues, Lewes, Delaware 19958",Delaware,Lewes,Dupont and Johnson Avenues,19958,-75.147503,38.772404,,1000
5,farmersmarket,farmers market,"Mar 20th, 2023",default-farmersmarket-4-3.jpg,309258,Bellefonte DE Farmers Market,,,,,,,http://bellefontefarmersmarket.com,,,,,,,"912 Brandywine Blvd. Wilmington, DE 19809",Delaware,WILMINGTON,912 BRANDYWINE BLVD,19809,-75.49992175841987,39.76650693647244,,1000
6,farmersmarket,farmers market,"Mar 20th, 2023",default-farmersmarket-4-3.jpg,309259,Bellefonte Farmers Market,,,,,,302-762-1391x101,,,,,,,,"500 Duncan Rd., Wilmington, DE, 19809",Delaware,Wilmington,500 Duncan Rd.,19809,-75.49738622060673,39.77195960273759,,1000
7,farmersmarket,farmers market,"Mar 20th, 2023",default-farmersmarket-4-3.jpg,309260,Bethany Beach Farmers' Market,,,,,dougmowrey@gmail.com,,http://www.bethanybeachfarmersmarket.com/,,,,,,,"Garfield Pkwy. and Pennsylvania Ave., Bethany Beach, DE, 19930",Delaware,Bethany Beach,Garfield Pkwy. and Pennsylvania Ave.,19930,-75.05718998380806,38.53821999790995,,1000
8,farmersmarket,farmers market,"Mar 20th, 2023",default-farmersmarket-4-3.jpg,309261,Delaware Avenue Farmers Market,,,,,lee-advisor@operamail.com,302-562-5132,https://delawareave.wordpress.com/farmers-market/,https://www.facebook.com/Delaware-Avenue-Farmers-Market-253512674785530/,,,,,,"1727 Delaware Ave., Wilmington, DE, 19806",Delaware,Wilmington,1727 Delaware Ave.,19806,-75.56298105603395,39.758451717849816,,1000
9,farmersmarket,farmers market,"Mar 20th, 2023",default-farmersmarket-4-3.jpg,309262,Delaware City Farmers' Market & Galleria,,,,,Renwalof48@yahoo.com,302-834-5407,,https://www.facebook.com/DCFAF,,,,,,"86 Clinton St., Delaware City, DE, 19706",Delaware,Delaware City,86 Clinton St.,19706,-75.5891394457839,39.57805590594465,,1000
10,farmersmarket,farmers market,"Mar 20th, 2023",default-farmersmarket-4-3.jpg,309263,Farmers' Market at Sea Colony,,,,,,,http://seacolonyfarmersmarket.com/index.html,https://www.facebook.com/Farmers-Market-at-Sea-Colony-858964444197561/timeline/,,,,,,"Rt. 1 & West Way, Bethany Beach, DE, 19930",Delaware,Bethany Beach,Rt. 1 & West Way,19930,-75.05632002607747,38.52689001174966,,1000
11,farmersmarket,farmers market,"Mar 20th, 2023",default-farmersmarket-4-3.jpg,309264,Fenwick Island Farmers' Market,,,,,,302-436-5589,http://www.fenwickislandfarmersmarket.com/,,,,,,,"Coastal Hwy. and E. Essex St., Fenwick Island, DE, 19944",Delaware,Fenwick Island,Coastal Hwy. and E. Essex St.,19944,-75.05189999707598,38.46045999250396,,1000
12,farmersmarket,farmers market,"Mar 20th, 2023",default-farmersmarket-4-3.jpg,309265,French Street Farmers Market,,,,,tcasey@downtownvisions.org,302-245-0196,,,,,,,,"2nd St. and French St., Wilmington, DE, 19802",Delaware,Wilmington,2nd St. and French St.,19802,-75.55063999982114,39.73806001699438,,1000
13,farmersmarket,farmers market,"Mar 20th, 2023",default-farmersmarket-4-3.jpg,309266,Fresh Friday Farmers Market,,,,,tcasey@downtownvisions.org,302-245-0196,,,,,,,,"10th St. and Tatnall St., Nemours Plaza, Wilmington, DE, 19802",Delaware,Wilmington,10th St. and Tatnall St.,19802,-75.54992996880316,39.74658001202465,,1000
14,farmersmarket,farmers market,"Mar 20th, 2023",default-farmersmarket-4-3.jpg,309267,Georgetown Farmers' Market,,,,,,302-698-4519,https://www.georgetowncoc.com/georgetown-farmers-market,,,,,,,"413 S. Bedford St., at 16 Mile Brewery, Georgetown, DE, 19947",Delaware,Georgetown,413 S. Bedford St.,19947,-75.37916362290935,38.67841828035599,,1000
15,farmersmarket,farmers market,"Mar 20th, 2023",default-farmersmarket-4-3.jpg,309268,Loockerman Way Farmers' Market,,,,,amy@downtowndoverpartnership.com,302-359-9532,,https://www.facebook.com/loockermanwayfarmersmarket,,,,,,"Loockerman St. and S. Bradford St., Dover, DE, 19904",Delaware,Dover,Loockerman St. and S. Bradford St.,19904,-75.52571004048255,39.157850010859704,,1000
16,farmersmarket,farmers market,"Mar 20th, 2023",default-farmersmarket-4-3.jpg,309269,Milton Farmers' Market,,,,,kstoedter@comcast.net,302-684-5168,http://www.miltondefarmersmarket.org/,https://www.facebook.com/Miltonfarmkt,,,,,,"Union St. and Magnolia St., Milton, DE, 19968",Delaware,Milton,Union St. and Magnolia St.,19968,-75.31105997753845,38.77871000151089,,1000
17,farmersmarket,farmers market,"Mar 20th, 2023",default-farmersmarket-4-3.jpg,309270,New Castle County Farmers' Market,,,,,mbegatto@nccde.org,302-395-5624,http://www.nccde.org/455/Farmers-Markets,https://www.facebook.com/New-Castle-County-Farmers-Market-Program-1428440977407063,,,,,,"Glasgow Park, Newark, DE, 19702",Delaware,Newark,Glasgow Park,19702,-75.74305414077514,39.59933395760782,,1000
18,farmersmarket,farmers market,"Mar 20th, 2023",default-farmersmarket-4-3.jpg,309271,New Castle Farmers' Market,,,,,kristina.l.boyer@bankofamerica.com,302-328-4101,http://newcastlefarmersmarket.com/,http://www.facebook.com/newcastle.farmersmarket,,,,,,"110 N. Dupont Hwy., New Castle , DE, 19720",Delaware,New Castle,110 N. Dupont Hwy.,19720,-75.59668925304892,39.67335522935644,,1000
19,farmersmarket,farmers market,"Mar 20th, 2023",default-farmersmarket-4-3.jpg,309272,Smyrna Farmers' Market,,,,,smyrnafarmersmarket@gmail.com,302-698-4523,http://smyrnafarmersmarket.com/,https://www.facebook.com/SmyrnaFarmersMarket,,,,,,"106 W. Commerce St., Smyrna, DE, 19977",Delaware,Smyrna,106 W. Commerce St.,19977,-75.60858466721314,39.29909983833365,,1000
20,farmersmarket,farmers market,"Mar 20th, 2023",default-farmersmarket-4-3.jpg,309273,Southbridge Farmers Market,,,,,grenardo@hotmail.com,908-313-3159,,,,,,,,"1210 Lobdell St., Elbert-Palmer School, Wilmington, DE, 19809",Delaware,Wilmington,1210 Lobdell St.,19809,-75.5423360035271,39.73123640637354,,1000
21,farmersmarket,farmers market,"May 9th, 2022",farmersmarket_301723_14135_20220509210100.png,301723,Westside Farmers Market at Cool Spring Park,"West Side Grows Together is a coalition of  residents, businesses, churches, and local leadership working together to transform & strengthen our community.

Our weekly farmers market is a community-based initiative to promote access to the best local produce, grass-fed meats, bakery goods, and much more! We are located at the historic Cool Spring Park. Held every Wednesday from 3:30-6:30 pm, STARTING JUNE 15th through October. 

*Accepting WIC, SFMNP, SNAP, and EBT 

CHECK OUT OUR FARMERS MARKET FACEBOOK PAGE @coolspringfarmersmarket
",,"West Side Grows Together is a coalition of  residents, businesses, churches, and local leadership ...",Britt Salen,bsalen@westsidegrows.org,302-888-5335,westsidegrows.org,https://www.facebook.com/westsidegrowsde,https://twitter.com/westsidegrowsde,https://www.instagram.com/westsidegrowsde/,,https://www.youtube.com/channel/UCa_GrfHopF-xdq8CDwUWnLg,,"West 10th Street & North Van Buren Street, Wilmington, DE, USA",Delaware,Wilmington,West 10th Street & North Van Buren Street,19806,-75.5584068,39.74985600000001,,1000
22,onfarmmarket,on-farm market,"Jul 11th, 2016",default-onfarmmarket-4-3.jpg,701352,Southbridge Youth Farm Stand,,,,Randi Novakoff,rnovakoff@wilmapco.org,302-299-2583,https://swpn.org/southbridgecommunitygarden/,https://www.facebook.com/YouthFarmStandandPopupMarket/,,,,,,"1218 B. Street, Wilmington, Delaware 19801",Delaware,Wilmington,1218 B. Street,19801,-75.542868,39.7284250,,1000
23,onfarmmarket,on-farm market,"Mar 10th, 2015",default-onfarmmarket-4-3.jpg,701223,Cook Family Farm's - CoolRockStock,,,,Steve and Rhonda Cook,Orders@coolrockstock.com,302-584-8743,coolrockstock.com,Cook Family Farm,,,,,,"3300 Frazer Rd, Newark , Delaware 19702",Delaware,Newark,3300 Frazer Rd,19702,-75.764456,39.5560199,,1000
24,onfarmmarket,on-farm market,"Mar 24th, 2015",default-onfarmmarket-4-3.jpg,700903,Maebrook Produce,,,,Ashley Snyder,ashley@maebrookproduce.com,302-858-3435,www.maebrookproduce.com,https://www.facebook.com/MaebrookProduce,,,,,,"Hearns Pond Rd, Seaford, Delaware 19973",Delaware,Seaford,Hearns Pond Rd,19973,-75.614455,38.6834350,,1000
25,onfarmmarket,on-farm market,"May 19th, 2015",default-onfarmmarket-4-3.jpg,701265,Highland Orchards Farm Market,,,,,highlandcsa@gmail.com,302-478-4042,www.highlandorchardsfarmmarket.com,https://www.facebook.com/highlandorchards,https://twitter.com/highlandcsa,,,,http://highlandorchards.blogspot.com/,"1431 Foulk Rd, Wilmington, Delaware 19803",Delaware,Wilmington,1431 Foulk Rd,19803,-75.521104,39.801994,,1000
