Type,ModifyDate,Image,ListingID,Name,Description,ContactName,ContactEmail,ContactPhone,Website,Facebook,Twitter,Instagram,Pinterest,Youtube,Blog,Address,State,City,Street,Zip,Longitude,Latitude,Dates,Products
farmers market,,default-farmersmarket-4-3.jpg,307414,Baxter Market,,,info@brainerdfarmersmarket.com,320-232-3478,http://www.brainerdfarmersmarket.com/,,,,,,,"14091 Baxter Dr, Baxter, MN 56425",Minnesota,Baxter,14091 Baxter Dr,56425,-94.2273891,46.3558668,,
farmers market,,default-farmersmarket-4-3.jpg,307415,Brimson Farmers' Market,,Jolyeen Detlinson,,218-341-7694,,,,,,,,"1898 Hwy 44, Brimson, MN 55602",Minnesota,Brimson,1898 Hwy 44,55602,-91.8445281,47.2563056,,
farmers market,"Apr 19th, 2022",farmersmarket_301713_14626_20230517161628.png,301713,Audubon Farmers Market,Audubon Farmers Market is a small community market that features local produce and hand-made food and artisan craft products.  Our market features local musicians and food trucks.  June-September; Thursdays 4-7 pm.,Michelle Spangler,farmersmarket@audubonneighborhood.org,720.212.9549,https://sites.google.com/audubonneighborhood.org/audubon-neighborhood/farmers-market?authuser=0,https://www.facebook.com/audubonfarmersmarket,,,,,,"2844 Johnson St NE, Minneapolis, MN, USA",Minnesota,Minneapolis,2844 Johnson Street Northeast,55418,-93.23743809999999,45.0199925,Year-round,"Fresh fruits, Fresh vegetables, Baked goods, Canned or preserved fruits/vegetables, Coffee/tea, Crafts/woodworking items, Cut flowers, Fresh/dried herbs, Honey, Maple products, Mushrooms, Prepared foods, Red/other non-poultry meat and products, Soap/body care products"
farmers market,"Apr 30th, 2020",default-farmersmarket-4-3.jpg,301089,Lakes Area Growers Market,,Ruth Jansen,rjansen@brainerd.net,2188293241,www.brainerdfarmersmarket.com,Lakes Area Growers Market,,,,,,"7915 MN-210 , Baxter , Minnesota 56425",Minnesota,Baxter,7915 MN-210,56425,-94.235284,46.352551,May to October,"Fresh fruits, Fresh vegetables, Baked goods, Bedding plants, Canned or preserved fruits/vegetables, Crafts/woodworking items, Cut flowers, Eggs, Fresh/dried herbs, Honey, Maple products, Nursery stock, Red/other non-poultry meat and products, Soap/body care products"
farmers market,"Feb 22nd, 2023",default-farmersmarket-4-3.jpg,307414,Baxter Market,,,info@brainerdfarmersmarket.com,320-232-3478,http://www.brainerdfarmersmarket.com/,,,,,,,"14091 Baxter Dr, Baxter, MN 56425",Minnesota,Baxter,14091 Baxter Dr,56425,-94.2273891,46.3558668,,
farmers market,"Feb 22nd, 2023",default-farmersmarket-4-3.jpg,307415,Brimson Farmers' Market,,Jolyeen Detlinson,,218-341-7694,,,,,,,,"1898 Hwy 44, Brimson, MN 55602",Minnesota,Brimson,1898 Hwy 44,55602,-91.8445281,47.2563056,,
farmers market,"Feb 22nd, 2023",default-farmersmarket-4-3.jpg,307420,Cloquet Farmers' Market,,Gail Olson,contact@carltoncountyfarmersmarket.com,218-879-4142,,,,,,,,"904 MN-33, Cloquet, MN 55720",Minnesota,Cloquet,904 MN-33,55720,-92.4573496,46.7103966,,
farmers market,"Feb 22nd, 2023",default-farmersmarket-4-3.jpg,307421,Clover Valley Farmers' Market,,,,,,,,,,,,"6092 Homestead Rd, Duluth, MN 55804",Minnesota,Duluth,6092 Homestead Rd,55804,-91.8466841,46.952342,,
farmers market,"Feb 22nd, 2023",default-farmersmarket-4-3.jpg,307422,Cook Area Farmers' Market,,George Pliml,cookareafarmersmarket@yahoo.com,218-410-1248,,,,,,,,"127 S River St, Cook, MN 55723",Minnesota,Cook,127 S River St,55723,-92.6893297,47.8515249,,
farmers market,"Feb 22nd, 2023",default-farmersmarket-4-3.jpg,307423,Cook County Farmers' Market,,,ccfarmandcraft@gmail.com,,,,,,,,,"10 Broadway Ave, Grand Marais, MN 55604",Minnesota,Grand Marais,10 Broadway Ave,55604,-90.3327636,47.7498294,,
farmers market,"Feb 22nd, 2023",default-farmersmarket-4-3.jpg,307425,Duluth Downtown Farmers' Market,,,duluthmnfarmersmarket@gmail.com,218-241-1847,https://www.duluthfarmersmarket.com/,,,,,,,"1324 E 3rd St, Duluth, MN 55805",Minnesota,East Hillside,1324 E 3rd St,55805,-92.0839292,46.801893,,
farmers market,"Feb 22nd, 2023",default-farmersmarket-4-3.jpg,307429,Embarrass Farmers' Market,,,,,,,,,,,,"4880 Co Hwy 21, Embarrass, MN 55732",Minnesota,Embarrass,4880 Co Hwy 21,55732,-92.1975889,47.6587373,,
farmers market,"Feb 22nd, 2023",default-farmersmarket-4-3.jpg,307432,Glen Farmers Market,,Adrienne and Matt Hurd,hurdfamilyfarm@gmail.com,218-927-4553,,,,,,,,"28011 State Hwy 47, Aitkin, MN 56431",Minnesota,Aitkin,28011 State Hwy 47,56431,-93.5154759,46.4182805,,
farmers market,"Feb 22nd, 2023",default-farmersmarket-4-3.jpg,307436,Horseshoe Lake Farmers' Market,,,,218-426-3029,,,,,,,,"48493 Lily Ave, McGregor, MN 55760",Minnesota,McGregor,48493 Lily Ave,55760,-93.203717,46.7196373,,
farmers market,"Feb 22nd, 2023",default-farmersmarket-4-3.jpg,307438,Lakes Area Growers Market,,,info@brainerdfarmersmarket.com,320-232-3478,https://brainerdsmarket.wixsite.com/mysite,,,,,,,"1001 Kingwood St, Brainerd, MN 56401",Minnesota,Brainerd,1001 Kingwood St,56401,-94.1935339,46.3598183,,
farmers market,"Feb 22nd, 2023",default-farmersmarket-4-3.jpg,307439,Lincoln Park Farmers' Market,,Evan Flom,,218-726-1665,,,,,,,,"3002 W 3rd St, Duluth, MN 55806",Minnesota,Lincoln Park,3002 W 3rd St,55806,-92.1382609,46.760397,,
farmers market,"Feb 22nd, 2023",default-farmersmarket-4-3.jpg,307440,Lincoln Park Farmers' Market - Winter,,Evan Flom,,218-726-1665,,,,,,,,"3002 W 3rd St, Duluth, MN 55806",Minnesota,Lincoln Park,3002 W 3rd St,55806,-92.1382609,46.760397,,
farmers market,"Feb 22nd, 2023",default-farmersmarket-4-3.jpg,307441,Mesabi East Environmental Education Center (ME3C) Farmers' Market,,,ME3C@isd2711.org,218-229-3321,,,,,,,,"612 W 3rd Ave N, Aurora, MN 55705",Minnesota,Aurora,612 W 3rd Ave N,55705,-92.2502087,47.530681,,
farmers market,"Feb 22nd, 2023",default-farmersmarket-4-3.jpg,307442,Moose Lake Farmers Market,,Kathy Port,kjport@scicable.com,218-389-1485,,,,,,,,"20 Earl Ellens Dr, Moose Lake, MN 55767",Minnesota,Moose Lake,20 Earl Ellens Dr,55767,-92.7695986,46.4478621,,
farmers market,"Feb 22nd, 2023",default-farmersmarket-4-3.jpg,307443,Mora Area Farmers' Market,,Jessica Janorschke,MoraFarmersMarket@gmail.com,320-360-0092,www.MoraFarmersMarket.com,,,,,,,"500 Clark St, Mora, MN 55051",Minnesota,Mora,500 Clark St,55051,-93.2915467,45.8718691,,
farmers market,"Feb 22nd, 2023",default-farmersmarket-4-3.jpg,307444,Nisswa Farmers' Market,,Marie Kirsch,info@nisswafarmersmarket.com,612-710-0962,http://www.brainerdfarmersmarket.com,,,,,,,"25807 Main St, Nisswa, MN 56468",Minnesota,Nisswa,25807 Main St,56468,-94.2933762,46.5255727,,
farmers market,"Feb 22nd, 2023",default-farmersmarket-4-3.jpg,307445,Northome Farmers' Market,,,,507-456-7611,,,,,,,,"12099 U. S. Hwy 71, Northome, MN 56661",Minnesota,Northome,12099 U. S. Hwy 71,56661,-94.2773065,47.8850558,,
farmers market,"Feb 22nd, 2023",default-farmersmarket-4-3.jpg,307446,Ode’imini Giizis Farmers' Market,,,,218-410-8443,,,,,,,,"Nett Lake Rd & Westley Dr, Nett Lake, MN 55771",Minnesota,Nett Lake,Nett Lake Rd & Westley Dr,55771,-93.0940209,48.1110799,,
farmers market,"Feb 22nd, 2023",default-farmersmarket-4-3.jpg,307447,Pine CIty Farmers' Market,,Barb Videen,pinecityfarmersmarket@gmail.com,320-322-4040,www.pinecitychamber.com,,,,,,,"707 1st Ave NW, Pine City, MN 55063",Minnesota,Pine City,707 1st Ave NW,55063,-92.9702997,45.8317503,,
farmers market,"Feb 22nd, 2023",default-farmersmarket-4-3.jpg,307448,Silver Bay Makers Market,,Dan Cahill Mathews,dan.c@friendsoffinland.org,218-940-3904,finlandfoodchain.org,,,,,,,"7 Davis Dr, Silver Bay, MN 55614",Minnesota,Silver Bay,7 Davis Dr,55614,-91.2697401,47.2948097,,
farmers market,"Feb 22nd, 2023",default-farmersmarket-4-3.jpg,307449,Thursday Local Food Market,,,,,SAWTOOTHMOUNTAINCLINIC.ORG/OUR-CLINIC/COMMUNITY-HEALTH/HEALTHY-COMMUNITIES/LOCAL-FOOD-MARKET/,,,,,,,"317 W 5th St, Grand Marais, MN 55604",Minnesota,Grand Marais,317 W 5th St,55604,-90.3380485,47.7563097,,
farmers market,"Feb 22nd, 2023",default-farmersmarket-4-3.jpg,307450,Tower Farmers' Market,,Janna Goerdt,fatchickenfarm@gmail.com,218-749-2186,,,,,,,,"404 Pine St, Tower, MN 55790",Minnesota,Tower,404 Pine St,55790,-92.2782482,47.8048347,,
farmers market,"Feb 22nd, 2023",default-farmersmarket-4-3.jpg,307451,Two Harbors Farmers' Market,,Bianca Seay,info@twoharborsfarmersmarket.com ,218-310-7174,www.twoharborsfarmersmarket.com,,,,,,,"320 7th Ave, Two Harbors, MN 55616",Minnesota,Two Harbors,320 7th Ave,55616,-91.6661164,47.025365,,
farmers market,"Feb 22nd, 2023",default-farmersmarket-4-3.jpg,307452,Two Harbors Farmers' Market - Winter,,Bianca Seay,info@twoharborsfarmersmarket.com ,218-310-7174,www.twoharborsfarmersmarket.com,,,,,,,"320 7th Ave, Two Harbors, MN 55616",Minnesota,Two Harbors,320 7th Ave,55616,-91.6661164,47.025365,,
farmers market,"Feb 22nd, 2023",default-farmersmarket-4-3.jpg,307453,Virginia Market Square Farmers' Market,,Marlise Riffel,virginiamarketsquare@gmail.com,218-410-5129,www.virginiamarketsquare.com,,,,,,,"111 S 9th Ave W, Virginia, MN 55792",Minnesota,Virginia,111 S 9th Ave W,55792,-92.5473406,47.5230668,,
farmers market,"Feb 22nd, 2023",default-farmersmarket-4-3.jpg,307454,Virginia Market Square Food Hub,,Kristine Jonas,bythesimplicity@gmail.com,,,,,,,,,"111 S 9th Ave W, Virginia, MN 55792",Minnesota,Virginia,111 S 9th Ave W,55792,-92.5473406,47.5230668,,
farmers market,"Feb 22nd, 2023",default-farmersmarket-4-3.jpg,307455,Ada Farmers' Market,,Jessica Heitman,Laughingearth@loretel.net,701-219-4106,,,,,,,,"703 E Thorpe Ave, Ada, MN 56510",Minnesota,Ada,703 E Thorpe Ave,56510,-96.5024518,47.2967113,,
farmers market,"Feb 22nd, 2023",default-farmersmarket-4-3.jpg,307459,Blackduck Area Farmers' Market,,,,,,,,,,,,"Wayside Rest Park, Blackduck, MN 56630",Minnesota,Blackduck,Wayside Rest Park,55630,-94.551676,47.729311,,
farmers market,"Feb 22nd, 2023",default-farmersmarket-4-3.jpg,307461,Fertile Farmer's Market,,Stacy Erickson,cityoffertile@gmail.com,218-945-3136,,,,,,,,"400 2nd St SW, Fertile, MN 56540",Minnesota,Fertile,400 2nd St SW,56540,-96.2826607,47.5309263,,
farmers market,"Feb 22nd, 2023",default-farmersmarket-4-3.jpg,307462,Fosston Farmers' Market,,Jerry Kaupang,jerrykaupang@yahoo.com,218-214-1474,,,,,,,,"910 Hilligoss Blvd SE, Fosston, MN 56542",Minnesota,Fosston,910 Hilligoss Blvd SE,56542,-95.7419815,47.5716044,,
farmers market,"Feb 22nd, 2023",default-farmersmarket-4-3.jpg,307463,Hubbard Prarie Farmers' Market,,Lisa and Julia,hubbardprairiefarmersmarket@gmail.com,218-616-2078,https://hubbardprairiefarmersmarket.com/,,,,,,,"12141 County 6, Park Rapids, MN 56470",Minnesota,Park Rapids,12141 County 6,56470,-95.0109317,46.8366351,,
farmers market,"Feb 22nd, 2023",default-farmersmarket-4-3.jpg,307464,Kelliher Farmers' Market,,Diane Mostad,,218-647-8728,,,,,,,,"Kelliher, MN",Minnesota,Kelliher,,56650,-94.448427,47.940128,,
farmers market,"Feb 22nd, 2023",default-farmersmarket-4-3.jpg,307465,Mentor Farmers' Market,,Rachel Roggenbuck,athomerachel@gmail.com,701-741-0976,http://mentorfarmersmarket.org/,,,,,,,"202 Garfield Ave, Mentor, MN 56736",Minnesota,Mentor,202 Garfield Ave,56736,-96.141797,47.6982632,,
farmers market,"Feb 22nd, 2023",default-farmersmarket-4-3.jpg,307466,Middle River Farmers' Market,,Debbie Ornquist,Mornqst@wiktel.com,218-222-3540,,,,,,,,"Middle River, MN 56737",Minnesota,Middle River,Main St,56737,-96.1641892,48.4341394,,
farmers market,"Feb 22nd, 2023",default-farmersmarket-4-3.jpg,307467,Park Rapids Farmers' Market,,Linda Myhre and Judi Weiss,parkrapidsfm@gmail.com,303-907-1393,,,,,,,,"910 1st St E, Park Rapids, MN 56470",Minnesota,Park Rapids,910 1st St E,56470,-95.0434652,46.9216133,,
farmers market,"Feb 22nd, 2023",default-farmersmarket-4-3.jpg,307468,Paul Bunyan Farmers' Market,,Michelle Parsley,paulbunyanfarmersmarket@gmail.com,218-766-9452,https://www.facebook.com/paulbunyanfarmersmarket/,,,,,,,"1401 Paul Bunyan Dr NW, Bemidji, MN 56601",Minnesota,Bemidji,1401 Paul Bunyan Dr NW,56601,-94.8996812,47.4947844,,
farmers market,"Feb 22nd, 2023",default-farmersmarket-4-3.jpg,307469,Paul Bunyan Farmers' Market - Winter,,Michelle Parsley,paulbunyanfarmersmarket@gmail.com,218-766-9452,https://www.facebook.com/paulbunyanfarmersmarket/,,,,,,,"1401 Paul Bunyan Dr NW, Bemidji, MN 56601",Minnesota,Bemidji,1401 Paul Bunyan Dr NW,56601,-94.8996812,47.4947844,,
farmers market,"Feb 22nd, 2023",default-farmersmarket-4-3.jpg,307470,Roseau Farmers' Market,,Sinnamon Krings,roseaupromotions@mncable.net,218-242-1315,http://goroseau.com/,,,,,,,"121 Center St E, Roseau, MN 56751",Minnesota,Roseau,121 Center St E,56751,-95.7616273,48.8465647,,
farmers market,"Feb 22nd, 2023",default-farmersmarket-4-3.jpg,307471,Simply Fresh Farmers' Market,,Ellen Richards,simplyfreshfm@aol.com,218-634-1331,,,,,,,,"804 Main St, Baudette, MN 56623",Minnesota,Baudette,804 Main St,56623,-94.6116274,48.7140921,,
farmers market,"Feb 22nd, 2023",default-farmersmarket-4-3.jpg,307472,Stephen Farmers' Market,,Melody Anderson,ody_13@live.com,,,,,,,,,"319 5th St, Stephen, MN 56757",Minnesota,Stephen,319 5th St,56757,-96.8715748,48.450402,,
farmers market,"Feb 22nd, 2023",default-farmersmarket-4-3.jpg,307473,Thief River Falls Farmers' Market,,LaVonne Schmitz,trf.farmersmarket@hotmail.com,218-874-3001,,,,,,,,"Floyd B. Olson Park, 205 Knight Ave N, Thief River Falls, MN 56701",Minnesota,Thief River Falls,205 Knight Ave N,56701,-96.1838211,48.1184887,,
farmers market,"Feb 22nd, 2023",default-farmersmarket-4-3.jpg,307474,Twin Valley Farmers' Market,,,wilseydan@yahoo.com,,,,,,,,,"104 1st St NE, Twin Valley, MN 56584",Minnesota,Twin Valley,104 1st St NE,56584,-96.2580044,47.2610057,,
farmers market,"Feb 22nd, 2023",default-farmersmarket-4-3.jpg,307475,Warren Farmers' Market,,Christina and Shannon,christina@warrenminnesota.com,218-745-5343,,,,,,,,"424 N 1st St, Warren, MN 56762",Minnesota,Warren,424 N 1st St,56762,-96.771445,48.1968794,,
farmers market,"Feb 22nd, 2023",default-farmersmarket-4-3.jpg,307476,White Earth Community Farmers' Market,,Eva Brakefield,eva.brakefield@whiteearth-nsn.gov,218-983-3286,,,,,,,,"216 S Main St, Mahnomen, MN 56557",Minnesota,Mahnomen,216 S Main St,56557,-95.9681573,47.313862,,
farmers market,"Feb 22nd, 2023",default-farmersmarket-4-3.jpg,307477,Alexandria Farmers' Market,,Ronald Branch,farmmkt@rea-alp.com,320-763-6893,,,,,,,,"200 Broadway St, Alexandria, MN 56308",Minnesota,Alexandria,200 Broadway St,56308,-95.3776342,45.8908155,,
farmers market,"Feb 22nd, 2023",default-farmersmarket-4-3.jpg,307478,Battle Lake Farmers' Market,,,,218-371-1948,,,,,,,,"697 Lake Ave N, Battle Lake, MN 56515",Minnesota,Battle Lake,697 Lake Ave N,56515,-95.7147892,46.2884081,,
farmers market,"Feb 22nd, 2023",default-farmersmarket-4-3.jpg,307479,Elbow Lake Farmers' Market,,Sue Kulbeik,chamber@runestone.net,218-685-5380,,,,,,,,"815 Division St E, Elbow Lake, MN 56531",Minnesota,Elbow Lake,815 Division St E,56531,-95.9653663,45.9919498,,
farmers market,"Feb 22nd, 2023",default-farmersmarket-4-3.jpg,307480,Fergus Falls Farmers' Market,,Jan Werkau,fffarmersmarket@gmail.com,425-244-1446,http://www.fergusfallsfarmersmarket.org/,,,,,,,"121 S Union Ave, Fergus Falls, MN 56537",Minnesota,Fergus Falls,121 S Union Ave,56537,-96.0778111,46.2832793,,
farmers market,"Feb 22nd, 2023",default-farmersmarket-4-3.jpg,307481,Herman Farmers' Market,,,,320-677-2350,,,,,,,,"Vienna Ave N, Herman MN 56248",Minnesota,Herman,Vienna Ave N,56248,-96.147832,45.809134,,
farmers market,"Feb 22nd, 2023",default-farmersmarket-4-3.jpg,307482,Hoffman Farmers' Market,,Dianne Johnson,hoffmaneda@gmail.com,320-986-2598,,,,,,,,"Hoffman City Park, Hoffman, MN 56339",Minnesota,Hoffman,Hoffman City Park,56339,-95.7924443,45.8319068,,
farmers market,"Feb 22nd, 2023",default-farmersmarket-4-3.jpg,307483,Holmes City Farmers' Market,,Dee Lemmon,uncanny@centurylink.net,320-886-5421,http://holmescityfarmersmarket.weebly.com/,,,,,,,"5966 County Rd 4W SW, Farwell, MN 56327",Minnesota,Farwell,5966 County Rd 4W SW,56327,-95.5416219,45.8362362,,
farmers market,"Feb 22nd, 2023",default-farmersmarket-4-3.jpg,307484,Lakes Area Farmers' Market,,Annie Schow,schow.anne@yahoo.com,218-230-9822,http://www.lakesareafarmersmarket.com/,,,,,,,"1337 Rossman Ave, Detroit Lakes, MN 56501",Minnesota,Detroit Lakes,1337 Rossman Ave,56501,-95.8531715,46.8078206,,
farmers market,"Feb 22nd, 2023",default-farmersmarket-4-3.jpg,307485,Moorhead Farmer's Market,,Trevor Magnuson,trevor.magnuson@cityofmoorhead.com,218-299-5296,moorheadparks.com,,,,,,,"202 1st Ave N, Moorhead, MN 56560",Minnesota,Moorhead,202 1st Ave N,56560,-96.7794273,46.8772463,,
farmers market,"Feb 22nd, 2023",default-farmersmarket-4-3.jpg,307486,Morris Area Farmers' Market,,,morrisareafarmersmarket@gmail.com,,http://www.morrisareafarmersmarket.org/,,,,,,,"26 E 6th St, Morris, MN 56267",Minnesota,Morris,26 E 6th St,56267,-95.9133246,45.5873384,,
farmers market,"Feb 22nd, 2023",default-farmersmarket-4-3.jpg,307487,New York Mills Farmers' Market,,Pat Fredley,info@kulcher.org,218-298-4342,kulcher.org,,,,,,,"24 N Main Ave, New York Mills, MN 56567",Minnesota,New York Mills,24 N Main Ave,56567,-95.3756154,46.5186765,,
farmers market,"Feb 22nd, 2023",default-farmersmarket-4-3.jpg,307488,Pelican Market,,Ellie Litzinger,hello@pelicanmarketplace.com,218-270-8811,https://pelicanmarketplace.com/,,,,,,,"43 N Broadway, Pelican Rapids, MN 56572",Minnesota,Pelican Rapids,43 N Broadway,56572,-96.0831288,46.5707015,,
farmers market,"Feb 22nd, 2023",default-farmersmarket-4-3.jpg,307489,Perham Farmers' Market,,Jonathan Smith,,,https://www.perham.com/farmers-market/,,,,,,,"NP Park, Perham, MN 56573",Minnesota,Perham,185 E. Main,56573,-95.5730088,46.5953437,,
farmers market,"Feb 22nd, 2023",default-farmersmarket-4-3.jpg,307490,Pine River Market Square,,Mim Brien,prmarketsquare@gmail.com,218-838-6058,https://prmarketsquare.wordpress.com/,,,,,,,"102 Barclay Ave, Pine River, MN 56474",Minnesota,Pine River,102 Barclay Ave,56474,-94.4024287,46.7162447,,
farmers market,"Feb 22nd, 2023",default-farmersmarket-4-3.jpg,307491,Pine River Market Square - Winter,,Mim Brien,prmarketsquare@gmail.com,218-838-6058,https://prmarketsquare.wordpress.com/,,,,,,,"307 Norway Ave, Pine River, MN 56474",Minnesota,Pine River,307 Norway Ave,56474,-94.4015725,46.7189221,,
farmers market,"Feb 22nd, 2023",default-farmersmarket-4-3.jpg,307492,Pope County Farmers' Market,,Kay Blauert,kay.blauert@WelcomeGlenwood.org,320-634-3636,WelcomeGlenwood.org,,,,,,,"809 S Lake Shore Dr, Glenwood, MN 56334",Minnesota,Glenwood,809 S Lake Shore Dr,56334,-95.3863644,45.6412441,,
farmers market,"Feb 22nd, 2023",default-farmersmarket-4-3.jpg,307493,Staples Motley Area Farmers' Market,,Amy Wiese,amywiese@lakewoodhealthsystem.com,218-296-2585,https://www.staplesareafarmersmarket.com/,,,,,,,"49725 County Rd 83, Staples, MN 56479",Minnesota,Staples,49725 County Rd 83,56479,-94.794844,46.3557159,,
farmers market,"Feb 22nd, 2023",default-farmersmarket-4-3.jpg,307494,Starbuck Farmers' Market,,,,320-239-4220,,,,,,,,"Starbuck Depot Museum, Starbuck, MN 56381",Minnesota,Starbuck,Main st and 4th st,56381,-95.530839,45.611393,,
farmers market,"Feb 22nd, 2023",default-farmersmarket-4-3.jpg,307495,Red Rivier Farmers' Market,,,,,https://www.redriverharvest.com/shop-products.html,,,,,,,"212 8th St S, Moorhead, MN 56560",Minnesota,Moorhead,212 8th St S,56560,-96.7675662,46.8722711,,
farmers market,"Feb 22nd, 2023",default-farmersmarket-4-3.jpg,307496,Wadena Farmers' Market - Aldrich Ave,,Les Schwartz,les.schwartz57@gmail.com,218-639-1941,,,,,,,,"100 Aldrich Ave SE, Wadena, MN 56482",Minnesota,Wadena,100 Aldrich Ave SE,56482,-95.1355115,46.4406844,,
farmers market,"Feb 22nd, 2023",default-farmersmarket-4-3.jpg,307497,Wadena Farmers' Market - Jefferson St,,Les Schwartz,les.schwartz57@gmail.com,218-639-1941,,,,,,,,"418 Jefferson St N, Wadena, MN 56482",Minnesota,Wadena,418 Jefferson St N,56482,-95.1330838,46.4456862,,
farmers market,"Feb 22nd, 2023",default-farmersmarket-4-3.jpg,307498,Walker Community Farmers' & Crafters Market,,Erin Haefele,walkergreenscene@gmail.com,218-547-2880,walkergreenscene.com,,,,,,,"617 Michigan Ave, Walker, MN 56484",Minnesota,Walker,617 Michigan Ave,56484,-94.5848775,47.1003214,,
farmers market,"Feb 22nd, 2023",default-farmersmarket-4-3.jpg,307517,Sauk Rapids Farmers' Market,,Julie Tamblyn-Thull,Saukrapidsmarket@gmail.com,612-963-3592,,,,,,,,"110 1st St S, Sauk Rapids, MN 56379",Minnesota,Sauk Rapids,110 1st St S,56379,-94.1637564,45.5874988,,
farmers market,"Feb 22nd, 2023",default-farmersmarket-4-3.jpg,307541,Bongards Farmers' Market,,Victoria Moteelall,bongardsmarket@gmail.com ,612-710-0508,bongardsmarket.com,,,,,,,"12984 County Rd 51, Norwood Young America, MN 55368",Minnesota,Norwood Young America,12984 County Rd 51,55368,-93.8492876,44.7682872,,
farmers market,"Feb 22nd, 2023",default-farmersmarket-4-3.jpg,307563,Coon Rapids Farmers' Market,,,lwgolyer@gmail.com,,,,,,,,,"11000 Crooked Lake Blvd NW, Coon Rapids, MN 55433",Minnesota,Coon Rapids,11000 Crooked Lake Blvd NW,55433,-93.3424745,45.1707519,,
farmers market,"Feb 22nd, 2023",default-farmersmarket-4-3.jpg,307646,Rockford Farmers' Market,,Colleen Wollbeck,Colleensgreens@gmail.com,612-867-8689,rockfordmarket.weebly.com,,,,,,,"6121 Main St, Rockford, MN 55373",Minnesota,Rockford,6121 Main St,55373,-93.7340753,45.0891762,,
farmers market,"Feb 22nd, 2023",default-farmersmarket-4-3.jpg,307647,Rogers Farmers' Market,,Kristen Scott,kscott@rogersmn.gov,763-428-0947,http://rogersmn.gov/farmers-market,,,,,,,"12724 Main St, Rogers, MN 55374",Minnesota,Rogers,12724 Main St,55374,-93.5519124,45.1869598,,
farmers market,"Feb 22nd, 2023",default-farmersmarket-4-3.jpg,307648,Rosemount Farmers' Market,,,info@stpaulfarmersmarket.com,651-227-8101,http://www.stpaulfarmersmarket.com/,,,,,,,"13885 S Robert Trail, Rosemount, MN 55068",Minnesota,Rosemount,13885 S Robert Trail,55068,-93.1274504,44.7478891,,
farmers market,"Feb 22nd, 2023",default-farmersmarket-4-3.jpg,307649,Rosemount Farmers' Market - Winter,,,info@stpaulfarmersmarket.com,651-227-8101,http://www.stpaulfarmersmarket.com/,,,,,,,"7955 150th St W, Apple Valley, MN 55124",Minnesota,Apple Valley,7955 150th St W,55124,-93.2238317,44.7319413,,
farmers market,"Feb 22nd, 2023",default-farmersmarket-4-3.jpg,307650,Roseville Farmers' Market,,,,,,,,,,,,"2131 Fairview Ave N, Roseville, MN 55113",Minnesota,Roseville,2131 Fairview Ave N,55113,-93.1772108,45.0044153,,
farmers market,"Feb 22nd, 2023",default-farmersmarket-4-3.jpg,307651,Savage Farmers' Market,,John Nietz,john.spfm@gmail.com,651-358-5581,,,,,,,,"4800 123rd St W, Savage, MN 55378",Minnesota,Savage,4800 123rd St W,55378,-93.3404064,44.7786633,,
farmers market,"Feb 22nd, 2023",default-farmersmarket-4-3.jpg,307652,Scandia Farmers' Market,,Sarah Porubcansky,scandiafarmersmarket@gmail.com,651-383-7351,http://scandiafarmersmarket.com/,,,,,,,"14727 209th St N, Scandia, MN 55073",Minnesota,Scandia,14727 209th St N,55073,-92.80663,45.250624,,
farmers market,"Feb 22nd, 2023",default-farmersmarket-4-3.jpg,307653,Securian Building Farmers' Market,,,,,https://www.stpaulfarmersmarket.com/,,,,,,,"400 Robert St N, St Paul, MN 55101",Minnesota,St Paul,400 Robert St N,55101,-93.092457,44.9479983,,
farmers market,"Feb 22nd, 2023",default-farmersmarket-4-3.jpg,307654,Seventh Place Mall Farmers' Market,,,,,,,,,,,,"W 7th Pl, St Paul, MN 55102",Minnesota,St Paul,W 7th Pl,55102,-93.096875,44.9469075,,
farmers market,"Feb 22nd, 2023",default-farmersmarket-4-3.jpg,307655,Shoreview Farmers' Market,,Stephanie Schutta,sschutta@shoreviewmn.gov,651-490-4734,http://www.shoreviewcommunitycenter.com/,,,,,,,"4580 Victoria St N, Shoreview, MN 55126",Minnesota,Shoreview,4580 Victoria St N,55126,-93.1317343,45.0805484,,
farmers market,"Feb 22nd, 2023",default-farmersmarket-4-3.jpg,307656,Shoreview Farmers' Market - Winter,,Stephanie Schutta,sschutta@shoreviewmn.gov,651-490-4734 ,http://www.shoreviewcommunitycenter.com/,,,,,,,"4580 Victoria St N, Shoreview, MN 55126",Minnesota,Shoreview,4580 Victoria St N,55126,-93.1317343,45.0805484,,
farmers market,"Feb 22nd, 2023",default-farmersmarket-4-3.jpg,307657,Signal Hill Farmers' Market,,,info@stpaulfarmersmarket.com,651-227-8101,,,,,,,,"1225 S Robert St, West St Paul, MN 55118",Minnesota,West St Paul,1225 S Robert St,55118,-93.0812385,44.9090044,,
farmers market,"Feb 22nd, 2023",default-farmersmarket-4-3.jpg,307658,South St. Paul Farmers' Market,,,info@stpaulfarmersmarket.com,651-227-8101,,,,,,,,"12th Ave N, South St Paul, MN 55075",Minnesota,South St Paul,12th Ave N,55075,-93.0487486,44.8965986,,
farmers market,"Feb 22nd, 2023",default-farmersmarket-4-3.jpg,307659,St. Francis Farmers' Market,,Lexie Tremble,alexa.tremble@allina.com,952-428-3106,,,,,,,,"1455 St Francis Ave, Shakopee, MN 55379",Minnesota,Shakopee,1455 St Francis Ave,55379,-93.50287,44.7710759,,
farmers market,"Feb 22nd, 2023",default-farmersmarket-4-3.jpg,307660,St. Luke's Farmers' Market,,Wendy Bjorklund,wlbjorklund@stcloudstate.edu,651-357-5742 ,www.saintlukechurch.org,,,,,,,"1807 Field Ave, St Paul, MN 55116",Minnesota,Highland Park,1807 Field Ave,55116,-93.1765979,44.9028401,,
farmers market,"Feb 22nd, 2023",default-farmersmarket-4-3.jpg,307661,St. Paul Farmers' Market,,,info@stpaulfarmersmarket.com,651-227-8101,www.stpaulfarmersmarket.com,,,,,,,"290 5th St E, St Paul, MN 55101",Minnesota,Lowertown,290 5th St E,55101,-93.0851336,44.9496697,,
farmers market,"Feb 22nd, 2023",default-farmersmarket-4-3.jpg,307662,Stevens Square Farmers' Market,,,,,,,,,,,,"2000 Nicollet Ave, Minneapolis, MN 55404",Minnesota,Powderhorn,2000 Nicollet Ave,55404,-93.2780351,44.9625464,,
farmers market,"Feb 22nd, 2023",default-farmersmarket-4-3.jpg,307663,Stillwater Minnestoa Farmers' Market,,Beverly Friendt,bfriendt@comcast.net,612-269-7193,,,,,,,,"3rd and Pine St, Stillwater, MN 55082",Minnesota,Stillwater,3rd and Pine St,55082,-92.807451,45.052295,,
farmers market,"Feb 22nd, 2023",default-farmersmarket-4-3.jpg,307664,Stillwater Minnesota Farmers' Market - Winter,,Beverly Friendt,bfriendt@comcast.net,612-269-7193,,,,,,,,"3rd and Pine St, Stillwater, MN 55082",Minnesota,Stillwater,3rd and Pine St,55082,-92.807451,45.052295,,
farmers market,"Feb 22nd, 2023",default-farmersmarket-4-3.jpg,307665,Sun Foods Farmers' Market,,,,651-209-3710,https://local.yahoo.com/info-52714517-sun-foods-st-paul,,,,,,,"544 University Ave W, St Paul, MN 55103",Minnesota,Summit - University,544 University Ave W,55103,-93.1239456,44.9548471,,
farmers market,"Feb 22nd, 2023",default-farmersmarket-4-3.jpg,307666,Sunday Market @ Dancing Bear Chocolate,,,DancingBearChocolate@gmail.com,612-963-1912,,,,,,,,"4367 N Thomas Ave, Minneapolis, MN 55412",Minnesota,Camden,4367 N Thomas Ave,55412,-93.3140056,45.0352272,,
farmers market,"Feb 22nd, 2023",default-farmersmarket-4-3.jpg,307667,The Food Group Farmers' Market,,Stephanie Wagner,swagner@thefoodgroupmn.org,763-450-3875,,,,,,,,"8501 54th Ave N, Minneapolis, MN 55428",Minnesota,Minneapolis,8501 54th Ave N,55428,-93.3882632,45.049507,,
farmers market,"Feb 22nd, 2023",default-farmersmarket-4-3.jpg,307668,The Little Market That Could™ | Smoke Signals™,,Rosemary Frank and Sheldon Bryant,sendingasmokesignal@gmail.com,612-214-8770,https://www.sendingasmokesignal.org/the-little-market-that-couldtrade.html,,,,,,,"16907 State Hwy 13, Prior Lake, MN 55372",Minnesota,Prior Lake,16907 State Hwy 13,55372,-93.4358011,44.7040373,,
farmers market,"Feb 22nd, 2023",default-farmersmarket-4-3.jpg,307669,The Neighborhood Market,,,agall@theneighborhoodmarket.org,612-290-3656,http://Www.theneighborhoodmarket.org/,,,,,,,"210 6th Avenue Northeast, Isanti, MN 55040",Minnesota,Isanti,210 6th Avenue NE,55040,-93.2357696,45.4922747,,
farmers market,"Feb 22nd, 2023",default-farmersmarket-4-3.jpg,307670,Thistle and Ivory Farmers' Market,,,,,,,,,,,,"21126 Davenport St NE, East Bethel, MN 55011",Minnesota,East Bethel,21126 Davenport St NE,55011,-93.2340209,45.3528934,,
farmers market,"Feb 22nd, 2023",default-farmersmarket-4-3.jpg,307671,Tiny Diner Farmers' Market,,Eleanor Heberlein,eleanor.h@tinydiner.com,612-767-3322,,,,,,,,"1024 E 38th St, Minneapolis, MN 55407",Minnesota,Powderhorn Park,1024 E 38th St,55407,-93.2591091,44.9344273,,
farmers market,"Feb 22nd, 2023",default-farmersmarket-4-3.jpg,307672,Twin Cities Mobile Market,,Stephanie Wagner,swagner@thefoodgroupmn.org,763-450-3875,,,,,,,,"8501 54th Ave N, Minneapolis, MN 55428",Minnesota,Minneapolis,8501 54th Ave N,55428,-93.3882632,45.049507,,
farmers market,"Feb 22nd, 2023",default-farmersmarket-4-3.jpg,307673,Waconia Farmers' Market,,Tracy Clos,tracyletty@gmail.com,,,,,,,,,"1st St and Spruce St, Waconia, MN 55387",Minnesota,Waconia,1st St and Spruce St,55387,-93.78316,44.849396,,
farmers market,"Feb 22nd, 2023",default-farmersmarket-4-3.jpg,307674,Wayzata Farmers' Market,,Debra Hoen,wayzatafarmersmarket@gmail.com,763-238-2702,http://www.wayzatafarmersmarket.com/,,,,,,,"850 Lake St N, Wayzata, MN 55391",Minnesota,Wayzata,850 Lake St N,55391,-93.506109,44.968528,,
farmers market,"Feb 22nd, 2023",default-farmersmarket-4-3.jpg,307675,West Broadway Farmers' Market,,DeVon Nolen,marketmanager@afcmn.org,612-588- 7611,http://www.westbroadway.org/farmersmarket,,,,,,,"2027 W Broadway Ave, Minneapolis, MN 55411",Minnesota,Willard-Hay,2027 W Broadway Ave,55411,-93.3063822,45.0023884,,
farmers market,"Feb 22nd, 2023",default-farmersmarket-4-3.jpg,307676,West Side Farmers' Market,,Molly Phipps,info@westsidefarmersmarket.net,651-398-4248,,,,,,,,"63 George St W, St Paul, MN 55107",Minnesota,Riverview,63 George St W,55107,-93.0878937,44.9298253,,
farmers market,"Feb 22nd, 2023",default-farmersmarket-4-3.jpg,307677,Woodbury Farmers' Market,,Bernadet St. Amant,info@stpaulfarmersmarket.com,651-227-8101,http://www.stpaulfarmersmarket.com/,,,,,,,"8595 Central Park Pl, Woodbury, MN 55125",Minnesota,Woodbury,8595 Central Park Pl,55125,-92.9321102,44.9165492,,
farmers market,"Feb 22nd, 2023",default-farmersmarket-4-3.jpg,307678,Woodbury Farmers' Market - Winter,,Bernadet St. Amant,info@stpaulfarmersmarket.com,651-227-8101,http://www.stpaulfarmersmarket.com/,,,,,,,"7955 150th St W, Apple Valley, MN 55124",Minnesota,Apple Valley,7955 150th St W,55124,-93.2238317,44.7319413,,
farmers market,"Feb 22nd, 2023",default-farmersmarket-4-3.jpg,307679,Woodbury Resurrection Farmers' Market,,Lisa John and Paul,farminfo@kinneyminifarms.com,651-890-9991,,,,,,,,"9925 Bailey Rd, Woodbury, MN 55129",Minnesota,Woodbury,9925 Bailey Rd,55129,-92.9048795,44.8898916,,
farmers market,"Feb 22nd, 2023",default-farmersmarket-4-3.jpg,307680,Appleton Farmers' Market,,Coleen,,320-297-0469,http://www.swiftcountyrda.com/move-to-swift/local-foods/farmer's-markets/p/event/16884/appleton-farmers-market?t=30242,,,,,,,"420 N Munsterman St, Appleton, MN 56208",Minnesota,Appleton,420 N Munsterman St,56208,-96.0210604,45.2037928,,
farmers market,"Feb 22nd, 2023",default-farmersmarket-4-3.jpg,307681,Benson Farmers' Market,,Cherie,firewomansd@yahoo.com,320-287-0769,,,,,,,,"1410 Kansas Ave, Benson, MN 56215",Minnesota,Benson,1410 Kansas Ave,56215,-95.602278,45.3141367,,
farmers market,"Feb 22nd, 2023",default-farmersmarket-4-3.jpg,307683,Brandt Gardens & Greenhouse,,,brandtgardens@gmail.com,507-662-5631,,,,,,,,"42283 760th St, Lakefield, MN 56150",Minnesota,Lakefield,42283 760th St,56150,-95.22825,43.5865719,,
farmers market,"Feb 22nd, 2023",default-farmersmarket-4-3.jpg,307684,Buffalo Lake Farmers' Market,,Tracie,tracie.haas@icloud.com,320-296-6292,,,,,,,,"400 E Yellowstone Trail, Buffalo Lake, MN 55314",Minnesota,Buffalo Lake,400 E Yellowstone Trail,55314,-94.6128787,44.7366244,,
farmers market,"Feb 22nd, 2023",default-farmersmarket-4-3.jpg,307686,Currie Farmers' Market,,Kimberly Ruppert,kimruppert18@gmail.com,507-829-6713,,,,,,,,"2001 State Hwy 30, Currie, MN 56123",Minnesota,Currie,2001 State Hwy 30,56123,-95.662701,44.0652498,,
farmers market,"Feb 22nd, 2023",default-farmersmarket-4-3.jpg,307689,Edgerton Farmers' Market,,Edgerton City Hall,,507-442-7891,https://www.edgertonmn.com/business/farmers_market.php,,,,,,,"741 Main St, Edgerton, MN 56128",Minnesota,Edgerton,741 Main St,56128,-96.1289047,43.8741245,,
farmers market,"Feb 22nd, 2023",default-farmersmarket-4-3.jpg,307690,Fairfax Farmers' Market,,Lori,,507-276-5044,,,,,,,,"15 1st St SE, Fairfax, MN 55332",Minnesota,Fairfax,15 1st St SE,55332,-94.719476,44.5289906,,
farmers market,"Feb 22nd, 2023",default-farmersmarket-4-3.jpg,307691,Farmers' Market in Windom MN,,Matt Miller,,507-822-6645,,,,,,,,"900 3rd Ave, Windom, MN 56101",Minnesota,Windom,900 3rd Ave,56101,-95.116947,43.865969,,
farmers market,"Feb 22nd, 2023",default-farmersmarket-4-3.jpg,307692,Glencoe Farmers' Market,,,,320-864-3650,,,,,,,,"615 11th St E, Glencoe, MN 55336",Minnesota,Glencoe,615 11th St E,55336,-94.1540157,44.7702949,,
farmers market,"Feb 22nd, 2023",default-farmersmarket-4-3.jpg,307693,Granite Falls Farmers' Market,,,,,https://www.granitefalls.com/community/farmer_s_market/index.php,,,,,,,"685 Prentice St, Granite Falls, MN 56241",Minnesota,Granite Falls,685 Prentice St,56241,-95.5374702,44.811451,,
farmers market,"Feb 22nd, 2023",default-farmersmarket-4-3.jpg,307694,Hector Farmers' Market,,LaVonne,,320-848-2195,,,,,,,,"Hwy 212 and County Rd 4, Hector, MN 55342",Minnesota,Hector,Hwy 212 and County Rd 4,55342,-94.714771,44.738678,,
farmers market,"Feb 22nd, 2023",default-farmersmarket-4-3.jpg,307695,Hendricks Farmers' Market,,,,,,,,,,,,"105 S Main St, Hendricks, MN 56136",Minnesota,Hendricks,105 S Main St,56136,-96.4253537,44.5068564,,
farmers market,"Feb 22nd, 2023",default-farmersmarket-4-3.jpg,307698,Ivanhoe Farmers' Market,,,,,,,,,,,,"112 E Railroad St, Ivanhoe, MN 56142",Minnesota,Ivanhoe,112 E Railroad St,56142,-96.2457602,44.464531,,
farmers market,"Feb 22nd, 2023",default-farmersmarket-4-3.jpg,307699,Kerkhoven Farmers' Market,,Kim,kerkhovenclerk@gmail.com,320-264-2581,,,,,,,,"Pillsbury Park, 301 6th St, Kerkhoven, MN 56252",Minnesota,Kerkhoven,301 6th St,56252,-95.3089499,45.1892302,,
farmers market,"Feb 22nd, 2023",default-farmersmarket-4-3.jpg,307700,Lake Shetek Farmers' Market,,Judy Hobart,,970-396-3979,,,,,,,,"Lake Shetek, MN",Minnesota,Lake Shetek,,56132,-95.726336,44.10923,,
farmers market,"Feb 22nd, 2023",default-farmersmarket-4-3.jpg,307702,Litchfield Community Farmers' Market,,Kathy Loveland and Cindy Rusch,cindy@ruschfarms.us,320-221-3990 ,,,,,,,,"Central Park, Litchfield, MN 55355",Minnesota,Litchfield,Central Park,55355,-94.5274801,45.1292628,,
farmers market,"Feb 22nd, 2023",default-farmersmarket-4-3.jpg,307703,Luverne Farmers' Market,,Corrine Bonnema,luvernechamber@co.rock.mn.us,507-920-3802 ,Www.luvernechamber.com,,,,,,,"Red Bird Rd, Luverne, MN 56156",Minnesota,Luverne,Red Bird Rd,56156,-96.2022415,43.6535687,,
farmers market,"Feb 22nd, 2023",default-farmersmarket-4-3.jpg,307704,Madison Farmers' Market,,,,,,,,,,,,"MN-40 & 1st St, Madison, MN 56256",Minnesota,Madison,MN-40 & 1st St,56256,-96.196063,45.0099115,,
farmers market,"Feb 22nd, 2023",default-farmersmarket-4-3.jpg,307705,Marshall Farmers' Market,,John C. Blake,market@marshallareaymca.org,507-828-2714,,,,,,,,"200 S A St, Marshall, MN 56258",Minnesota,Marshall,200 S A St,56258,-95.7877653,44.4439512,,
farmers market,"Feb 22nd, 2023",default-farmersmarket-4-3.jpg,307706,Montevideo Farmers' Market,,Pauline Stranlund,country_girlz@hotmail.com,320-841-1234,,,,,,,,"103 Canton Ave, Montevideo, MN 56265",Minnesota,Montevideo,103 Canton Ave,56265,-95.7275288,44.9486224,,
farmers market,"Feb 22nd, 2023",default-farmersmarket-4-3.jpg,307707,New London Farmers' Market,,Nancy Lohn,nanclohn@gmail.com,320-354-4561,https://www.willmarlakesarea.com/listings/new-london-farmers-market/,,,,,,,"37 1st Ave SW, New London, MN 56273",Minnesota,New London,37 1st Ave SW,56273,-94.9460066,45.3000905,,
farmers market,"Feb 22nd, 2023",default-farmersmarket-4-3.jpg,307708,Willmar Farmers' Market,,Beverly Doughtery,beverlydougherty@gmail.com,320-894-7901,https://openfoodnetwork.net/becker-market/shop#/contact,,,,,,,"414 Becker Ave SW, Willmar, MN 56201",Minnesota,Willmar,414 Becker Ave SW,56201,-95.0486055,45.120433,,
farmers market,"Feb 22nd, 2023",default-farmersmarket-4-3.jpg,307709,Farmers' Market at Robbin's Island,,,mnyouyouth@gmail.com,,,,,,,,,"Robbins Island, Hwy 71 S N, Willmar, MN 56201",Minnesota,Willmar,Robbins Island,56201,-95.034211,45.131251,,
farmers market,"Feb 22nd, 2023",default-farmersmarket-4-3.jpg,307710,Farmer's Market at Uptown Willmar,,,,320-235-1294,,,,,,,,"495 19th Ave SE, Willmar, MN 56201",Minnesota,Willmar,495 19th Ave SE,56201,-95.0382663,45.1041605,,
farmers market,"Feb 22nd, 2023",default-farmersmarket-4-3.jpg,307711,Olivia Farmers' Market,,Cathy,caseygardens@yahoo.com,320-522-1043,,,,,,,,"W Fairview Ave, Olivia, MN 56277",Minnesota,Olivia,9th St S and E Fairview Ave,56277,-94.989298,44.774553,,
farmers market,"Feb 22nd, 2023",default-farmersmarket-4-3.jpg,307712,Pipestone Farmers' Market,,Lisa Smith,,507-215-5703,,,,,,,,"207 Main St E, Pipestone, MN 56164",Minnesota,Pipestone,207 Main St E,56164,-96.3160445,44.0011832,,
farmers market,"Feb 22nd, 2023",default-farmersmarket-4-3.jpg,307713,Redwood Falls Farmers' Market,,Stacy Heiling,redwoodfarmersmarket@hotmail.com,,,,,,,,,"125 S Washington St, Redwood Falls, MN 56283",Minnesota,Redwood Falls,125 S Washington St,56283,-95.1176726,44.5411431,,
farmers market,"Feb 22nd, 2023",default-farmersmarket-4-3.jpg,307714,Riverside Farmers and Makers Market,,,,651-307-9083,,,,,,,,"Ashley Park, State St, Jackson, MN 56143",Minnesota,Jackson,State st and Riverside Dr,56143,-94.9855322,43.6251725,,
farmers market,"Feb 22nd, 2023",default-farmersmarket-4-3.jpg,307715,Ruperts Farmers' Market,,,,320-226-3299 ,,,,,,,,"149 1st Ave, Westbrook, MN 56183",Minnesota,Westbrook,149 1st Ave,56183,-95.4351311,44.0372046,,
farmers market,"Feb 22nd, 2023",default-farmersmarket-4-3.jpg,307716,Slayton Farmers' Market (on main st),,Dick Peterson,,507-227-1163,,,,,,,,"2610 Broadway Ave, Slayton, MN 56172",Minnesota,Slayton,2610 Broadway Ave,56172,-95.7568501,43.9875277,,
farmers market,"Feb 22nd, 2023",default-farmersmarket-4-3.jpg,307717,Slayton Farmers' Market (Hwy),,Judy Hobart,,970-396-3979,,,,,,,,"3020 20th St, Slayton, MN 56172",Minnesota,Slayton,3020 20th St,56172,-95.7491135,43.9925177,,
farmers market,"Feb 22nd, 2023",default-farmersmarket-4-3.jpg,307718,The Renville County Market in Bird Island,,Rosemary Glesener ,birdislandculture@gmail.com,320-365-1011,https://birdislandculture.com/the-renville-county-market/,,,,,,,"640 Dogwood Ave, Bird Island, MN 55310",Minnesota,Bird Island,640 Dogwood Ave,55310,-94.894333,44.7636246,,
farmers market,"Feb 22nd, 2023",default-farmersmarket-4-3.jpg,307719,The Renville County Markent in Bird Island - Winter,,Rosemary Glesener ,birdislandculture@gmail.com,320-365-1011,https://birdislandculture.com/the-renville-county-market/,,,,,,,"202 Main St N, Renville, MN 56284",Minnesota,Renville,202 Main St N,56284,-95.2123291,44.7902978,,
farmers market,"Feb 22nd, 2023",default-farmersmarket-4-3.jpg,307720,Walnut Grove Farmers' Market,,,,507-208-8892,,,,,,,,"451 8th St, Walnut Grove, MN 56180",Minnesota,Walnut Grove,451 8th St,56180,-95.4729071,44.2221038,,
farmers market,"Feb 22nd, 2023",default-farmersmarket-4-3.jpg,307721,Wheaton Farmers' Market,,Heidi Pilot,,612-390-1437,,,,,,,,"7th St S, Wheaton, MN 56296",Minnesota,Wheaton,7th St S,56296,-96.492704,45.8023161,,
farmers market,"Feb 22nd, 2023",default-farmersmarket-4-3.jpg,307722,Winsted Farmers' Market,,Kristen Miller,winstedmarket@gmail.com,952-843-3077,,,,,,,,"Winsted, MN 55395",Minnesota,Winsted,McLeod Ave. and 6th St,55395,-94.0546193,44.9623587,,
farmers market,"Feb 22nd, 2023",default-farmersmarket-4-3.jpg,307723,Worthington Farmers' Market,,Christine Bullerman,wcofc@worthingtonmnchamber.com,507-227-2917,,,,,,,,"1131 Oxford St, Worthington, MN 56187",Minnesota,Worthington,1131 Oxford St,56187,-95.5993955,43.6322087,,
farmers market,"Feb 22nd, 2023",default-farmersmarket-4-3.jpg,307727,Artisan Plaza Farmers' Market,,David Olsen,david@avalonexp.com,612-756-1751,https://www.facebook.com/Artisan-Plaza-Farmers-Market-157717014631962/,,,,,,,"1233 4th St S, Cannon Falls, MN 55009",Minnesota,Cannon Falls,1233 4th St S,55009,-92.9061659,44.4877894,,
farmers market,"Feb 22nd, 2023",default-farmersmarket-4-3.jpg,307728,Blue Earth Farmers' Market,,James Ryan,,515-257-1387,,,,,,,,"1210 Giant Dr, Blue Earth, MN 56013",Minnesota,Blue Earth,1210 Giant Dr,56013,-94.0968614,43.6534525,,
farmers market,"Feb 22nd, 2023",default-farmersmarket-4-3.jpg,307734,Dennison Farmers' Market,,Nancy Shannon,,507-789-5791,,,,,,,,"City Park, 37579 2nd Ave, Dennison, MN 55018",Minnesota,Dennison,37579 2nd Ave,55018,-93.03853,44.4053181,,
farmers market,"Feb 22nd, 2023",default-farmersmarket-4-3.jpg,307735,Dundas Farmers' Market,,,,,,,,,,,,"Mill Park, 101 Railway St S, Dundas, MN 55019",Minnesota,Dundas,101 Railway St S,55019,-93.2079421,44.428263,,
farmers market,"Feb 22nd, 2023",default-farmersmarket-4-3.jpg,307736,Eagle Lake Farmers' Market,,Tamie Lorentz,,,,,,,,,,"100 N 3rd St, Eagle Lake, MN 56024",Minnesota,Eagle Lake,100 N 3rd St,56024,-93.8830367,44.1654514,,
farmers market,"Feb 22nd, 2023",default-farmersmarket-4-3.jpg,307737,Ellendale Farmers' Market,,Lowis Conklyn,,507-684-2681,,,,,,,,"120 5th Ave, Ellendale, MN 56026",Minnesota,Ellendale,120 5th Ave,56026,-93.3007536,43.8732886,,
farmers market,"Feb 22nd, 2023",default-farmersmarket-4-3.jpg,307738,Elysian Farmers' Market,,Lorri Kopischke,elysianmainstreetvenue@gmail.com,507-521-2234,,,,,,,,"117 E Main St, Elysian, MN 56028",Minnesota,Elysian,117 E Main St,56028,-93.6741319,44.1984584,,
farmers market,"Feb 22nd, 2023",default-farmersmarket-4-3.jpg,307739,Elysain Farmers' Market - Winter,,Lorri Kopischke,elysianmainstreetvenue@gmail.com,507-521-2234,,,,,,,,"117 E Main St, Elysian, MN 56028",Minnesota,Elysian,117 E Main St,56028,-93.6741319,44.1984584,,
farmers market,"Feb 22nd, 2023",default-farmersmarket-4-3.jpg,307741,Fairmont Farmers' Market Association,,Anne Brown,fairmontmarketmanager@gmail.com,507-236-5888,,,,,,,,"1001 MN-15, Fairmont, MN 56031",Minnesota,Fairmont,1001 MN-15,56031,-94.4449016,43.6433148,,
farmers market,"Feb 22nd, 2023",default-farmersmarket-4-3.jpg,307742,Faribault Farmers' Market,,,,507-332-8283,,,,,,,,"430 2nd Ave NW, Faribault, MN 55021",Minnesota,Faribault,430 2nd Ave NW,55021,-93.2724299,44.2954678,,
farmers market,"Feb 22nd, 2023",default-farmersmarket-4-3.jpg,307743,Farmers' Market Place LLC (Austin),,Kirk and Mary Ulland,kirkulland@yahoo.com,507-438-3956,,,,,,,,"101 3rd Ave NE, Austin, MN 55912",Minnesota,Austin,101 3rd Ave NE,55912,-92.9623234,43.669107,,
farmers market,"Feb 22nd, 2023",default-farmersmarket-4-3.jpg,307745,Gaylord Farmers' Market,,Crista Bock,dcbockfarm@gmail.com,507-351-3043,,,,,,,,"W Main St, Gaylord, MN 55334",Minnesota,Gaylord,W Main St,55334,-94.2252106,44.5530825,,
farmers market,"Feb 22nd, 2023",default-farmersmarket-4-3.jpg,307746,Gibbon Farmers' Market,,Sue Bentz,,507-381-3685,,,,,,,,"Hwy 19, Gibbon, MN, 55335",Minnesota,Gibbon,HWY 19,55335,-94.521897,44.535529,,
farmers market,"Feb 22nd, 2023",default-farmersmarket-4-3.jpg,307749,Henderson Farmers' Market,,Josh Rinetz,josh@easthendersonfarm.com,612-756-3971,,,,,,,,"523 Main St, Henderson, MN 56044",Minnesota,Henderson,523 Main St,56044,-93.9078882,44.5280192,,
farmers market,"Feb 22nd, 2023",default-farmersmarket-4-3.jpg,307752,Kiester Farmers' Market,,Judy Mayer,kiestermarket@frontier.com,507- 294-7522,,,,,,,,"131 S Main St, Kiester, MN 56051",Minnesota,Kiester,131 S Main St,56051,-93.7119156,43.5363011,,
farmers market,"Feb 22nd, 2023",default-farmersmarket-4-3.jpg,307753,KNUJ Farmers' Market - Thursday,,Amanda Erickson,amanda@knuj.net,507-359-2921,https://knuj.net/farmers-market/,,,,,,,"1220 Westridge Rd, New Ulm, MN 56073",Minnesota,New Ulm,1220 Westridge Rd,56073,-94.4903579,44.3281387,,
farmers market,"Feb 22nd, 2023",default-farmersmarket-4-3.jpg,307754,KNUJ Farmers' Market - Saturday,,Amanda Erickson,amanda@knuj.net,507-359-2921,https://knuj.net/farmers-market/,,,,,,,"200 N German St, New Ulm, MN 56073",Minnesota,New Ulm,200 N German St,56073,-94.4590577,44.3166156,,
farmers market,"Feb 22nd, 2023",default-farmersmarket-4-3.jpg,307800,Zumbrota Farmers' Market,,Stephen Jennebach,zumbrotafarmersmarket@gmail.com,507-272-7885,,,,,,,,"East Park, E 6th St, Zumbrota, MN 55992",Minnesota,Zumbrota,E 6th St,55992,-92.6674871,44.2912758,,
farmers market,"Feb 22nd, 2023",default-farmersmarket-4-3.jpg,307813,Aicho’s Indigenous Food and Art Market,,,,,https://www.indigenousfirst.org/general-6,,,,,,,"12 E 4th St, Duluth, MN 55805",Minnesota,Central Hillside,12 E 4th St,55805,-92.1017998,46.7897363,,
farmers market,"Feb 22nd, 2023",default-farmersmarket-4-3.jpg,307904,Isle Area Farmers' Market,,Paul Venhisen,,612-875-7668,,,,,,,,"42099 State Hwy 47, Isle, MN 56342",Minnesota,Isle,42099 State Hwy 47,56342,-93.4632246,46.1561426,,
farmers market,"Feb 22nd, 2023",default-farmersmarket-4-3.jpg,307905,Little Falls Farmers' Market,,Brad Pederson,bhped154@gmail.com,320-632-2957,www.littlefallsfarmersmarket.com,,,,,,,"505 Broadway, Little Falls, MN 56345",Minnesota,Little Falls,505 Broadway,56345,-94.3550831,45.9756193,,
farmers market,"Feb 22nd, 2023",default-farmersmarket-4-3.jpg,307906,Melrose Community Farmers' Market,,Sara Hoffner,melrosechamber@outlook.com,,,,,,,,,"105 E Main St, Melrose, MN 56352",Minnesota,Melrose,105 E Main St,56352,-94.8124779,45.6753223,,
farmers market,"Feb 22nd, 2023",default-farmersmarket-4-3.jpg,307907,Milaca Farmer's Market & Boutique,,Shawnna Schmidt and Albino Bee Love,MilacaFarmersMarketandBoutique@Gmail.com,320-260-2286,www.MilacaFarmersMarket.com,,,,,,,"1000 5th St SE, Milaca, MN 56353",Minnesota,Milaca,1000 5th St SE,56353,-93.6312023,45.7586712,,
farmers market,"Feb 22nd, 2023",default-farmersmarket-4-3.jpg,307908,Milaca Farmers' Market & Boutique - Winter,,Shawnna Schmidt and Albino Bee Love,MilacaFarmersMarketandBoutique@Gmail.com,320-260-2286,www.MilacaFarmersMarket.com,,,,,,,"1000 5th St SE, Milaca, MN 56353",Minnesota,Milaca,1000 5th St SE,56353,-93.6312023,45.7586712,,
farmers market,"Feb 22nd, 2023",default-farmersmarket-4-3.jpg,307909,Onamia Area Farmers' Market,,Sean Little,onamiafarmersmarket@gmail.com,,http://www.onamia.com/onamiafarmersmarket,,,,,,,"108 Wall St, Onamia, MN 56359",Minnesota,Onamia,108 Wall St,56359,-93.6591812,46.0719151,,
farmers market,"Feb 22nd, 2023",default-farmersmarket-4-3.jpg,307910,Paynesville Farmers' Market,,,,320-243-1675,,,,,,,,"122 W James St, Paynesville, MN 56362",Minnesota,Paynesville,122 W James St,56362,-94.7148875,45.3821829,,
farmers market,"Feb 22nd, 2023",default-farmersmarket-4-3.jpg,307911,Princeton - Zimmerman Farmers' Market,,Ben Wood,pzfma@hotmail.com,763-389-7098,https://www.pzfarmersmarket.org/,,,,,,,"101 S Rum River Dr, Princeton, MN 55371",Minnesota,Princeton,101 S Rum River Dr,55371,-93.5803125,45.5699049,,
farmers market,"Feb 22nd, 2023",default-farmersmarket-4-3.jpg,307912,Princeton - Zimmerman Farmers' Market - Winter,,Ben Wood,pzfma@hotmail.com,763-389-7098,https://www.pzfarmersmarket.org/,,,,,,,"101 S Rum River Dr, Princeton, MN 55371",Minnesota,Princeton,101 S Rum River Dr,55371,-93.5803125,45.5699049,,
farmers market,"Feb 22nd, 2023",default-farmersmarket-4-3.jpg,307913,Rice Area Farmers' Market,,Jennifer Popp,jspopp@cbburnet.com,320-309-9218,https://www.ricemn.us/wp-content/uploads/2020/05/RICE-FARMERS-MARKET-GUIDELINES-2020.pdf,,,,,,,"10 Division St N, Rice, MN 56367",Minnesota,Rice,10 Division St N,56367,-94.2194465,45.7526595,,
farmers market,"Feb 22nd, 2023",default-farmersmarket-4-3.jpg,307914,Richmond Farmers' Market,,Laura Thomes,blpirkl@hotmail.com,320-293-3599,,,,,,,,"388 4th St SW, Richmond, MN 56368",Minnesota,Richmond,388 4th St SW,56368,-94.5206882,45.4493323,,
farmers market,"Feb 22nd, 2023",default-farmersmarket-4-3.jpg,307915,Sartell Farmers' Market,,Allen Feldeverd,,320-250-1010,,,,,,,,"850 19th St S, Sartell, MN 56377",Minnesota,Sartell,850 19th St S,56377,-94.2192001,45.5941027,,
farmers market,"Feb 22nd, 2023",default-farmersmarket-4-3.jpg,307916,Sartell Farmers' Market - Winter,,Allen Feldeverd,,320-250-1010,,,,,,,,"850 19th St S, Sartell, MN 56377",Minnesota,Sartell,850 19th St S,56377,-94.2192001,45.5941027,,
farmers market,"Feb 22nd, 2023",default-farmersmarket-4-3.jpg,307917,Sauk Centre Farmers' Market,,Allan Ahrens,scfarmersmkt@gmail.com,320-493-3446,,,,,,,,"1181 Main St S, Sauk Centre, MN 56378",Minnesota,Sauk Centre,1181 Main St S,56378,-94.9508784,45.7248968,,
farmers market,"Feb 22nd, 2023",default-farmersmarket-4-3.jpg,307919,St. Cloud Area Farmers' Market,,Robin Heinen and Erik Thorson,stcloudfarmersmarket@gmail.com,320-249-7335,http://www.stcloudfarmersmarket.com/,,,,,,,"198 7th Ave S, St Cloud, MN 56301",Minnesota,St Cloud,198 7th Ave S,56301,-94.158696,45.5583135,,
farmers market,"Feb 22nd, 2023",default-farmersmarket-4-3.jpg,307920,St. Cloud Harvest Market,,Randy Maile and Chris Montan,scwphm@gmail.com,320-267-0871,www.scwphm.com,,,,,,,"113 Waite Ave N, Waite Park, MN 56387",Minnesota,Waite Park,113 Waite Ave N,56387,-94.2155763,45.551317,,
farmers market,"Feb 22nd, 2023",default-farmersmarket-4-3.jpg,307921,St. Joseph Farmers' Market,,Kate Ritger,stjosephfarmersmarket@gmail.com ,320-433-0068,http://www.stjosephfarmersmarket.com/,,,,,,,"610 County Rd 2, St Joseph, MN 56374",Minnesota,St Joseph,610 County Rd 2,56374,-94.3173898,45.5712675,,
farmers market,"Feb 22nd, 2023",default-farmersmarket-4-3.jpg,307922,St. Joseph Farmers' Market - Winter,,Kate Ritger,stjosephfarmersmarket@gmail.com ,320-433-0068,http://www.stjosephfarmersmarket.com/,,,,,,,"610 County Rd 2, St Joseph, MN 56374",Minnesota,St Joseph,610 County Rd 2,56374,-94.3173898,45.5712675,,
farmers market,"Feb 22nd, 2023",default-farmersmarket-4-3.jpg,307923,Albertville Farmers' Market,,Connie and LeRoy,albfarmers@aol.com,763-497-0145,http://www.ci.albertville.mn.us/2016-farmers-market,,,,,,,"11400 58th St NE, Albertville, MN 55301",Minnesota,Albertville,11400 58th St NE,55301,-93.655293,45.2362765,,
farmers market,"Feb 22nd, 2023",default-farmersmarket-4-3.jpg,307924,Aldrich Arena Farmers' Market,,,,,,,,,,,,"1850 White Bear Ave, Maplewood, MN 55109",Minnesota,Maplewood,1850 White Bear Ave,55109,-93.0231684,44.9969846,,
farmers market,"Feb 22nd, 2023",default-farmersmarket-4-3.jpg,307925,Aldrich Arena Farmers' Market - Winter,,,,,,,,,,,,"290 5th St E, St Paul, MN 55101",Minnesota,Lowertown,290 5th St E,55101,-93.0851336,44.9496697,,
farmers market,"Feb 22nd, 2023",default-farmersmarket-4-3.jpg,307926,American Legion Farmers' Market,,Jerry,Shakopeelegion@gmail.com,612-245-0476,american-legion-post-2.myfreesites.net,,,,,,,"1266 1st Ave E, Shakopee, MN 55379",Minnesota,Shakopee,1266 1st Ave E,55379,-93.5097076,44.8001118,,
farmers market,"Feb 22nd, 2023",default-farmersmarket-4-3.jpg,307927,Andover Farmers' Market,,,,,,,,,,,,"13655 Round Lake Blvd NW, Andover, MN 55304",Minnesota,Andover,13655 Round Lake Blvd NW,55304,-93.3563232,45.2189137,,
farmers market,"Feb 22nd, 2023",default-farmersmarket-4-3.jpg,307928,"Anoka County Growers Association (Anoka, Blaine, Coon Rapids)",,Larry Golyer,lwgolyer@gmail.com,763-607-2267,,,,,,,,"11000 Crooked Lake Blvd NW, Coon Rapids, MN 55433",Minnesota,Coon Rapids,11000 Crooked Lake Blvd NW,55433,-93.3424745,45.1707519,,
farmers market,"Feb 22nd, 2023",default-farmersmarket-4-3.jpg,307930,Annandale Farmers' Market,,Corry Bregendahl,corrybregendahl@gmail.com,,https://www.annandalefarmersmarket.com/,,,,,,,"30 Cedar St E, Annandale, MN 55302",Minnesota,Annandale,30 Cedar St E,55302,-94.1234229,45.2637988,,
farmers market,"Feb 22nd, 2023",default-farmersmarket-4-3.jpg,307931,Annandale Farmers' Market - Winter,,Corry Bregendahl,corrybregendahl@gmail.com,,https://www.annandalefarmersmarket.com/,,,,,,,"13835 51st Ave, South Haven, MN",Minnesota,South Haven,13835 51st Ave,55382,-94.2169869,45.3235168,,
farmers market,"Feb 22nd, 2023",default-farmersmarket-4-3.jpg,307932,Apple Valley Farmers' Market,,,,,,,,,,,,"7100 147th St W, Apple Valley, MN 55124",Minnesota,Apple Valley,7100 147th St W,55124,-93.2089626,44.7347157,,
farmers market,"Feb 22nd, 2023",default-farmersmarket-4-3.jpg,307936,Bayport Farmers' Market,,,,,http://www.bayportfarmersmarket.com/,,,,,,,"Perro Creek Park, 374 2nd St N, Bayport, MN 55003",Minnesota,Bayport,374 2nd St N,55003,-92.7795784,45.0193188,,
farmers market,"Feb 22nd, 2023",default-farmersmarket-4-3.jpg,307937,Belle Plaine Farmers' Market,,Jenny Horejsi,,952-456-1212 ,,,,,,,,"235 S Ash St, Belle Plaine, MN 56011",Minnesota,Belle Plaine,235 S Ash St,56011,-93.7588896,44.6193833,,
farmers market,"Feb 22nd, 2023",default-farmersmarket-4-3.jpg,307938,Big Red Barn Farmers' Market,,TJ Malaskee,Director@maplewoodhistoricalsociety.org,651-748-8645,,,,,,,,"2170 Co Rd E East, White Bear Lake, MN 55110",Minnesota,White Bear Lake,2170 Co Rd E East,55110,-93.0090063,45.0498571,,
farmers market,"Feb 22nd, 2023",default-farmersmarket-4-3.jpg,307943,Braham Farmers' Market,,Dan Loerzel and Jean Loerzel ,jealoe5@gmail.com,651-285-3312 ,,,,,,,,"121 Main St S, Braham, MN 55006",Minnesota,Braham,121 Main St S,55006,-93.1704476,45.7244274,,
farmers market,"Feb 22nd, 2023",default-farmersmarket-4-3.jpg,307944,Brooklyn Center  Thursday Farmers' Market,,,,612-382-8883,,,,,,,,"7200 Brooklyn Blvd, Brooklyn Center, MN 55429",Minnesota,Brooklyn Center,7200 Brooklyn Blvd,55429,-93.3415776,45.0851509,,
farmers market,"Feb 22nd, 2023",default-farmersmarket-4-3.jpg,307945,Brooklyn Park Farmers' Market,,Kelly Mertes,Kelly.Mertes@brooklynpark.org,763-493-8333,https://www.brooklynpark.org/farmersmarket/,,,,,,,"5600 85th Ave N, Brooklyn Park, MN 55443",Minnesota,Brooklyn Park,5600 85th Ave N,55443,-93.3531026,45.1106783,,
farmers market,"Feb 22nd, 2023",default-farmersmarket-4-3.jpg,307946,Buffalo Farmers' Market,,Pamela Lee and Jeff Gardner,buffalofarmersmarket@gmail.com ,763-464-2565,http://www.buffalofarmersmarket.com/,,,,,,,"100 1st Ave NE, Buffalo, MN 55313",Minnesota,Buffalo,100 1st Ave NE,55313,-93.8744539,45.1732347,,
farmers market,"Feb 22nd, 2023",default-farmersmarket-4-3.jpg,307947,Buffalo Farmers' Market - Winter,,Pamela Lee and Jeff Gardner,buffalofarmersmarket@gmail.com ,763-464-2565,http://www.buffalofarmersmarket.com/,,,,,,,"206 Central Ave, Buffalo, MN 55313",Minnesota,Buffalo,206 Central Ave,55313,-93.8757188,45.1745467,,
farmers market,"Feb 22nd, 2023",default-farmersmarket-4-3.jpg,307948,Burnsville Farmers' Market - Parkway,,Bernadet ,info@stpaulfarmersmarket.com,651-261-7104 ,https://yanceycountyfarmersmarket.wordpress.com/,,,,,,,"200 Burnsville Pkwy, Burnsville, MN 55337",Minnesota,Burnsville,200 Burnsville Pkwy,55337,-93.2817813,44.7726843,,
farmers market,"Feb 22nd, 2023",default-farmersmarket-4-3.jpg,307949,Burnsville Farmers' Market - Mother Mary Church,,Bernadet ,info@stpaulfarmersmarket.com,651-261-7104,https://yanceycountyfarmersmarket.wordpress.com/,,,,,,,"333 Cliff Rd E, Burnsville, MN 55337",Minnesota,Burnsville,333 Cliff Rd E,55337,-93.272562,44.7872482,,
farmers market,"Feb 22nd, 2023",default-farmersmarket-4-3.jpg,307950,Burnsville Farmers' Market - Winter,,Bernadet ,info@stpaulfarmersmarket.com,651-261-7104 ,https://yanceycountyfarmersmarket.wordpress.com/,,,,,,,"7955 150th St W, Apple Valley, MN 55124",Minnesota,Apple Valley,7955 150th St W,55124,-93.2238317,44.7319413,,
farmers market,"Feb 22nd, 2023",default-farmersmarket-4-3.jpg,307954,Centerville Main St Market,,City Coordinator,Tbender@centervillemn.com,651-792-7930,https://www.centervillemn.com/,,,,,,,"7098 Centerville Rd, Centerville, MN 55038",Minnesota,Centerville,7098 Centerville Rd,55038,-93.0559715,45.1637955,,
farmers market,"Feb 22nd, 2023",default-farmersmarket-4-3.jpg,307958,Chaska Downtown Farmers' Market / SouthWest Metro Chamber of Commerce,,Autumn Kaye,adkaye@mchsi.com,612-619-0558,http://business.swmetrochamber.com/events/details/chaska-downtown-farmer-s-market-2017-8216,,,,,,,"300 N Chestnut St, Chaska, MN 55318",Minnesota,Chaska,300 N Chestnut St,55318,-93.6002151,44.786904,,
farmers market,"Feb 22nd, 2023",default-farmersmarket-4-3.jpg,307963,City of White Bear Lake Farmers' Market,,Mary Helmerick,mhelmerick@whitebearlake.org,651-747-3655,http://www.whitebearlake.org/,,,,,,,"4711 Clark Ave, White Bear Lake, MN 55110",Minnesota,White Bear Lake,4711 Clark Ave,55110,-93.010557,45.0837718,,
farmers market,"Feb 22nd, 2023",default-farmersmarket-4-3.jpg,307965,Community Celebration at Frogtown Farm,,,info@frogtownfarm.org,651-600-3414,http://frogtownfarm.org/,,,,,,,"941 Lafond Ave d, St Paul, MN 55104",Minnesota,East Midway,941 Lafond Ave,55104,-93.1399212,44.9609612,,
farmers market,"Feb 22nd, 2023",default-farmersmarket-4-3.jpg,307971,Eden Prairie Indoor Farmers' Market - Eden Prairie,,,,,,,,,,,,"770 Prairie Center Dr, Eden Prairie, MN 55344",Minnesota,Eden Prairie,770 Prairie Center Dr,55344,-93.4352433,44.8581218,,
farmers market,"Feb 22nd, 2023",default-farmersmarket-4-3.jpg,307972,Eden Prairie Indoor Farmers' Market - Plymoth,,,,,,,,,,,,"10050 6th Ave N, Plymouth, MN 55441",Minnesota,Plymouth,10050 6th Ave N,55441,-93.4081154,44.9846056,,
farmers market,"Feb 22nd, 2023",default-farmersmarket-4-3.jpg,307977,Field Good Garden and Market,,Christie Wood,cwood@hartmancompanies.com,612-849-5175,http://gc.hartmancompanies.com/,,,,,,,"8099 Bavaria Rd, Victoria, MN 55386",Minnesota,Victoria,8099 Bavaria Rd,55386,-93.6341894,44.8604167,,
farmers market,"Feb 22nd, 2023",default-farmersmarket-4-3.jpg,307978,Forest Lake Farmer's Market,,Jamie Muscha,jamie.muscha@ci.forest-lake.mn.us,651-209-9723,cityofforestlake.com,,,,,,,"95 East Broadway Avenue, Forest Lake, MN 55025",Minnesota,Forest Lake,95 East Broadway Avenue,55025,-92.9846148,45.2790932,,
farmers market,"Feb 22nd, 2023",default-farmersmarket-4-3.jpg,307980,Franconia Art & Farmers' Market,,Sarah Buezis,info@franconia.org,651-257-6668,https://www.franconia.org/farmers-market/,,,,,,,"29836 St Croix Trail N, Shafer, MN 55074",Minnesota,Shafer,29836 St Croix Trail N,55074,-92.7053539,45.3808004,,
farmers market,"Feb 22nd, 2023",default-farmersmarket-4-3.jpg,307981,Franconia Art & Farmers' Market - Winter,,Sarah Buezis,info@franconia.org,651-257-6668,https://www.franconia.org/farmers-market/,,,,,,,"29836 St Croix Trail N, Shafer, MN 55074",Minnesota,Shafer,29836 St Croix Trail N,55074,-92.7053539,45.3808004,,
farmers market,"Feb 22nd, 2023",default-farmersmarket-4-3.jpg,307986,Harris Farmers' Market,,Randy Carlson,Harrismarket@outlook.com,612-770-6805,https://harrisfarmersmarket.webs.com/,,,,,,,"43900 Forest Blvd, Harris, MN 55032",Minnesota,Harris,43900 Forest Blvd,55032,-92.9748387,45.5848426,,
farmers market,"Feb 22nd, 2023",default-farmersmarket-4-3.jpg,307987,Hastings Farm Market,,LuAnn McNamara,lulumac54@aol.com,651-208-0292,http://www.hastingsfarmmarket.com/,,,,,,,"1355 S Frontage Rd, Hastings, MN 55033",Minnesota,Hastings,1355 S Frontage Rd,55033,-92.879106,44.7371534,,
farmers market,"Feb 22nd, 2023",default-farmersmarket-4-3.jpg,307988,HealthPartners Clinic Stillwater,,Jane McMullen,jane.m.mcmullen@healthpartners.com,651-439-1234,,,,,,,,"1500 Curve Crest Blvd, Stillwater, MN 55082",Minnesota,Stillwater,1500 Curve Crest Blvd,55082,-92.8296023,45.0419041,,
farmers market,"Feb 22nd, 2023",default-farmersmarket-4-3.jpg,307989,HeightsFEST,,Michele Schluender,,218-269-3967,http://www.heightsnext.org/,,,,,,,"4034 Monroe St NE, Minneapolis, MN 55421",Minnesota,Minneapolis,4034 Monroe St NE,55421,-93.2527201,45.0419594,,
farmers market,"Feb 22nd, 2023",default-farmersmarket-4-3.jpg,307990,Hmong Village Farmers' Market,,,info@hmongvillagemn.com,651-771-7886,,,,,,,,"1001 Johnson Pkwy, St Paul, MN 55106",Minnesota,Dayton's Bluff,1001 Johnson Pkwy,55106,-93.0447786,44.9716473,,
farmers market,"Feb 22nd, 2023",default-farmersmarket-4-3.jpg,307991,Hmongtown Marketplace Farmers' Market,,,nouimp@hotmail.com,651-487-3700,http://www.hmongtownmarketplace.com/,,,,,,,"217 Como Ave, St Paul, MN 55103",Minnesota,North Frogtown,217 Como Ave,55103,-93.1093696,44.9612,,
farmers market,"Feb 22nd, 2023",default-farmersmarket-4-3.jpg,307994,House of Hope Farmers' Market,,,info@stpaulfarmersmarket.com,651-227-8101,,,,,,,,"797 Summit Ave, St Paul, MN 55105",Minnesota,Summit - University,797 Summit Ave,55105,-93.133193,44.9419151,,
farmers market,"Feb 22nd, 2023",default-farmersmarket-4-3.jpg,307997,Inver Grove Heights Farmers' Market,,,info@stpaulfarmersmarket.com,651-554-3452,http://www.stpaulfarmersmarket.com/,,,,,,,"8055 Barbara Ave, Inver Grove Heights, MN 55077",Minnesota,Inver Grove Heights,8055 Barbara Ave,55077,-93.0640405,44.8322239,,
farmers market,"Feb 22nd, 2023",default-farmersmarket-4-3.jpg,307998,Jackson Plaza Farmers' Market,,,,,,,,,,,,"375 Jackson St, St Paul, MN 55101",Minnesota,Core,375 Jackson St,55101,-93.0901449,44.9482958,,
farmers market,"Feb 22nd, 2023",default-farmersmarket-4-3.jpg,307999,Jordan Farmers' Market,,,,,,,,,,,,"225 Water St, Jordan, MN 55352",Minnesota,Jordan,225 Water St,55352,-93.6265156,44.6655405,,
farmers market,"Feb 22nd, 2023",default-farmersmarket-4-3.jpg,308000,Keg and Case Farmers' Market,,,,,http://linkin.bio/kegandcasemn,,,,,,,"928 7th St W, St Paul, MN 55102",Minnesota,West Seventh - Fort Road,928 7th St W,55102,-93.1247292,44.9285888,,
farmers market,"Feb 22nd, 2023",default-farmersmarket-4-3.jpg,308003,Lake Elmo Farmers' Market,,Jill Lundgren,pottingshedpottery@gmail.com,651-261-4493,,,,,,,,"11030 Stillwater Blvd, Lake Elmo, MN 55042",Minnesota,Lake Elmo,11030 Stillwater Blvd,55042,-92.8822201,45.0021479,,
farmers market,"Feb 22nd, 2023",default-farmersmarket-4-3.jpg,308004,Lakeview Terrace Farmers' Market,,Chaz,,,,,,,,,,"3769 Crystal Lake Blvd, Robbinsdale, MN 55422",Minnesota,Robbinsdale,3769 Crystal Lake Blvd,55422,-93.324887,45.0211477,,
farmers market,"Feb 22nd, 2023",default-farmersmarket-4-3.jpg,308005,Lakeville Area Arts Center Farmers' Market,,,,,,,,,,,,"20965 Holyoke Ave, Lakeville, MN 55044",Minnesota,Lakeville,20965 Holyoke Ave,55044,-93.2434352,44.6454503,,
farmers market,"Feb 22nd, 2023",default-farmersmarket-4-3.jpg,308006,Lakeville Farmers' Market (Market Plaza),,,,,,,,,,,,"20851 Holyoke Ave, Lakeville, MN 55044",Minnesota,Lakeville,20851 Holyoke Ave,55044,-93.2430818,44.6475506,,
farmers market,"Feb 22nd, 2023",default-farmersmarket-4-3.jpg,308007,Lexington Fire & Rescue Auxiliary Farmers' Market,,Julie VanderBloomer,jvanderbloomer@comcast.net,651-356-9491,,,,,,,,"9271 Lake Dr, Circle Pines, MN 55014",Minnesota,Circle Pines,9271 Lake Dr,55014,-93.1654529,45.1402227,,
farmers market,"Feb 22nd, 2023",default-farmersmarket-4-3.jpg,308008,Linden Hills Farmers' Market,,Libby Wyrum,brightsidempls@gmail.com,612-867-0854,www.lindenhillsfarmersmarket.org,,,,,,,"2813 W 43rd St, Minneapolis, MN 55410",Minnesota,Southwest Minneapolis,2813 W 43rd St,55410,-93.3155215,44.924534,,
farmers market,"Feb 22nd, 2023",default-farmersmarket-4-3.jpg,308009,Lindstorm Farmers' Market,,,,,,,,,,,,"13060 Lake Blvd, Lindstrom, MN 55045",Minnesota,Lindstrom,13060 Lake Blvd,55045,-92.842314,45.3920949,,
farmers market,"Feb 22nd, 2023",default-farmersmarket-4-3.jpg,308010,Little Canada Farmers' Market,,Claire Hoffman and Bryce Shearen,claire.hoffman@littlecanadamn.org,651-766-4042,https://www.littlecanadamn.org/192/Farmers-Market,,,,,,,"2920 Rice St, Little Canada, MN 55113",Minnesota,Little Canada,2920 Rice St,55113,-93.1054461,45.0288435,,
farmers market,"Feb 22nd, 2023",default-farmersmarket-4-3.jpg,308011,Maple Grove Farmers' Market,,Mao Lee,farmersmarket@maplegrovemn.gov,763-494-5955,http://www.maplegrovefarmersmarket.com/,,,,,,,"12951 Weaver Lake Rd, Maple Grove, MN 55369",Minnesota,Maple Grove,12951 Weaver Lake Rd,55369,-93.4414074,45.1034454,,
farmers market,"Feb 22nd, 2023",default-farmersmarket-4-3.jpg,308012,Maple Grove Farmers' Market - Winter,,Mao Lee,farmersmarket@maplegrovemn.gov,763-494-5955,http://www.maplegrovefarmersmarket.com/,,,,,,,"12951 Weaver Lake Rd, Maple Grove, MN 55369",Minnesota,Maple Grove,12951 Weaver Lake Rd,55369,-93.4414074,45.1034454,,
farmers market,"Feb 22nd, 2023",default-farmersmarket-4-3.jpg,308013,Mahtomedi Area Farmers' Market,,Heather LaValle-Tumbleson,Mahtomedifarmersmarket@gmail.com,612-867-6853,,,,,,,,"Triangle Park, Mahtomedi Ave, Mahtomedi, MN 55115",Minnesota,Mahtomedi,Mahtomedi Ave,55115,-92.9590885,45.0570248,,
farmers market,"Feb 22nd, 2023",default-farmersmarket-4-3.jpg,308014,Market in the Valley,,Linda Loomis,marketinthevalley@gmail.com,612-440-2648,http://www.marketinthevalley.org/,,,,,,,"7800 Golden Valley Rd, Golden Valley, MN 55427",Minnesota,Golden Valley,7800 Golden Valley Rd,55427,-93.3792601,44.9860925,,
farmers market,"Feb 22nd, 2023",default-farmersmarket-4-3.jpg,308015,Market in the Valley - Winter,,Linda Loomis,marketinthevalley@gmail.com,612-440-2648,http://www.marketinthevalley.org/,,,,,,,"7800 Golden Valley Rd, Golden Valley, MN 55427",Minnesota,Golden Valley,7800 Golden Valley Rd,55427,-93.3792601,44.9860925,,
farmers market,"Feb 22nd, 2023",default-farmersmarket-4-3.jpg,308016,Midtown Farmers' Market,,,,,,,,,,,,"2225 E Lake St, Minneapolis, MN 55407",Minnesota,Powderhorn,2225 E Lake St,55407,-93.2392721,44.9477072,,
farmers market,"Feb 22nd, 2023",default-farmersmarket-4-3.jpg,308017,Mill City Farmers' Market,,Jenny Heck,info@millcityfarmersmarket.org,612-341-7580,www.millcityfarmersmarket.org,,,,,,,"704 S 2nd St, Minneapolis, MN 55401",Minnesota,Central Minneapolis,704 S 2nd St,55401,-93.2573427,44.9786818,,
farmers market,"Feb 22nd, 2023",default-farmersmarket-4-3.jpg,308018,Mill City Farmers' Market - Winter,,Jenny Heck,info@millcityfarmersmarket.org,612-341-7580,www.millcityfarmersmarket.org,,,,,,,"704 S 2nd St, Minneapolis, MN 55401",Minnesota,Central Minneapolis,704 S 2nd St,55401,-93.2573427,44.9786818,,
farmers market,"Feb 22nd, 2023",default-farmersmarket-4-3.jpg,308019,Minneapolis Farmers' Market - Lyndale Market,,Ashley Nathe,mplsfarmersmarket@gmail.com,,https://www.mplsfarmersmarket.com/FreshNews/,,,,,,,"312 East Lyndale Ave N, Minneapolis, MN 55405",Minnesota,Central Minneapolis,312 East Lyndale Ave N,55405,-93.2858585,44.9812533,,
farmers market,"Feb 22nd, 2023",default-farmersmarket-4-3.jpg,308020,Minneapolis Farmers' Market - Lyndale Market - Winter,,Ashley Nathe,mplsfarmersmarket@gmail.com,,https://www.mplsfarmersmarket.com/FreshNews/,,,,,,,"312 East Lyndale Ave N, Minneapolis, MN 55405",Minnesota,Central Minneapolis,312 East Lyndale Ave N,55405,-93.2858585,44.9812533,,
farmers market,"Feb 22nd, 2023",default-farmersmarket-4-3.jpg,308021,Minnetonka Farmers' Market,,Bonnie Hanna-Powers,farmersmarket@minnetonkamn.gov,952-939-8305,www.minnetonkamn.gov/farmersmarket,,,,,,,"14600 Minnetonka Blvd, Minnetonka, MN 55345",Minnesota,Minnetonka,14600 Minnetonka Blvd,55345,-93.4660244,44.9400508,,
farmers market,"Feb 22nd, 2023",default-farmersmarket-4-3.jpg,308022,Minnetonka Farmers' Market - Winter,,Bonnie Hanna-Powers,farmersmarket@minnetonkamn.gov,952-939-8305,www.minnetonkamn.gov/farmersmarket,,,,,,,"14600 Minnetonka Blvd, Minnetonka, MN 55345",Minnesota,Minnetonka,14600 Minnetonka Blvd,55345,-93.4660244,44.9400508,,
farmers market,"Feb 22nd, 2023",default-farmersmarket-4-3.jpg,308023,Monticello Farmers' Market,,Sara Cahill,programs@ci.monticello.mn.us,763-271-7124,http://www.monticellocommunitycenter.com/farmers-market.html,,,,,,,"200 W 6th St, Monticello, MN 55362",Minnesota,Monticello,200 W 6th St,55362,-93.7989597,45.3019381,,
farmers market,"Feb 22nd, 2023",default-farmersmarket-4-3.jpg,308024,Monticello Farmers' Market - Winter,,Sara Cahill,programs@ci.monticello.mn.us,763-271-7124,http://www.monticellocommunitycenter.com/farmers-market.html,,,,,,,"505 Walnut St, Monticello, MN 55362",Minnesota,Monticello,505 Walnut St,55362,-93.7990797,45.3031458,,
farmers market,"Feb 22nd, 2023",default-farmersmarket-4-3.jpg,308025,Mound Farmers' Market,,,,952-212-9993,,,,,,,,"5515 Shoreline Dr, Mound, MN 55364",Minnesota,Mound,5515 Shoreline Dr,55364,-93.6648026,44.9375826,,
farmers market,"Feb 22nd, 2023",default-farmersmarket-4-3.jpg,308026,New Brighton Farmers' Market,,Angela Fredrickson,newbrighton.mn.farmersmarket@gmail.com,612-237-4993,,,,,,,,"410 1st St NW, New Brighton, MN 55112",Minnesota,New Brighton,410 1st St NW,55112,-93.1920361,45.0514263,,
farmers market,"Feb 22nd, 2023",default-farmersmarket-4-3.jpg,308028,New Life Ramsey Farmers' Market,,Ken Snyder and Ginger Spiess,farmersmarket@newlifemn.org,763-421-0166,,,,,,,,"5900 167th Ave NW, Ramsey, MN 55303",Minnesota,Ramsey,5900 167th Ave NW,55303,-93.4176609,45.2729284,,
farmers market,"Feb 22nd, 2023",default-farmersmarket-4-3.jpg,308029,Newport Farmers' Market,,Maria Bonilla,newportfarmersmarketmn@gmail.com,651-387-9308,,,,,,,,"1644 Hastings Ave, Newport, MN 55055",Minnesota,Newport,1644 Hastings Ave,55055,-93.000373,44.8746527,,
farmers market,"Feb 22nd, 2023",default-farmersmarket-4-3.jpg,308030,Nicollet Mall Farmers' Market,,,,612-333-1718,http://mplsfarmersmarket.com/nicollet.php,,,,,,,"800 Nicollet Mall, Minneapolis, MN 55402",Minnesota,Central Minneapolis,800 Nicollet Mall,55402,-93.2738748,44.9755906,,
farmers market,"Feb 22nd, 2023",default-farmersmarket-4-3.jpg,308031,Nokomis Makers Market,,Suzanne Amundson,nokomismakersmarket@gmail.com,507-213-1318,,,,,,,,"5342 25th Ave S, Minneapolis, MN 55417",Minnesota,Nokomis,5342 25th Ave S,55417,-93.236458,44.9056179,,
farmers market,"Feb 22nd, 2023",default-farmersmarket-4-3.jpg,308032,Nokomis Makers Market - Winter,,Suzanne Amundson,nokomismakersmarket@gmail.com,507-213-1318,,,,,,,,"4933 S 34th Ave, Minneapolis, MN 55417",Minnesota,Minnehaha,4933 S 34th Ave,55417,-93.2225572,44.9133189,,
farmers market,"Feb 22nd, 2023",default-farmersmarket-4-3.jpg,308033,North Branch Farmers' Market,,Joleen Pierce,joleencpierce23@gmail.com,651-674-4507,,,,,,,,"6241 Main St, North Branch, MN 55056",Minnesota,North Branch,6241 Main St,55056,-92.9821444,45.5105948,,
farmers market,"Feb 22nd, 2023",default-farmersmarket-4-3.jpg,308034,Northeast Minneapolis Farmers' Market,,Sarah Knoss,info@northeastmarket.org,612-406-8794,www.northeastmarket.org,,,,,,,"629 NE 2nd St, Minneapolis, MN 55413",Minnesota,St. Anthony West,629 NE 2nd St,55413,-93.2624838,44.9948419,,
farmers market,"Feb 22nd, 2023",default-farmersmarket-4-3.jpg,308035,Northeast Minneapolis Farmers' Market - Winter,,Sarah Knoss,info@northeastmarket.org,612-406-8794,www.northeastmarket.org,,,,,,,"629 NE 2nd St, Minneapolis, MN 55413",Minnesota,St. Anthony West,629 NE 2nd St,55413,-93.2624838,44.9948419,,
farmers market,"Feb 22nd, 2023",default-farmersmarket-4-3.jpg,308036,Nowthen Farmers' Market,,Darleen King,nowthenfarmersmarket@gmail.com,612-581-6873,http://www.nowthenmn.govoffice2.com/index.asp?SEC=90A5BA86-7E01-464B-9F41-0068A15B0EAC&Type=B_BASIC,,,,,,,"8188 199th Ave NW, Elk River, MN 55330",Minnesota,Elk River,8188 199th Ave NW,55330,-93.4753474,45.3311974,,
farmers market,"Feb 22nd, 2023",default-farmersmarket-4-3.jpg,308037,Organizing For Ward 1 & Other Communities,,Vera Ashley,vera.ashley@gmail.com,651-246-9827,,,,,,,,"1685 Rice St, St Paul, MN 55113",Minnesota,St Paul,1685 Rice St,55113,-93.1067611,44.9927393,,
farmers market,"Feb 22nd, 2023",default-farmersmarket-4-3.jpg,308038,Osseo Farmers' Market,,"Karen Broden and Dee Bonn, ",kbroden@ci.osseo.mn.us,763-425-2624,www.discoverosseo.com,,,,,,,"Boerboom Veterans Park, 416 Central Ave, Osseo, MN 55369",Minnesota,Osseo,416 Central Ave,55369,-93.4015747,45.1207031,,
farmers market,"Feb 22nd, 2023",default-farmersmarket-4-3.jpg,308039,Otsego Farmers' Market,,Connie Schwecke,recreation@ci.otsego.mn.us ,763-235-3148,OtsegoParksRec.com,,,,,,,"15700 88th St NE, Otsego, MN 55330",Minnesota,Otsego,15700 88th St NE,55330,-93.5708229,45.2785171,,
farmers market,"Feb 22nd, 2023",default-farmersmarket-4-3.jpg,308040,OWC MN Tennant Union Farmers' Market,,Vera Ashely,vera.ashley@gmail.com,651-246-9827,,,,,,,,"1685 Rice St, St Paul, MN 55113",Minnesota,St Paul,1685 Rice St,55113,-93.1067611,44.9927393,,
farmers market,"Feb 22nd, 2023",default-farmersmarket-4-3.jpg,308041,Plant Based Pop-Up Market,,,pbpumarket@gmail.com,612-222-1868,,,,,,,,"2015 Lowry Ave N, Minneapolis, MN 55411",Minnesota,Jordan,2015 Lowry Ave N,55411,-93.3052536,45.013078,,
farmers market,"Feb 22nd, 2023",default-farmersmarket-4-3.jpg,308042,Plymouth Farmers' Market,,Ann Mosack,recreation@plymouthmn.gov,763-509-5200,,,,,,,,"15500 County Rd 6, Plymouth, MN 55447",Minnesota,Plymouth,15500 County Rd 6,55447,-93.4761026,44.997925,,
farmers market,"Feb 22nd, 2023",default-farmersmarket-4-3.jpg,308043,Prior Lake Farmers' Market,,Karla Haugen,khaugenlc@hotmail.com,612-743-6417,www.PriorLakeFarmersMarket.com,,,,,,,"Main Ave SE, Prior Lake, MN 55372",Minnesota,Prior Lake,Main Ave SE,55372,-93.4228119,44.7161305,,
farmers market,"Feb 22nd, 2023",default-farmersmarket-4-3.jpg,308044,PSP Farmer's Market Emporium,,Catherine Fleming,mvchane@aim.com,612-423-6499,www.projectsweetiepie.org,,,,,,,"1418 N Oliver Ave, Minneapolis, MN 55411",Minnesota,Willard-Hay,1418 N Oliver Ave,55411,-93.3066993,44.9936904,,
farmers market,"Feb 22nd, 2023",default-farmersmarket-4-3.jpg,308046,Richfield Farmers' Market - Winter,,Bonnie Hanna-Powers,FarmersMarket@richfieldmn.gov ,612-861-9362,http://www.richfieldfarmersmarket.org/   www.localline.ca/richfield-farmers-market,,,,,,,"7000 Nicollet Ave, Minneapolis, MN 55423",Minnesota,Minneapolis,7000 Nicollet Ave,55423,-93.2787959,44.876064,,
farmers market,"Feb 22nd, 2023",default-farmersmarket-4-3.jpg,308158,Lake City Market by the Lake,,Susan Draves,lcmarketbythelake@gmail.com,507-421-2221,lakecitymarketbythelake.com,,,,,,,"Ohuta Beach Parking Lot, Lake City, MN 55041",Minnesota,Lake City,Park St,55041,-92.267126,"44.452284,",,
farmers market,"Feb 22nd, 2023",default-farmersmarket-4-3.jpg,308159,Lake Crystal Farmers' Market,,Brenda Hathaway,,,,,,,,,,"201 MN-60, Lake Crystal, MN 56055",Minnesota,Lake Crystal,201 MN-60,56055,-94.2173478,44.1124471,,
farmers market,"Feb 22nd, 2023",default-farmersmarket-4-3.jpg,308160,Lanesboro Farmers' Market,,Anita Bue and Emily Funke,crookedpinegoods@gmail.com,507-450-9659,https://www.lanesboro-mn.gov/farmers-market/,,,,,,,"202 Parkway Ave S, Lanesboro, MN 55949",Minnesota,Lanesboro,202 Parkway Ave S,55949,-91.9765631,43.7188783,,
farmers market,"Feb 22nd, 2023",default-farmersmarket-4-3.jpg,308161,Le Center Farmers' Market,,Chamber of Commerce,,507-357-6737,,,,,,,,"320 S Plut Ave, Le Center, MN 56057",Minnesota,Le Center,320 S Plut Ave,56057,-93.7298365,44.3836439,,
farmers market,"Feb 22nd, 2023",default-farmersmarket-4-3.jpg,308162,Le Sueur Family Night at the Market,,Karin Wagner,lesueurfarmersmarket@gmail.com,,https://lesueurfamilynightatthemarket.weebly.com/,,,,,,,"155 S Park Ln, Le Sueur, MN 56058",Minnesota,Le Sueur,155 S Park Ln,56058,-93.9067253,44.4604219,,
farmers market,"Feb 22nd, 2023",default-farmersmarket-4-3.jpg,308163,LeRoy Farmers' Market,,Sharen Thiel,,507-438-0553,http://www.farmersmarket.leroymn.com/,,,,,,,"105 E Main St, Le Roy, MN 55951",Minnesota,Le Roy,105 E Main St,55951,-92.5033857,43.509688,,
farmers market,"Feb 22nd, 2023",default-farmersmarket-4-3.jpg,308164,Lewiston Area Farmers' Market,,Joel Hennessy,farmersmarket@crossingscenter.com,507-522-3600,,,,,,,,"170 S Fremont St, Lewiston, MN 55952",Minnesota,Lewiston,170 S Fremont St,55952,-91.8687857,43.9798594,,
farmers market,"Feb 22nd, 2023",default-farmersmarket-4-3.jpg,308165,Madelia Farmers' Market,,Brenda Hathaway,,218-330-4974,,,,,,,,"121 Drew Ave SE, Madelia, MN 56062",Minnesota,Madelia,121 Drew Ave SE,56062,-94.4099304,44.0489245,,
farmers market,"Feb 22nd, 2023",default-farmersmarket-4-3.jpg,308166,Madison Lake Farmers' Market,,Ryan Sanders,mlfm2014@yahoo.com,507-381-8136,https://www.ci.madison-lake.mn.us/index.asp?SEC=502BB6CE-874D-4691-8826-F09868D896C6&Type=B_BASIC,,,,,,,"Madison Lake, MN 56063",Minnesota,Madison Lake,523 Main St,56063,-93.815508,44.2044116,,
farmers market,"Feb 22nd, 2023",default-farmersmarket-4-3.jpg,308167,Mankato Farmers' Market,,Dan Zimmerli,dan@cedarcratefarm.com,507-779-1123,https://www.mankatofarmersmarket.com/?fbclid=IwAR24JZ0NK5Wrn8HAbmZj9GVEGYaBTge8XTzlojKYIiB6eTSP8SrJxK_k0UY,,,,,,,"1895 Adams St, Mankato, MN 56001",Minnesota,Mankato,1895 Adams St,56001,-93.9499872,44.1693551,,
farmers market,"Feb 22nd, 2023",default-farmersmarket-4-3.jpg,308168,Mantorville Minnesota Farmers' Market,,Paul Larsen,palarsen@kmtel.com,507-273-8499,https://www.mantorville.com/City/weblizar-portfolio/farmers-artisans-market/,,,,,,,"320 N Main St, Mantorville, MN 55955",Minnesota,Mantorville,320 N Main St,55955,-92.7545709,44.0653789,,
farmers market,"Feb 22nd, 2023",default-farmersmarket-4-3.jpg,308169,Milestone Farmers' Market,,Courtney Malecha,,,,,,,,,,"2500 14th St NE, Faribault, MN 55021",Minnesota,Faribault,2500 14th St NE,55021,-93.248482,44.317098,,
farmers market,"Feb 22nd, 2023",default-farmersmarket-4-3.jpg,308170,Montgomery Farmers' Market,,Maggie Grimm,produce.posies.merchants@gmail.com,612-968-7684,,,,,,,,"Memorial Park, 500 5th St SE, Montgomery, MN 56069",Minnesota,Montgomery,500 5th St SE,56069,-93.5768403,44.4336864,,
farmers market,"Feb 22nd, 2023",default-farmersmarket-4-3.jpg,308171,Morristown Farmers' Market,,Lisa Karsten,lisa@karsten.net,507-649-1366,,,,,,,,"205 Division St N, Morristown, MN 55052",Minnesota,Morristown,205 Division St N,55052,-93.4447469,44.2281959,,
farmers market,"Feb 22nd, 2023",default-farmersmarket-4-3.jpg,308172,New Prague Farmers' Market,,Joe Bisek,ajbisek@bevcomm.net,952-994-5632,,,,,,,,"801 Main St E, New Prague, MN 56071",Minnesota,New Prague,801 Main St E,56071,-93.5652361,44.5438365,,
farmers market,"Feb 22nd, 2023",default-farmersmarket-4-3.jpg,308173,Northfield Area Farmers' Market,,,,651-462-3577,,,,,,,,"Riverside Lion's Park, 419 8th St W, Northfield, MN 55057",Minnesota,Northfield,419 8th St W,55057,-93.166657,44.45215,,
farmers market,"Feb 22nd, 2023",default-farmersmarket-4-3.jpg,308174,North Mankato Farmers' Market,,Anna Brown and Nathan Hanel,annab@northmankato.com,507-625-4141,https://www.northmankato.com/farmers-market,,,,,,,"1920 Lee Blvd, North Mankato, MN 56003",Minnesota,North Mankato,1920 Lee Blvd,56003,-94.0479303,44.1740221,,
farmers market,"Feb 22nd, 2023",default-farmersmarket-4-3.jpg,308175,Owatonna Farmers' and Craft Market,,John ,littleprofessor8@gmail.com,507-455-0969,,,,,,,,"100 E Main St, Owatonna, MN 55060",Minnesota,Downtown Owatonna,100 E Main St,55060,-93.2262103,44.0851146,,
farmers market,"Feb 22nd, 2023",default-farmersmarket-4-3.jpg,308176,Pine Island Farmers' Market,,Brandi Staloch,farmersmarket@ci.pineisland.mn.us,507-990-0634,www.pineislandmnchamber.com/events,,,,,,,"101 E Center St, Pine Island, MN 55963",Minnesota,Pine Island,101 E Center St,55963,-92.6441899,44.2031959,,
farmers market,"Feb 22nd, 2023",default-farmersmarket-4-3.jpg,308177,Plainview Farmers' Market,,Tori Timm,,507-884-7543,,,,,,,,"215 1st Ave SW, Plainview, MN 55964",Minnesota,Plainview,215 1st Ave SW,55964,-92.1686815,44.1636742,,
farmers market,"Feb 22nd, 2023",default-farmersmarket-4-3.jpg,308178,Red Wing Area Farmers' Market,,Alyssa Riegleman,rwfarmersmarket@gmail.com,715-651-5046,www.rwfarmersmarket.org,,,,,,,"212 Levee St, Red Wing, MN 55066",Minnesota,Red Wing,212 Levee St,55066,-92.5370475,44.5661923,,
farmers market,"Feb 22nd, 2023",default-farmersmarket-4-3.jpg,308179,Red Wing Area Farmers' Market Winter,,Alyssa Riegleman,rwfarmersmarket@gmail.com,715-651-5046,www.rwfarmersmarket.org,,,,,,,"313 Levee St, Red Wing, MN 55066",Minnesota,Red Wing,313 Levee St,55066,-92.5370475,44.5661923,,
farmers market,"Feb 22nd, 2023",default-farmersmarket-4-3.jpg,308180,Riverwalk Market Fair,,April Kopack ,manager@riverwalkmarketfair.org,612-201-8640,http://riverwalkmarketfair.org/,,,,,,,"Bridge Square, Northfield, MN 55057",Minnesota,Northfield,Bridge Square,55057,-93.1607256,44.4564097,,
farmers market,"Feb 22nd, 2023",default-farmersmarket-4-3.jpg,308181,Riverwalk Market Fair - Winter,,April Kopack ,manager@riverwalkmarketfair.org,612-201-8640,http://riverwalkmarketfair.org/,,,,,,,"Bridge Square, Northfield, MN 55057",Minnesota,Northfield,Bridge Square,55057,-93.1607256,44.4564097,,
farmers market,"Feb 22nd, 2023",default-farmersmarket-4-3.jpg,308182,Rochester Farmers' Market,,Ben ,rochfarmmkt@gmail.com,507-273-8232,https://www.rochfarmmkt.org/,,,,,,,"35 Fairgrounds Ave SE, Rochester, MN 55904",Minnesota,Rochester,35 Fairgrounds Ave SE,55904,-92.4603373,44.0032545,,
farmers market,"Feb 22nd, 2023",default-farmersmarket-4-3.jpg,308183,Rochester Farmers' Market - Winter,,Ben ,rochfarmmkt@gmail.com,507-273-8232,https://www.rochfarmmkt.org/,,,,,,,"35 Fairgrounds Ave SE, Rochester, MN 55904",Minnesota,Rochester,35 Fairgrounds Ave SE,55904,-92.4603373,44.0032545,,
farmers market,"Feb 22nd, 2023",default-farmersmarket-4-3.jpg,308184,Rushford Peterson Valley Farmers' Market,,Marie Boetcher ,rushfordpetersonvalleymarket@gmail.com,507-450-7590,http://rushfordpetersonvalleymarket.weebly.com,,,,,,,"102 N Mill St, Rushford, MN 55971",Minnesota,Rushford,102 N Mill St,55971,-91.7527631,43.8110317,,
farmers market,"Feb 22nd, 2023",default-farmersmarket-4-3.jpg,308185,Rustic Rose Farmers' Market,,Rustic Rose Green House,admin@rusticrose-mn.com,507-346-7440,https://www.rusticrose-mn.com/,,,,,,,"720 N Broadway Ave, Spring Valley, MN 55975",Minnesota,Spring Valley,720 N Broadway Ave,55975,-92.3975995,43.6969391,,
farmers market,"Feb 22nd, 2023",default-farmersmarket-4-3.jpg,308186,Sherburn Farmers' Market,,,,507-764-4491,,,,,,,,"1st St and N Lake St, Sherburn, MN 56171",Minnesota,Sherburn,1st St and N Lake St,56171,-94.724571,43.653844,,
farmers market,"Feb 22nd, 2023",default-farmersmarket-4-3.jpg,308187,Simple Living Farmers' Market,,Donna and Laurie Wendel,rdrasmussen@outlook.com,563-419-3814,,,,,,,,"501 E Prairie Ave, Mabel, MN 55954",Minnesota,Mabel,501 E Prairie Ave,55954,-91.7644929,43.5227513,,
farmers market,"Feb 22nd, 2023",default-farmersmarket-4-3.jpg,308188,Spring Grove Farmers' Market,,Donna and Laurie Wendel,rdrasmussen@outlook.com,563-419-3814,,,,,,,,"107 Maple Dr, Spring Grove, MN 55974",Minnesota,Spring Grove,107 Maple Dr,55974,-91.6359445,43.5614003,,
farmers market,"Feb 22nd, 2023",default-farmersmarket-4-3.jpg,308189,St. James Farmers' Market,,Brenda Hathaway,,218-330-4974,,,,,,,,"St. James Community Center, St. James, MN 56081",Minnesota,St James,505 1st Ave S,56081,-94.629433,43.982252,,
farmers market,"Feb 22nd, 2023",default-farmersmarket-4-3.jpg,308190,St. Peter Farmers' Market,,Nicole Jensen,mommaj09@gmail.com,507-995-9357,,,,,,,,"228 W Mulberry St, St Peter, MN 56082",Minnesota,St Peter,228 W Mulberry St,56082,-93.9599838,44.3226797,,
farmers market,"Feb 22nd, 2023",default-farmersmarket-4-3.jpg,308191,The Village Agricultural Cooperative ,,Chris Allen,contact@rochvillage.org,,,,,,,,,"4905 Country Club Rd SW, Rochester, MN 55902",Minnesota,Rochester,4905 Country Club Rd SW,55902,-92.535855,44.023877,,
farmers market,"Feb 22nd, 2023",default-farmersmarket-4-3.jpg,308194,Wanamingo Farmers' Market,,Lindsey Fulton,wanamingomeats@hotmail.com,507-824-2279,,,,,,,,"Wanamingo, MN",Minnesota,Wanamingo,,55983,-92.7913642,44.3033147,,
farmers market,"Feb 22nd, 2023",default-farmersmarket-4-3.jpg,308195,Waseca Farmers' Market,,Vendor run,happygil_24@hotmail.com,507-202-8905,,,,,,,,"409 8th Ave NE, Waseca, MN 56093",Minnesota,Waseca,409 8th Ave NE,56093,-93.5024774,44.0859272,,
farmers market,"Feb 22nd, 2023",default-farmersmarket-4-3.jpg,308196,Waterville Downtown Farmers' Market,,Aida Hendrickson,,507-362-8037,,,,,,,,"506 Common St, Waterville, MN 56096",Minnesota,Waterville,506 Common St,56096,-93.5631211,44.2154722,,
farmers market,"Feb 22nd, 2023",default-farmersmarket-4-3.jpg,308197,Wells Area Farmers' Market,,,wellscc@bevcomm.net,507-553-6450,http://www.WellsAreaChamber.com/,,,,,,,"190 3rd St NE, Wells, MN 56097",Minnesota,Wells,190 3rd St NE,56097,-93.7230419,43.7475655,,
farmers market,"Feb 22nd, 2023",default-farmersmarket-4-3.jpg,308198,Winnebago Farmers' Market,,Michelle Weringa,mweringa@bevcomm.net,507-525-4614,,,,,,,,"120 S Main St, Winnebago, MN 56098",Minnesota,Winnebago,120 S Main St,56098,-94.1656663,43.766421,,
farmers market,"Feb 22nd, 2023",farmersmarket_307416_2_20230516185919.png,307416,Carlton County Farmers' Market,,Ken Jorgensen,contact@carltoncountyfarmersmarket.com,218-879-4142,http://carltoncountyfarmersmarket.com/,,,,,,,"Hwy 210 and Grand St, Carlton, MN 55718",Minnesota,Carlton,Hwy 210 and Grand St,55718,-92.430466,46.664353,,
farmers market,"Feb 22nd, 2023",farmersmarket_307417_2_20230516192159.png,307417,Central Hillside Farmers' Market,,Kayla Pridmore,,218-726-1665,,,,,,,,"503 E 3rd St, Duluth, MN 55805",Minnesota,Central Hillside,503 E 3rd St,55805,-92.0952648,46.7940636,,
farmers market,"Feb 22nd, 2023",farmersmarket_307418_2_20230516202311.png,307418,Civic Center Farmers' Market,,Tiffany Kari,,218-720-1551,https://www.stlouiscountymn.gov/departments-a-z/extension-office/programs-events/civic-center-farmers-market,,,,,,,"100 N 5th Ave W, Duluth, MN 55802",Minnesota,Downtown - Waterfront,100 N 5th Ave W,55802,-92.1065971,46.7834827,,
farmers market,"Feb 22nd, 2023",farmersmarket_307419_2_20230516202418.png,307419,Civic Center Farmers' Market - Winter,,Tiffany Kari,,218-720-1551,,,,,,,,"506 W Michigan St, Duluth, MN 55802",Minnesota,Duluth,506 W Michigan St,55802,-92.1041399,46.7811071,,
farmers market,"Feb 22nd, 2023",farmersmarket_307424_2_20230516203005.png,307424,Cuyuna Range Farmers' Market,,Jill Larsen,cuyunarangefarmersmarket@gmail.com,218-851-1488,,,,,,,,"1 E Main St, Crosby, MN 56441",Minnesota,Crosby,1 E Main St,56441,-93.9520878,46.4827244,,
farmers market,"Feb 22nd, 2023",farmersmarket_307426_14626_20230517165408.png,307426,Duluth Farmers' Market,,Ginny Larva,duluthmnfarmersmarket@gmail.com,218-476-2576,http://www.duluthfarmersmarket.com/,,,,,,,"1320 E 3rd St, Duluth, MN 55805",Minnesota,East Hillside,1320 E 3rd St,55805,-92.084612,46.8018333,,
farmers market,"Feb 22nd, 2023",farmersmarket_307427_14626_20230517165444.png,307427,Duluth Farmers' Market - Winter,,Ginny Larva,duluthmnfarmersmarket@gmail.com,218-476-2576,http://www.duluthfarmersmarket.com/,,,,,,,"1320 E 3rd St, Duluth, MN 55805",Minnesota,East Hillside,1320 E 3rd St,55805,-92.084612,46.8018333,,
farmers market,"Feb 22nd, 2023",farmersmarket_307428_2_20230516210104.png,307428,Ely Farmers' Market,,Karen Hamilton,elymnfarmersmarket@gmail.com,406-223-6366,,,,,,,,"Whiteside Park, Ely, MN 55731",Minnesota,Ely,Whiteside Park,55731,-91.856841,47.902258,,
farmers market,"Feb 22nd, 2023",farmersmarket_307430_14626_20230517165653.png,307430,Finland Farmers' Market,,Katee Ristuccia,market@friendsoffinland.org,218-353-0300,http://finlandfarmersmarket.com/,,,,,,,"6866 Cramer Rd, Finland, MN 55603",Minnesota,Finland,6866 Cramer Rd,55603,-91.22888,47.428094,,
farmers market,"Feb 22nd, 2023",farmersmarket_307431_14626_20230517165726.png,307431,Finland Farmers' Market - Winter,,Katee Ristuccia,market@friendsoffinland.org,218-353-0300,http://finlandfarmersmarket.com/,,,,,,,"6866 Cramer Rd, Finland, MN 55603",Minnesota,Finland,6866 Cramer Rd,55603,-91.22888,47.428094,,
farmers market,"Feb 22nd, 2023",farmersmarket_307433_14626_20230517145843.png,307433,Grand Rapids Farmers' Market,,Wililyn Dowell and Sally Niemi,dowellfarmandgardens@gmail.com,218-259-9768,http://www.grfarmersmarket.org/,,,,,,,"11 Golf Course Rd, Grand Rapids, MN 55744",Minnesota,Grand Rapids,11 Golf Course Rd,55744,-93.5297531,47.2216268,,
farmers market,"Feb 22nd, 2023",farmersmarket_307434_14626_20230517145932.png,307434,Grand Rapids Farmers' Market - Winter,,Wililyn Dowell and Sally Niemi,dowellfarmandgardens@gmail.com,218-259-9768,http://www.grfarmersmarket.org/,,,,,,,"1601 Golf Course Rd, Grand Rapids, MN 55744",Minnesota,Grand Rapids,1601 Golf Course Rd,55744,-93.5627708,47.2177068,,
farmers market,"Feb 22nd, 2023",farmersmarket_307435_2_20230517171444.png,307435,Hibbing Farmers' Market,,Rich Johnson,,218-476-2350,www.hibbingfarmersmarket.org,,,,,,,"1309 E 40th St, Hibbing, MN 55746",Minnesota,Hibbing,1309 E 40th St,55746,-92.925134,47.4016349,,
farmers market,"Feb 22nd, 2023",farmersmarket_307437_14626_20230517163431.png,307437,Ideal Green Market Co-op Farmers' Market,,Denis ,farmersmarket@idealgreenmarket.com,218-543-6565,www.idealgreenmarket.com,,,,,,,"34988 Co Rd 39, Pequot Lakes, MN 56472",Minnesota,Pequot Lakes,34988 Co Rd 39,56472,-94.1980241,46.6603849,,
farmers market,"Feb 22nd, 2023",farmersmarket_307456_14626_20230517170547.png,307456,Bagley Area Farmers' Market,,Annie Braught,anniekerr.mn@gmail.com,218-358-1990,https://www.facebook.com/bagleyfarmersmarket,,,,,,,"MN State Hwy 92, Great Northern Railroad Drive SW, Bagley, MN 56601",Minnesota,Bagley,MN State Hwy 92 and Great Northern Railroad Drive SW,56621,-95.3985615,47.5277241,,
farmers market,"Feb 22nd, 2023",farmersmarket_307457_14626_20230517170147.png,307457,Bemidji Area Farmers' Market,,Terrance and Loralee Nennich,terleegardens@gmail.com,218-694-2934,http://bemidjifarmersmarket.com/,,,,,,,"200 Paul Bunyan Dr S, Bemidji, MN 56601",Minnesota,Bemidji,200 Paul Bunyan Dr S,56601,-94.8775128,47.4674951,,
farmers market,"Feb 22nd, 2023",farmersmarket_307458_14626_20230517150116.png,307458,Bemidjis Natural Choice Farmers' Market,,Rebecca Whiting,bemidjifarmersmarket@gmail.com,218-556-4761,,,,,,,,"110 2nd St NW, Bemidji, MN 56601",Minnesota,Bemidji,110 2nd St NW,56601,-94.8799935,47.4685921,,
farmers market,"Feb 22nd, 2023",farmersmarket_307460_14626_20230517162608.png,307460,Crookston Farmers' Market Association,,Pat Grothe,,218-574-2810,,,,,,,,"151 E 3rd St, Crookston, MN 56716",Minnesota,Crookston,151 E 3rd St,56716,-96.6045915,47.7753181,,
farmers market,"Feb 22nd, 2023",farmersmarket_307499_14626_20230517151102.png,307499,Becker Farmers' Market,,Tony,tnahrgang@ci.becker.mn.us,763-200-4239,http://www.ci.becker.mn.us/250/Becker-Farmers-Market,,,,,,,"13150 1st St, Becker, MN 55308",Minnesota,Becker,13150 1st St,55308,-93.8833423,45.4002976,,
farmers market,"Feb 22nd, 2023",farmersmarket_307500_14626_20230517151623.png,307500,Big Lake Farmers' Market,,Corrie Scott,cscott@biglakemn.org,612-297-6331,http://www.biglakemn.org/350/Farmers-Market,,,,,,,"101 Lakeshore Dr, Big Lake, MN 55309",Minnesota,Big Lake,101 Lakeshore Dr,55309,-93.7573396,45.3333566,,
farmers market,"Feb 22nd, 2023",farmersmarket_307560_14626_20230517161213.png,307560,City of Oakdale Farmers' Market,,Nathan Timmons,nathan@ci.oakdale.mn.us,651-747-3872 ,http://www.ci.oakdale.mn.us/283/Farmers-Market,,,,,,,"1584 Hadley Ave N, Oakdale, MN 55128",Minnesota,Oakdale,1584 Hadley Ave N,55128,-92.9654973,44.9711561,,
farmers market,"Feb 22nd, 2023",farmersmarket_307682_14626_20230517151508.png,307682,Big Stone Lake Farmers' Market,,Jan Eifealdt,janeifealdt@midco.net,320-839-3479,,,,,,,,"315 Madison Ave, Ortonville, MN 56278",Minnesota,Ortonville,315 Madison Ave,56278,-96.4455843,45.3071425,,
farmers market,"Feb 22nd, 2023",farmersmarket_307685_14626_20230517165028.png,307685,Canby Farmers' Market,,Elise Ferguson,,612-384-4272,,,,,,,,"Hwy 75 an 3rd St W, Canby, MN 56220",Minnesota,Canby,Hwy 75 an 3rd St W,56220,-96.274319,44.710419,,
farmers market,"Feb 22nd, 2023",farmersmarket_307687_14626_20230517165250.png,307687,Dassel Farmers' Market,,Kathy Loveland and Cindy Rusch,cindy@ruschfarms.us,320-221-3990,,,,,,,,"Bandstand Park, Atlantic Ave W, Dassel, MN 55325",Minnesota,Dassel,Atlantic Ave W,55325,-94.310693,45.079729,,
farmers market,"Feb 22nd, 2023",farmersmarket_307688_14626_20230517152214.png,307688,Dawson Farmers' Market,,,,,,,,,,,,"1000 7th St, Dawson, MN 56232",Minnesota,Dawson,1000 7th St,56232,-96.056199,44.9269544,,
farmers market,"Feb 22nd, 2023",farmersmarket_307696_14626_20230517162239.png,307696,Hutchinson Farmers' Market,,Aimee Haag,marketdesk@hutchinsonfarmersmarket.org,320-310-6101,https://www.hutchinsonfarmersmarket.org/,,,,,,,"25 Adams St SE, Hutchinson, MN 55350",Minnesota,Hutchinson,25 Adams St SE,55350,-94.3643616,44.8919401,,
farmers market,"Feb 22nd, 2023",farmersmarket_307697_14626_20230517162352.png,307697,Hutchinson Farmers' Market - Winter,,Aimee Haag,marketdesk@hutchinsonfarmersmarket.org,320-310-6101,https://www.hutchinsonfarmersmarket.org/,,,,,,,"25 Adams St SE, Hutchinson, MN 55350",Minnesota,Hutchinson,25 Adams St SE,55350,-94.3643616,44.8919401,,
farmers market,"Feb 22nd, 2023",farmersmarket_307724_14626_20230517164519.png,307724,Albert Lea Farmers' Market,,Kathleen Bleckeberg,alfarmersmarket@hotmail.com,507-402-1516,,,,,,,,"Marion Ross St, Albert Lea, MN 56007",Minnesota,Albert Lea,Marion Ross St,56007,-93.3693604,43.6508866,,
farmers market,"Feb 22nd, 2023",farmersmarket_307725_14626_20230517163616.png,307725,Amboy Farmers' Market,,Mary Lee Teubner,maryleeteubner@gmail.com,507-317-7436,,,,,,,,"101 E Maine St, Amboy, MN 56010",Minnesota,Amboy,101 E Maine St,56010,-94.158833,43.887691,,
farmers market,"Feb 22nd, 2023",farmersmarket_307729_14626_20230517155355.png,307729,Cannon Valley Farmers' Market,,Dawn,manager@cannonvalleyfarmersmarket.com,507-664-9446,www.cannonvalleygrown.org,,,,,,,"1814 2nd Ave NW, Faribault, MN 55021",Minnesota,Faribault,1814 2nd Ave NW,55021,-93.2733338,44.3104758,,
farmers market,"Feb 22nd, 2023",farmersmarket_307730_14626_20230517155425.png,307730,Cannon Valley Farmers' Market - Winter,,Dawn,manager@cannonvalleyfarmersmarket.com,507-664-9446,www.cannonvalleygrown.org,,,,,,,"200 Western Ave NW, Faribault, MN 55021",Minnesota,Faribault,200 Western Ave NW,55021,-93.3045877,44.2916625,,
farmers market,"Feb 22nd, 2023",farmersmarket_307731_14626_20230517162048.png,307731,Cedar River Farmers' Market,,Mary Anne Duren,impactaustinmn@gmail.com,507-219-2141,,,,,,,,"501 Oakland Ave E, Austin, MN 55912",Minnesota,Austin,501 Oakland Ave E,55912,-92.9687096,43.6671087,,
farmers market,"Feb 22nd, 2023",farmersmarket_307732_14626_20230517162136.png,307732,Cedar River Farmers' Market - Winter,,Mary Anne Duren,impactaustinmn@gmail.com,507-219-2141,,,,,,,,"501 Oakland Ave E, Austin, MN 55912",Minnesota,Austin,501 Oakland Ave E,55912,-92.9687096,43.6671087,,
farmers market,"Feb 22nd, 2023",farmersmarket_307733_14626_20230517163657.png,307733,Chatfield Growers Market,,Dennis and Carolyn Meyer,dmeyer850@gmail.com,507-352-4200,,,,,,,,"305 Main St S, Chatfield, MN 55923",Minnesota,Chatfield,305 Main St S,55923,-92.1881686,43.844203,,
farmers market,"Feb 22nd, 2023",farmersmarket_307740_14626_20230517170505.png,307740,Eyota Farmers' Market,,Iris Neumann,eyotafarmersmarket@cityofeyota.com,507-545-2077 ,eyota@cityofeyota.com,,,,,,,"300 W 5th St, Eyota, MN 55934",Minnesota,Eyota,300 W 5th St,55934,-92.235477,43.9847747,,
farmers market,"Feb 22nd, 2023",farmersmarket_307744_14626_20230517153324.png,307744,Garden Spot Market,,Deb Smith and Margaret Andree,debarajosmith@yahoo.com,507-440-1610 ,www.gardenspotmarket.weebly.com,,,,,,,"106 W Main St, Brownsdale, MN 55918",Minnesota,Brownsdale,106 W Main St,55918,-92.8702193,43.7411262,,
farmers market,"Feb 22nd, 2023",farmersmarket_307748_14626_20230517152039.png,307748,Goodview Farmers' Market,,Bridget Papenfuss,BridgetP@goodviewmn.com,507-452-1630,https://www.goodviewfarmersmarket.org/,,,,,,,"4540 Service Dr, Goodview, MN 55987",Minnesota,Goodview,4540 Service Dr,55987,-91.7044266,44.0611232,,
farmers market,"Feb 22nd, 2023",farmersmarket_307750_14626_20230517163003.png,307750,Janesville Farmers' Market,,,,,,,,,,,,"Janesville, MN",Minnesota,Janesville,,56048,-93.709795,44.116149,,
farmers market,"Feb 22nd, 2023",farmersmarket_307751_14626_20230517165114.png,307751,Kenyon Farmers' Market,,,,,,,,,,,,"309 Forest St, Kenyon, MN 55946",Minnesota,Kenyon,309 Forest St,55946,-92.9870486,44.2707086,,
farmers market,"Feb 22nd, 2023",farmersmarket_307755_14626_20230517161434.png,307755,La Crescent Farmers' Market,,Ben Horn,lacrescentfarmersmarket@gmail.com,608-397-6788,http://www.lacrescentfarmersmarket.blogspot.com/,,,,,,,"509 N Chestnut St, La Crescent, MN 55947",Minnesota,La Crescent,509 N Chestnut St,55947,-91.30112,43.8348984,,
farmers market,"Feb 22nd, 2023",farmersmarket_307756_2_20230517193633.png,307756,La Crescent Farmers' Market - Winter,,Ben Horn,lacrescentfarmersmarket@gmail.com,608-397-6788,http://www.lacrescentfarmersmarket.blogspot.com/,,,,,,,"336 S 1st St, La Crescent, MN 55947",Minnesota,La Crescent,336 S 1st St,55947,-91.3057166,43.8283905,,
farmers market,"Feb 22nd, 2023",farmersmarket_307902_14626_20230517151742.png,307902,Big Lake Farmers' Market - Winter,,Corrie Scott,cscott@biglakemn.org,612-297-6331,http://www.biglakemn.org/350/Farmers-Market,,,,,,,"160 Lake St N, Big Lake, MN 55309",Minnesota,Big Lake,160 Lake St N,55309,-93.7448508,45.3332148,,
farmers market,"Feb 22nd, 2023",farmersmarket_307903_14626_20230517161531.png,307903,City of Elk River Farmers' Market,,Karen Wingard,kwingard@elkrivermn.gov,763-635-1156,http://www.elkrivermn.gov/index.aspx?NID=895,,,,,,,"716 Main St NW, Elk River, MN 55330",Minnesota,Elk River,716 Main St NW,55330,-93.5680793,45.3034883,,
farmers market,"Feb 22nd, 2023",farmersmarket_307929_14626_20230517155106.png,307929,Anoka Farmers' Market,,Sandy,,763-753-2076,,,,,,,,"2315 2nd Ave, Anoka, MN 55303",Minnesota,Anoka,2315 2nd Ave,55303,-93.3890379,45.2020799,,
farmers market,"Feb 22nd, 2023",farmersmarket_307933_14626_20230517170338.png,307933,Arlington Hills Farmers' Market,,,,,http://www.arlingtonmn.com/,,,,,,,"Mounds View, MN 55112",Minnesota,Mounds View,,55112,-93.2015176,45.0766457,,
farmers market,"Feb 22nd, 2023",farmersmarket_307935_14626_20230517171610.png,307935,Back Channel Brewing Artimer Market,,Joe Meehan,joseph.meehan22@gmail.com,612-702-4425,backchannelbrewing.com,,,,,,,"4787 Shoreline Dr, Spring Park, MN 55384",Minnesota,Spring Park,4787 Shoreline Dr,55384,-93.6438776,44.9364912,,
farmers market,"Feb 22nd, 2023",farmersmarket_307939_14626_20230517155514.png,307939,Blaine Farmers' Market,,Ann Ringgold,,763-717-2723 ,www.blaineevents.com/farmersmarket,,,,,,,"89th Ave NE, Blaine, MN 55434",Minnesota,Blaine,89th Ave NE,55434,-93.2475122,45.1318193,,
farmers market,"Feb 22nd, 2023",farmersmarket_307940_14626_20230517144230.png,307940,Bloomington Farmers' Market,,Kari Ramstrom,FarmersMarket@BloomingtonMN.gov,952-563-8877,https://www.bloomingtonmn.gov/market/bloomington-farmers-market,,,,,,,"1800 W Old Shakopee Rd, Bloomington, MN 55431",Minnesota,West Bloomington,1800 W Old Shakopee Rd,55431,-93.3022283,44.8258883,,
farmers market,"Feb 22nd, 2023",farmersmarket_307941_14626_20230517145115.png,307941,Bloomington Farmers' Market - Winter,,Kari Ramstrom,FarmersMarket@BloomingtonMN.gov,952-563-8877,https://www.bloomingtonmn.gov/market/bloomington-farmers-market,,,,,,,"1800 W Old Shakopee Rd, Bloomington, MN 55431",Minnesota,West Bloomington,1800 W Old Shakopee Rd,55431,-93.3022283,44.8258883,,
farmers market,"Feb 22nd, 2023",farmersmarket_307951_14626_20230517165821.png,307951,Cambridge Farmers' Market,,Evan Molin ,cfmarket95@gmail.com,763-267-4171,https://www.cambridgefarmersmarket.com/,,,,,,,"122 Buchanan St N, Cambridge, MN 55008",Minnesota,Cambridge,122 Buchanan St N,55008,-93.2207052,45.5741509,,
farmers market,"Feb 22nd, 2023",farmersmarket_307952_14626_20230517150256.png,307952,Carver Farmers' Market,,Autumn Kaye,adkaye@mchsi.com,612-619-0558,,,,,,,,"800 6th St W, Carver, MN 55315",Minnesota,Carver,800 6th St W,55315,-93.642533,44.7604017,,
farmers market,"Feb 22nd, 2023",farmersmarket_307953_2_20230517142416.png,307953,Centennial Lakes Farmers' Market,,Chris Rotty,Crotty@edinamn.gov,952-833-9580,http://edinamn.gov/index.php?section=centennial-lakes-farmers-market#mcpge,,,,,,,"7449 France Ave S, Edina, MN 55435",Minnesota,Edina,7449 France Ave S,55435,-93.3275042,44.8674873,,
farmers market,"Feb 22nd, 2023",farmersmarket_307955_14626_20230517144107.png,307955,Cgucc Farmers' Market,,Kim Heilmann,office@cgucc.org,845-489-4446,http://www.cgucc.org/,,,,,,,"7008 Lamar Ave S, Cottage Grove, MN 55016",Minnesota,Cottage Grove,7008 Lamar Ave S,55016,-92.8811745,44.8477162,,
farmers market,"Feb 22nd, 2023",farmersmarket_307956_14626_20230517143528.png,307956,Champlin Farmers' Market,,Jake Widmyer,recreation@ci.champlin.mn.us,763-421-2820,,,,,,,,"12165 Ensign Ave N, Champlin, MN 55316",Minnesota,Champlin,12165 Ensign Ave N,55316,-93.3955893,45.1729953,,
farmers market,"Feb 22nd, 2023",farmersmarket_307957_14626_20230517164019.png,307957,Chanhassen Farmers' Market,,Holly Bustle,chanhassenfarmersmarket@gmail.com,661-733-2702,,,,,,,,"7700 Market Blvd, Chanhassen, MN 55317",Minnesota,Chanhassen,7700 Market Blvd,55317,-93.5389721,44.8632887,,
farmers market,"Feb 22nd, 2023",farmersmarket_307959_14626_20230517143413.png,307959,Chisago City Farmers' Market,,Doris Zacho,chisagocityfarmersmarket@gmail.com,651-257-5464,chisagocityfarmersmarket.com,,,,,,,"10645 Railroad Ave, Chisago City, MN 55013",Minnesota,Chisago City,10645 Railroad Ave,55013,-92.8903231,45.3724036,,
farmers market,"Feb 22nd, 2023",farmersmarket_307960_14626_20230517155641.png,307960,Cimarron Market Stand (Cimarron Farm),,Madeline Astro,cimarroncommunityfarm@gmail.com,952-607-0157,,,,,,,,"901 Lake Elmo Ave N, Lake Elmo, MN 55042",Minnesota,Lake Elmo,901 Lake Elmo Ave N,55042,-92.8820297,44.9608282,,
farmers market,"Feb 22nd, 2023",farmersmarket_307962_14626_20230517161312.png,307962,City of Oakdale Farmers' Market - Winter,,Nathan Timmons,nathan@ci.oakdale.mn.us,651-747-3872,http://www.ci.oakdale.mn.us/283/Farmers-Market,,,,,,,"4444 Hadley Ave N, St Paul, MN 55128",Minnesota,St Paul,4444 Hadley Ave N,55128,-92.9663797,45.0125788,,
farmers market,"Feb 22nd, 2023",farmersmarket_307966_14626_20230517155206.png,307966,Crystal Farmers' Market,,Stacy Chouinard,farmersmarket@crystalmn.gov ,763-531-1153 ,https://parksandrec.crystalmn.gov/cms/One.aspx?portalId=11785244&pageId=17300293&action=view,,,,,,,"5530 Douglas Dr N, Crystal, MN 55429",Minnesota,Becker,5530 Douglas Dr N,55429,-93.3598867,45.0519339,,
farmers market,"Feb 22nd, 2023",farmersmarket_307967_14626_20230517165201.png,307967,Delano Farmers' Market,,Debra Hoen,Debrahoen@gmail.com,763-238-2702,https://www.delano.mn.us/community/misc/farmers-market,,,,,,,"8045 County Line Rd SE, Delano, MN 55328",Minnesota,Delano,8045 County Line Rd SE,55328,-93.7681972,45.0351001,,
farmers market,"Feb 22nd, 2023",farmersmarket_307968_14626_20230517172111.png,307968,Downtown Shakopee Farmers' Market,,Heather Proskey,hproskey@shakopee.org,952-641-9044 ,https://www.downtownshakopee.org/farmers-market,,,,,,,"138 Lewis St S, Shakopee, MN 55379",Minnesota,Shakopee,138 Lewis St S,55379,-93.52545,44.797978,,
farmers market,"Feb 22nd, 2023",farmersmarket_307969_14626_20230517152313.png,307969,Eagan Market Fest,,Sarah Larsen,slarsen@cityofeagan.com,651-402-0256,www.cityofeagan.com/marketfest,,,,,,,"1501 Central Pkwy, Eagan, MN 55121",Minnesota,Eagan,1501 Central Pkwy,55121,-93.1720827,44.839138,,
farmers market,"Feb 22nd, 2023",farmersmarket_307970_14626_20230517152953.png,307970,Eagan Market Fest - Winter,,Sarah Larsen,slarsen@cityofeagan.com,651-402-0256,www.cityofeagan.com/marketfest,,,,,,,"1501 Central Pkwy, Eagan, MN 55121",Minnesota,Eagan,1501 Central Pkwy,55121,-93.1720827,44.839138,,
farmers market,"Feb 22nd, 2023",farmersmarket_307973_14626_20230517153419.png,307973,East Isles Farmers' Market,,Jenny Breen,director@eastislesfarmersmarket.com,612-220-0163,http://www.eastislesfarmersmarket.com,,,,,,,"1420 The Mall, Minneapolis, MN 55408",Minnesota,Calhoun Isles,1420 The Mall,55408,-93.3017683,44.9500154,,
farmers market,"Feb 22nd, 2023",farmersmarket_307974_14626_20230517164706.png,307974,Excelsior Farmers' Market,,Carolynne Telford,carolynne@elmcc.org,970-342-3083,http://www.excelsior-lakeminnetonkachamber.com/excelsior-farmers-market.html,,,,,,,"441 Oak St, Excelsior, MN 55331",Minnesota,Excelsior,441 Oak St,55331,-93.5680628,44.8994407,,
farmers market,"Feb 22nd, 2023",farmersmarket_307975_14626_20230517160413.png,307975,Farmers' Market Annex of Minneapolis,,Jay Barriball,info@mplsfarmersmarket.com,612-952-7002,http://www.mplsfarmersmarket.com/,,,,,,,"200 East Lyndale Ave N, Minneapolis, MN 55405",Minnesota,Central Minneapolis,200 East Lyndale Ave N,55405,-93.2862283,44.9800444,,
farmers market,"Feb 22nd, 2023",farmersmarket_307976_14626_20230517153049.png,307976,Farmington Farmers' Market,,Miranda Sieh,mirabellaacres@gmail.com,651-319-7643,,,,,,,,"923 8th St, Farmington, MN 55024",Minnesota,Farmington,923 8th St,55024,-93.1357402,44.6321293,,
farmers market,"Feb 22nd, 2023",farmersmarket_307979_14626_20230517153508.png,307979,Four Sisters Farmers' Market,,Elizabeth Day and Melissa Anderson,eday@nacdi.org,612-235-4971,https://www.nacdi.org/four-sisters-farmers-market,,,,,,,"1414 E Franklin Ave, Minneapolis, MN 55404",Minnesota,Ventura Village,1414 E Franklin Ave,55404,-93.2544313,44.9629242,,
farmers market,"Feb 22nd, 2023",farmersmarket_307982_14626_20230517165605.png,307982,Fridley Farmers' Market Association,,Emann Khalil,Emann.ffma@gmail.com,612-759-6702,,,,,,,,"6085 7th St NE, Fridley, MN 55432",Minnesota,Fridley,6085 7th St NE,55432,-93.2568248,45.0782267,,
farmers market,"Feb 22nd, 2023",farmersmarket_307983_14626_20230517164240.png,307983,Fulton Farmers' Market,,Rebecca Lee,info@neighborhoodrootsmn.org,,http://neighborhoodrootsmn.org/,,,,,,,"4901 Chowen Ave S, Minneapolis, MN 55410",Minnesota,Southwest Minneapolis,4901 Chowen Ave S,55410,-93.3248144,44.9139209,,
farmers market,"Feb 22nd, 2023",farmersmarket_307984_14626_20230517164312.png,307984,Fulton Farmers' Market - Winter,,Rebecca Lee,info@neighborhoodrootsmn.org,,http://neighborhoodrootsmn.org/,,,,,,,"49th St and Chowen Ave, Minneapolis MN 55410",Minnesota,Minneapolis,49th St and Chowen Ave,55410,-93.3260752,44.9142498,,
farmers market,"Feb 22nd, 2023",farmersmarket_307985_14626_20230517164942.png,307985,Ham Lake Farmers' & Artisan Market,,Kari Lund,kari@hamlakecc.org,763-434-3011,https://www.hamlakeareacc.org/farmers-market/,,,,,,,"14630 Hwy 65 NE, Ham Lake, MN 55304",Minnesota,Ham Lake,14630 Hwy 65 NE,55304,-93.2360773,45.233193,,
farmers market,"Feb 22nd, 2023",farmersmarket_307992_14626_20230517170011.png,307992,Hopkins Farmers' Market,,Gwen Smith,hopkinsfarmersmarket@gmail.com,952-583-1930,http://www.hopkinsfarmersmarket.com/,,,,,,,"16 9th Ave S, Hopkins, MN 55343",Minnesota,Hopkins,16 9th Ave S,55343,-93.4118275,44.923672,,
farmers market,"Feb 22nd, 2023",farmersmarket_307993_14626_20230517170047.png,307993,Hopkins Farmers' Market - Winter,,Gwen Smith,hopkinsfarmersmarket@gmail.com,952-583-1930,,,,,,,,"33 14th Ave N, Hopkins, MN 55343",Minnesota,Hopkins,33 14th Ave N,55343,-93.4171877,44.9255531,,
farmers market,"Feb 22nd, 2023",farmersmarket_307995_14626_20230517164117.png,307995,Howard Lake Area Farmers' Market,,Myra Laway,howardlakefarmersmarket@howard-lake.mn.us,320-543-2038,www.howardlakeareafarmersmarket.com,,,,,,,"US-12 & County Rd 7 SW, Howard Lake, MN 55349",Minnesota,Howard Lake,US-12 & County Rd 7 SW,55349,-94.0595139,45.061918,,
farmers market,"Feb 22nd, 2023",farmersmarket_307996_14626_20230517164152.png,307996,Howard Lake Area Farmers' Market - Winter,,Myra Laway,howardlakefarmersmarket@howard-lake.mn.us,320-543-2038,www.howardlakeareafarmersmarket.com,,,,,,,"731 6th St, Howard Lake, MN 55349",Minnesota,Howard Lake,731 6th St,55349,-94.070139,45.0609351,,
farmers market,"Feb 22nd, 2023",farmersmarket_308001_14626_20230517164748.png,308001,Kingfield Farmers' Market,,Erica Lanning,info@neighborhoodrootsmn.org,,http://neighborhoodrootsmn.org/,,,,,,,"4055 Nicollet Ave, Minneapolis, MN 55409",Minnesota,King Field,4055 Nicollet Ave,55409,-93.2774606,44.9294207,,
farmers market,"Feb 22nd, 2023",farmersmarket_308002_14626_20230517164853.png,308002,Kingfield Farmers' Market - Winter,,Erica Lanning,info@neighborhoodrootsmn.org,,http://neighborhoodrootsmn.org/,,,,,,,"4901 Chowen Ave S, Minneapolis, MN 55410",Minnesota,Southwest Minneapolis,4901 Chowen Ave S,55410,-93.3248144,44.9139209,,
farmers market,"Feb 22nd, 2023",farmersmarket_308127_14626_20230517170301.png,308127,Arlington Farmers' Market,,Julianne Shaw,cityhall@arlingtonmn.com,507-380-1047,https://www.arlingtonmnchamber.org/farmer-s-market,,,,,,,"50270 MN-19, Gaylord, MN 55334",Minnesota,Gaylord,50270 MN-19,55334,-94.2793732,44.5478059,,
farmers market,"Feb 22nd, 2023",farmersmarket_308192_2_20230517141119.png,308192,Trimont Farmers' Market,,Karin Carlson,karincarlson44@gmail.com,507-340-7453,,,,,,,,"151 Chestnut St, Trimont, MN 56176",Minnesota,Trimont,151 Chestnut St,56176,-94.7178704,43.7592499,,
farmers market,"Feb 22nd, 2023",farmersmarket_308193_2_20230516212151.png,308193,Wabasha Downtown Farmers' Market,,Laura Jahnke,Wabashafm@gmail.com,401-252-9068,https://www.localline.ca/wabasha-farmers-market,,,,,,,"168 Alleghany Ave, Wabasha, MN 55981",Minnesota,Wabasha,168 Alleghany Ave,55981,-92.0335012,44.3834431,,
farmers market,"Feb 22nd, 2023",farmersmarket_308199_2_20230516210903.png,308199,Winona Farmers' Market,,Monica,winonafarmersmarket@gmail.com,507-459-3016,http://www.winonafarmersmarket.com/,,,,,,,"1 Main St, Winona, MN 55987",Minnesota,Winona,1 Main St,55987,-91.6369468,44.0544484,,
farmers market,"Feb 22nd, 2023",farmersmarket_308200_2_20230516211145.png,308200,Winona Farmers' Market - Winter,,Monica,winonafarmersmarket@gmail.com,507-459-3016,http://www.winonafarmersmarket.com/,,,,,,,"210 Zumbro St, Winona, MN 55987",Minnesota,Winona,210 Zumbro St,55987,-91.6209098,44.0466033,,
farmers market,"Feb 22nd, 2023",farmersmarket_321_25_20210810213140.png,321,New Hope Community Farmers Market,,Kris Frey,kris@newhopemarket.org,763-257-2963,www.newhopemarket.org,https://www.facebook.com/newhopefarmersmarket,,,,,,"4401 Xylon Ave N, Minneapolis, MN 55428",Minnesota,Minneapolis,4401 Xylon Ave N,55428,-93.3857138,45.0357324,,
farmers market,"Jan 25th, 2021",default-farmersmarket-4-3.jpg,301384,Hendricks Farmers Market,,Linda Buller,dlbuller@itctel.com,5072753089,,Buller Gardens,,,,,,"Main Street, Hendricks, Minnesota 56136",Minnesota,Hendricks,Main Street,56136,-96.426422,44.508647,July to October,"Fresh fruits, Fresh vegetables, Baked goods, Bedding plants, Cut flowers, Eggs, Fresh/dried herbs, Honey, Poultry/fowl meat and products"
farmers market,"Jan 26th, 2021",farmersmarket_300005_14626_20230517165926.png,300005,City of Plymouth Farmers Market,,Kiley Rondeau,krondeau@plymouthmn.gov,763-509-5226,www.plymouthmn.gov,,,,,,,"15500 County Road 6, Plymouth, Minnesota 55447",Minnesota,Plymouth,15500 County Road 6,55447,-93.473419,44.997274,June to October,"Fresh fruits, Fresh vegetables, Baked goods, Bedding plants, Canned or preserved fruits/vegetables, Cut flowers, Dairy products., Fresh/dried herbs, Honey, Maple products, Nuts, Prepared foods, Soap/body care products"
farmers market,"Jan 4th, 2021",farmersmarket_301079_14626_20230517170226.png,301079,Goodhue Farmers Market,,Selene OReilly,Goodhuefarmersmarket@gmail.com,651-380-1313,,Goodhue Farmers Market,,,,,,"411 Rosie Park Way, Goodhue , Minnesota 55027",Minnesota,Goodhue,411 Rosie Park Way,55027,-92.624672,44.403334,June to October,"Fresh fruits, Fresh vegetables, Baked goods, Canned or preserved fruits/vegetables, Coffee/tea, Crafts/woodworking items, Cut flowers, Eggs, Honey, Poultry/fowl meat and products, Red/other non-poultry meat and products, Soap/body care products"
farmers market,"Jul 30th, 2020",default-farmersmarket-4-3.jpg,301177,Duluth's Downtown Farmers' Market,,Darlene Marshall,dmarshall@downtownduluth.com,2187403747,www.downtownduluth.com,Facebook.com/GreaterDowntownCouncil,Twitter.com/GreaterDowntownCouncil,,,,,"Gitch ode' Akiing formerly known as Lake Place Park 214 E Superior Street, Duluth, Minnesota 55802",Minnesota,Duluth,214 E Superior Street,55802,-92.093948,46.788805,July to September,"Fresh fruits, Fresh vegetables, Baked goods, Crafts/woodworking items, Cut flowers, Eggs, Fresh/dried herbs, Honey, Maple products, Mushrooms"
farmers market,"Jun 11th, 2021",default-farmersmarket-4-3.jpg,301534,North Branch Farmers Market,,Joleen Pierce,piercedj@outlook.com,651-674-4507,,North Branch - Minnesota Farmers Market,,,,,,"6241 Main Street, North Branch, Minnesota 55056",Minnesota,North Branch,6241 Main Street,55056,-92.982014,45.510887,July to October,"Fresh fruits, Fresh vegetables, Baked goods, Bedding plants, Canned or preserved fruits/vegetables, Crafts/woodworking items, Cut flowers, Eggs, Fresh/dried herbs, Honey, Maple products, Nursery stock, Prepared foods"
farmers market,"Jun 2nd, 2021",default-farmersmarket-4-3.jpg,301523,The St. James Farmers Market,,The St James Farmers Market,Thestjamesfm@outlook.com,5073753333,,,,,,,,"304 Armstrong Blvd n, St.james, Minnesota 56081",Minnesota,St.james,304 Armstrong Blvd n,56081,-94.614044,43.9784291,Year-round,"Fresh fruits, Fresh vegetables, Baked goods, Bedding plants, Canned or preserved fruits/vegetables, Crafts/woodworking items, Cut flowers, Eggs, Fresh/dried herbs, Honey, Maple products, Soap/body care products"
farmers market,"Mar 18th, 2022",farmersmarket_5820_14062_20220318190715.png,5820,Richfield Farmers Market,"Since 1990, Richfield Recreation has operated the Richfield Farmers Market to provide access to local, healthy, and affordable foods, and to offer a community gathering space to help connect residents, as well as local producers.  The Richfield Farmers Market also emphasizes educational and recreational activities through our involvement with the Richfield Arts Commission, the U of M Master Gardener Program, and other programs and events.
",Bonnie Hanna-Powers,farmersmarket@richfieldmn.gov,6128619362,https://www.richfieldmn.gov/departments/parks_and_recreation/farmers_market/index.php,https://www.facebook.com/RichfieldFarmersMarket,https://twitter.com/richfieldfarmkt,https://www.instagram.com/cityofrichfield/,,,,"6335 Portland Avenue, Richfield, MN, USA",Minnesota,Richfield,6335 Portland Avenue,55423,-93.266024,44.8883623,05/14/2022 to 08/31/2022,"Fresh fruits, Fresh vegetables, Baked goods, Canned or preserved fruits/vegetables, Coffee/tea, Crafts/woodworking items, Cut flowers, Dairy products., Eggs, Fresh/dried herbs, Honey, Juices/non-alcoholic ciders, Maple products, Mushrooms, Pet food, Poultry/fowl meat and products, Prepared foods, Red/other non-poultry meat and products, Soap/body care products"
farmers market,"Mar 18th, 2022",farmersmarket_5821_14062_20220318195422.png,5821,Richfield Winter Market,"The Richfield Farmers Market moves indoors for the winter! Join us on select Saturdays inside the Richfield Community Center for local foods, crafts, and gifts.",Bonnie Hanna-Powers,farmersmarket@richfieldmn.gov,6128619362,https://www.richfieldmn.gov/departments/parks_and_recreation/farmers_market/index.php,https://www.facebook.com/RichfieldFarmersMarket,https://twitter.com/richfieldfarmkt,https://www.instagram.com/cityofrichfield/,,,,"7000 Nicollet Ave, Richfield, MN, USA",Minnesota,Minneapolis,7000 Nicollet Avenue,55423,-93.278795,44.876064,,
farmers market,"Mar 21st, 2023",default-farmersmarket-4-3.jpg,311166,Albert Lea Winter Farmers' Market,,,vhuntley@wctatel.net,507-297-5546,http://www.albertleafarmersmarket.com/,https://www.facebook.com/pages/Albert-Lea-Farmers-Market/191640457536251,,,,,,"2510 Bridge Ave., Albert Lea, MN, 56007",Minnesota,Albert Lea,2510 Bridge Ave.,56007,-93.35889274871066,43.68091704761088,,
farmers market,"Mar 21st, 2023",default-farmersmarket-4-3.jpg,311167,Almelund Farmers' Market,,,peterson.jewell@gmail.com,651-583-2208,,https://www.facebook.com/pages/Almelund-Farmers-Market/741766059167316,,,,,,"37455 Park Trl., Center City, MN, 55012",Minnesota,Center City,37455 Park Trl.,55012,-92.78572525255996,45.490683144273945,,
farmers market,"Mar 21st, 2023",default-farmersmarket-4-3.jpg,311168,At the Farm - Roadside Farmers Market,,,,952-442-4816,,,,,,,,"8880 Highway 5 East, Waconia MN 55387",Minnesota,Waconia,8880 Highway 5 East,55387,-93.74645811191495,44.85908097982989,,
farmers market,"Mar 21st, 2023",default-farmersmarket-4-3.jpg,311169,Brainerd Farmers Market,,,,,,,,,,,,"1579 Hall Street 1579 Hall Street Shoreview, MN 55126",Minnesota,SHOREVIEW,1579 HALL ST,55126,-93.16813132869247,45.12292487049462,,
farmers market,"Mar 21st, 2023",default-farmersmarket-4-3.jpg,311170,Cambridge-Isanti Farmers' Market,,,,763-444-5366,,https://www.facebook.com/pages/Cambridge-Isanti-Farmers-Market/371638149058,,,,,,"400 E. Dual Blvd. NE, Isanti, MN, 55040",Minnesota,Isanti,400 E. Dual Blvd. NE,55040,-93.24172219458016,45.50085794633114,,
farmers market,"Mar 21st, 2023",default-farmersmarket-4-3.jpg,311171,Downtown Farmington Farmers' Market,,,cmuller@ci.farmington.mn.us,651-280-6803,http://www.ci.farmington.mn.us,,,,,,,"430 3rd St., Farmington, MN, 55024",Minnesota,Farmington,430 3rd St.,55024,-93.14521005944701,44.63876915821672,,
farmers market,"Mar 21st, 2023",default-farmersmarket-4-3.jpg,311172,Ellendale Area Farmers' Market,,,,,,,,,,,,"215 5th Ave West Ellendale, MN 56026",Minnesota,ELLENDALE,215 5TH AVE W,56026,-93.3011522308236,43.8729890860928,,
farmers market,"Mar 21st, 2023",default-farmersmarket-4-3.jpg,311173,Goose Lake Artisan & Farmers Market,,,,612-209-1721,http://gooselakefarm.com,,,,,,,"6760 213th ave. nw nowthen, MN 55330",Minnesota,NOWTHEN,6760 213TH AVE NW,55330,-93.43878320436698,45.35666116889285,,
farmers market,"Mar 21st, 2023",default-farmersmarket-4-3.jpg,311174,Healthy Powderhorn Farmers Market,,,,612-825-0429,,,,,,,,"3239 Chicago Avenue, South 3239 Chicago Avenue Minneapolis, MN 55407",Minnesota,MINNEAPOLIS,3239 CHICAGO AVE S,55407,-93.26261687525695,44.944097616952625,,
farmers market,"Mar 21st, 2023",default-farmersmarket-4-3.jpg,311175,Isanti Family Farmers Market,,,,763-444-5512,http://www.isantifamilyfarmersmarket.org,,,,,,,"17 Main Street West Isanti, MN 55040",Minnesota,ISANTI,17 MAIN ST W,55040,-93.24696728229165,45.49035565590757,,
farmers market,"Mar 21st, 2023",default-farmersmarket-4-3.jpg,311176,Kee Town & Country Centre's Farmers' Market,,,,,http://www.keetownandcountrycentre.com,,,,,,,"119 South Main Street Kiester, MN 56051",Minnesota,KIESTER,119 N MAIN ST,56051,-93.71229231460805,43.53718301064787,,
farmers market,"Mar 21st, 2023",default-farmersmarket-4-3.jpg,311178,Le Roy Farmers' Market,,,farmersmarket@leroymn.com,507-273-5815,http://www.farmersmarket.leroymn.com/,https://www.facebook.com/leroymarket,,,,,,"111 E. Main St., Le Roy, MN, 55951",Minnesota,Le Roy,111 E. Main St.,55951,-92.5035756606848,43.509527046859965,,
farmers market,"Mar 21st, 2023",default-farmersmarket-4-3.jpg,311179,Lexington Farmers' Market,,,,763-784-2792,http://www.ci.lexington.mn.us,,,,,,,"4175 Lovell Road Lexington, MN 55014",Minnesota,CIRCLE PINES,4175 LOVELL RD NE,55014,-93.16437764169001,45.14237480967538,,
farmers market,"Mar 21st, 2023",default-farmersmarket-4-3.jpg,311180,Lyn Lake Farmers Market,,,,,,,,,,,,"3300 Bryant Avenue, South 3300 Bryant Avenue Minneapolis, MN 55408",Minnesota,MINNEAPOLIS,3300 BRYANT AVE S,55408,-93.29071518301603,44.94280015292165,,
farmers market,"Mar 21st, 2023",default-farmersmarket-4-3.jpg,311181,Maple Plain Udder Market,,,,,http://www.uddermarket.com,,,,,,,"1620 Maple Ave, P.O. Box 97 Maple Plain, MN 55359",Minnesota,MAPLE PLAIN,1620 MAPLE AVE,55359,-93.65735434415221,45.00776582482576,,
farmers market,"Mar 21st, 2023",default-farmersmarket-4-3.jpg,311182,Norm's Farm Market,,,,763-261-4267,http://www.normsfarmmarket.com,http://www.facebook.com/Normsfarmmarket,,,,,,"10568 125th Ave. SE Becker, MN 55308",Minnesota,BECKER,10568 125TH AVE SE,55308,-93.90191006515,45.417912712686764,,
farmers market,"Mar 21st, 2023",default-farmersmarket-4-3.jpg,311183,"Pelican Rapids, MN Farmers' Market",,,,218-863-1221,,,,,,,,"25 North Broadway Pelican Rapids, MN 56572",Minnesota,PELICAN RAPIDS,25 N BROADWAY,56572,-96.08355672300205,46.570505738392164,,
farmers market,"Mar 21st, 2023",default-farmersmarket-4-3.jpg,311184,Richfield Wednesday Lyndale Ave Market,,,,612-861-9363,http://www.richfieldfarmersmarket.org,http://www.facebook.com/RichfieldFarmersMarket,,,,,,"6400 Lyndale Ave S Richfield, MN 55423",Minnesota,RICHFIELD,6400 LYNDALE AVE S,55423,-93.28811693409749,44.88681203503864,,
farmers market,"Mar 21st, 2023",default-farmersmarket-4-3.jpg,311185,St. Charles Farmers' Market,,,,,,http://www.facebook.com/stcharlesfarmersmarket,,,,,,"830 Whitewater Ave St. Charles, MN 55972",Minnesota,SAINT CHARLES,830 WHITEWATER AVE,55972,-92.06490539995178,43.96967141197901,,
farmers market,"Mar 21st, 2023",default-farmersmarket-4-3.jpg,311186,Stillwater Medical Group Farmers Market,,,,,,,,,,,,"1500 Curve Crest Blvd. Stillwater, MN 55082",Minnesota,STILLWATER,1500 CURVE CREST BLVD W,55082,-92.82736330849829,45.04133943703472,,
farmers market,"Mar 21st, 2023",default-farmersmarket-4-3.jpg,311187,Stillwater Township Farmers Market,,,,,http://stillwatertownship.com/stillwater/index.htm,,,,,,,"13636 90th Street North, Stillwater Twp., MN 55082",Minnesota,STILLWATER,13636 90TH ST N,55082,-92.82978042880806,45.079310311190774,,
farmers market,"Mar 21st, 2023",default-farmersmarket-4-3.jpg,311188,UMD Market Day in the Plaza,,,umdmarketday@gmail.com,218-349-6483,http://www.umdmarketday.com/,https://www.facebook.com/UMDMarketDay,,,,,,"1208 Kirby Dr., Duluth, MN, 55812",Minnesota,Duluth,1208 Kirby Dr.,55812,-92.08563161000603,46.82008947709561,,
farmers market,"Mar 21st, 2023",default-farmersmarket-4-3.jpg,311189,University of Minnesota Farmers' Market,,,wellness@umn.edu,612-624-9090,http://www.farmersmarket.umn.edu/,https://www.facebook.com/umn.farmersmarket,,,,,,"200 SE Oak St., Minneapolis, MN, 55455",Minnesota,Minneapolis,200 SE Oak St.,55455,-93.22693300040858,44.975097130160364,,
farmers market,"Mar 21st, 2023",default-farmersmarket-4-3.jpg,311190,Urban Growler Farmers Market,,,,612-860-3545,,,,,,,,"2325 Endicott Street Saint Paul, MN 55114",Minnesota,SAINT PAUL,2325 ENDICOTT ST,55114,-93.19312755233928,44.96993335340309,,
farmers market,"Mar 21st, 2023",default-farmersmarket-4-3.jpg,311191,Virginia Farmers Market,,,,218-865-4732,,,,,,,,"6650 Bodas Road 6650 Bodas Road Gilbert, MN 55741",Minnesota,GILBERT,6650 BODAS RD,55741,-92.38760345126185,47.40093263476644,,
farmers market,"Mar 21st, 2023",default-farmersmarket-4-3.jpg,311192,Watertown Farm & Craft Market,,,,952-955-2681,http://ci.watertown.mn.us/farm_market/,,,,,,,"300 Lewis Avenue N Watertown, MN 55388",Minnesota,WATERTOWN,300 LEWIS AVE S,55388,-93.84892772478685,44.961632125924105,,
farmers market,"Mar 21st, 2023",default-farmersmarket-4-3.jpg,311193,West Bank Farmers' Market,,,campuskitchen@augsburg.edu,612-330-1624,http://www.augsburg.edu/campuskitchen/what-we-do-2/farmersmarkets/,https://www.facebook.com/WestBankMarket,,,,,,"427 Cedar Ave., Minneapolis, MN, 55454",Minnesota,Minneapolis,427 Cedar Ave.,55454,-93.24722734077952,44.96954920228752,,
farmers market,"Mar 21st, 2023",default-farmersmarket-4-3.jpg,311194,Westonka Farmers Market,,,,612-491-8045,,,,,,,,"2450 Wilshire Boulevard Suite D 2450 Wilshire Boulevard Mound, MN 55364",Minnesota,MINNETRISTA,2450 WILSHIRE BLVD,55364,-93.65796156141687,44.93455122559692,,
farmers market,"Mar 21st, 2023",farmersmarket_311177_14626_20230517161405.png,311177,Kunnaris Farm Market,,,,218-290-5553,http://www.kunnaris.com,,,,,,,"1303 8th Street South Virginia, MN 55792",Minnesota,VIRGINIA,1303 8TH ST S,55792,-92.5526331572018,47.51591693313193,,
farmers market,"Mar 9th, 2021",default-farmersmarket-4-3.jpg,301452,Pine City Farmers Market,,Barb Videen,pinecityfarmersmarket@gmail.com,3203224040,www.pinecitychamber.com,@PineCityFarmersMarket,,,,,,"Main Street and 1st Ave NW, Pine City, Minnesota 55063",Minnesota,Pine City,Main Street and 1st Ave NW,55063,-92.970689,45.832364,June to October,"Fresh fruits, Fresh vegetables, Baked goods, Canned or preserved fruits/vegetables, Coffee/tea, Crafts/woodworking items, Cut flowers, Eggs, Fresh/dried herbs, Honey, Maple products, Poultry/fowl meat and products, Red/other non-poultry meat and products, Soap/body care products"
farmers market,"May 16th, 2023",farmersmarket_307413_2_20230516124932.png,307413,Aitkin Farmers' Market,,Erik Heimark,aitkinfm@gmail.com,218-232-1303,,,,,,,,"301 Minnesota Ave N, Aitkin, MN 56431",Minnesota,Aitkin,301 Minnesota Ave N,56431,-93.7069271,46.5346116,05/01/2023 to 10/31/2023,
farmers market,"May 31st, 2022",farmersmarket_301729_14159_20220601005000.png,301729,Walnut Grove Farmer's Market,"Locally grown produce from A to Zucchini, along with standard and specialty jams, jellies, and marmalade's; all kinds of pickled goodies, an array of salsa's from mild to hot; baked goods, cut flowers, and so much more!
Come shop with us June through October, Fridays, 3-6pm.",,,,,,,,,,,"U.S. 14, Walnut Grove, MN, U.S.",Minnesota,Walnut Grove,U.S. 14,,-95.4718667,44.2250891,06/24/2022 to 10/21/2022,"Fresh fruits, Fresh vegetables, Baked goods, Canned or preserved fruits/vegetables, Cut flowers, Eggs, Fresh/dried herbs, Honey, Maple products"
farmers market,"May 31st, 2022",farmersmarket_301731_14159_20220601014044.png,301731,Lamberton Farmers Market,"Locally grown produce from A to Zucchini, along with standard and specialty jams, jellies, and marmalade's; all kinds of pickled goodies, an array of salsa's from mild to hot; baked goods, cut flowers, and so much more!
Come shop with us June through October, Thursdays, 3.30-6pm.",,,,https://lambertonmn.com/farmers-market,,,,,,,"U.S. 14, Lamberton, MN, U.S.",Minnesota,Lamberton,U.S. 14,56152,-95.27387519999999,44.2317956,06/23/2022 to 10/20/2022,"Fresh fruits, Fresh vegetables, Baked goods, Canned or preserved fruits/vegetables, Cut flowers, Eggs, Honey, Maple products"
farmers market,"May 31st, 2022",farmersmarket_301732_14159_20220601015607.png,301732,Springfield Riverside Farmers Market,"Locally grown produce from A to Zucchini, along with standard and specialty jams, jellies, and marmalade's; all kinds of pickled goodies, an array of salsa's from mild to hot; baked goods, cut flowers, and so much more! Come shop with us June through October, Tuesdays, 3-6pm.",Joe Salfer,springfieldriversidemarket@gmail.com,,,https://facebook.com/SpringfieldRiversideFarmersMarket,,,,,,"Riverside Drive, Springfield, MN, USA",Minnesota,Springfield,Riverside Drive,56087,-94.97134299999999,44.2352899,06/21/2022 to 10/18/2022,"Fresh fruits, Fresh vegetables, Baked goods, Canned or preserved fruits/vegetables, Cut flowers, Eggs, Honey, Maple products, Red/other non-poultry meat and products"
farmers market,"May 31st, 2022",farmersmarket_301733_14159_20220601021634.png,301733,Redwood Falls Farmers Market,"Locally grown produce from A to Zucchini, along with standard and specialty jams, jellies, and marmalade's; all kinds of pickled goodies, an array of salsa's from mild to hot; baked goods, cut flowers, meats, and so much more! Come shop with us July through October, Tuesdays 2-5.30, and Saturdays 9-Noon.",,,,,https://facebook.com/RedwoodFallsFarmersMarket,,,,,,"125 South Washington Street, Redwood Falls, MN, USA",Minnesota,Redwood Falls,125 South Washington Street,56283,-95.11767259999999,44.54114309999999,07/09/2022 to 10/22/2022,"Fresh fruits, Fresh vegetables, Baked goods, Canned or preserved fruits/vegetables, Cut flowers, Honey, Maple products, Red/other non-poultry meat and products"
farmers market,"Sep 11th, 2020",default-farmersmarket-4-3.jpg,300224,Northeast Minneapolis Farmers Market,,Sarah Knoss,info@northeastmarket.org,612-406-8794,www.northeastmarket.org,https://www.facebook.com/NortheastFarmersMarket,https://twitter.com/nefarmersmarket,,,,,"University Avenue NE and 7th Avenue NE , Minneapolis, Minnesota 55413",Minnesota,Minneapolis,University Avenue NE and 7th Avenue NE,55413,-93.262339,44.995288,May to October,"Fresh fruits, Fresh vegetables, Baked goods, Bedding plants, Canned or preserved fruits/vegetables, Coffee/tea, Crafts/woodworking items, Cut flowers, Dairy products., Eggs, Fish/seafood, Fresh/dried herbs, Grains/flour, Honey, Juices/non-alcoholic ciders, Maple products, Mushrooms, Nursery stock, Nuts, Pet food, Poultry/fowl meat and products, Prepared foods, Red/other non-poultry meat and products, Soap/body care products, Wild harvested forest products"
farmers market,"Sep 11th, 2020",default-farmersmarket-4-3.jpg,300229,Green Scene Walker Community Farmer's Market,,Erin Haefele,walkergreenscene@gmail.com,218-547-2880,http://walkergreenscene.com/walker-farmers-market/,https://www.facebook.com/walkergreenscene,,,,,,"617 Michigan Avenue, Walker, Minnesota 56484",Minnesota,Walker,617 Michigan Avenue,56484,-94.584857,47.100539,June to September,"Fresh fruits, Fresh vegetables, Baked goods, Bedding plants, Canned or preserved fruits/vegetables, Coffee/tea, Crafts/woodworking items, Cut flowers, Eggs, Fresh/dried herbs, Grains/flour, Honey, Juices/non-alcoholic ciders, Maple products, Mushrooms, Nursery stock, Poultry/fowl meat and products, Prepared foods, Red/other non-poultry meat and products, Soap/body care products, Wild harvested forest products"
on-farm market,"Apr 14th, 2022",onfarmmarket_701589_12525_20220414154311.png,701589,Woven Meat Co,,Keegan Knobloch,info@wovenmeats.com,3203491002,https://wovenmeats.com/,https://www.facebook.com/wovenmeatco/,,https://www.instagram.com/wovenmeatco/,,,,"21714 10th St, Winthrop, Minnesota 55396",Minnesota,Winthrop,21714 10th St,55396,-94.431189,44.630844,,
on-farm market,"Aug 12th, 2014",default-onfarmmarket-4-3.jpg,700640,"Fireside Orchard and Gardens, Inc.",,Todd Harvey,apples@firesideorchard.com,507-663-1376,http://www.firesideorchard.com,https://www.facebook.com/pages/Fireside-Orchard/142630532262,,,,,,"2225 Lonsdale Blvd E., Northfield, Minnesota 55057",Minnesota,Northfield,2225 Lonsdale Blvd E.,55057,-93.262322,44.471100,,
on-farm market,"Aug 13th, 2014",default-onfarmmarket-4-3.jpg,700636,Live Flowers LLC,,Renee Arcand,arkey1@frontiernet.net,651-433-5075,www.minnesotaliveflowers.com,https://www.facebook.com/LiveFlowersLLC,,,,,,"15677 May Avenue, Marine On St. Croix, Minnesota 55047",Minnesota,Marine On St. Croix,15677 May Avenue,55047,-92.853277,45.1770790,,
on-farm market,"Aug 14th, 2014",default-onfarmmarket-4-3.jpg,700295,Januschka's Farm Fresh Meat,,Jerry and Jackie Januschka,jackiejanuschka@hotmail.com,320-630-1430,,,,,,,,"16539 183rd Street, Little Falls, Minnesota 56345",Minnesota,Little Falls,16539 183rd Street,56345,-94.311759,46.0265527,,
on-farm market,"Aug 21st, 2014",default-onfarmmarket-4-3.jpg,700864,Living Food Farm,,Ron & Shirley Johnson,ron@livingfoodfarm.com,218-212-1559,www.livingfoodfarm.com,https://www.facebook.com/livingfoodfarm/timeline?ref=page_internal,,,,,,"41587 Co. Rd. 19, Deer River, Minnesota 56636",Minnesota,Deer River,41587 Co. Rd. 19,56636,-93.744139,47.3912040,,
on-farm market,"Aug 24th, 2014",default-onfarmmarket-4-3.jpg,700696,Fischers Croix Farm Orchard,,John Leadholm,,651.437.7126,fischerscroixfarmorchard.com,,,,,,,"12971 St. Croix Trail  S., Hastings, Minnesota 55033",Minnesota,Hastings,12971 St. Croix Trail  S.,55033,-92.816233,44.761736,,
on-farm market,"Aug 26th, 2014",default-onfarmmarket-4-3.jpg,700391,Byrne Farm,,James Byrne,byrnefarmelk@yahoo.com,507-358-6505,Byrnefarm.com,,,,,,,"11026 CoRd 113 NW, Pine Island, Minnesota 55963",Minnesota,Pine Island,11026 CoRd 113 NW,55963,-92.658230,44.175289,,
on-farm market,"Aug 26th, 2014",default-onfarmmarket-4-3.jpg,700428,Pine Winder Blueberry Farm,,,windryder@tds.net,218-587-2752,www.pinewinder.com,,,,,,,"1824 36th Avenue South West, Pine River, Minnesota 56474",Minnesota,Pine River,1824 36th Avenue South West,56474,-94.472502,46.739855,,
on-farm market,"Aug 4th, 2014",default-onfarmmarket-4-3.jpg,700505,Wegners Tree Farm,,carl,cwegner2@msn.com,(218) 326-5965,,,,,,,,"19600 Cardinal Drive, Grand Rapids, Minnesota 55744",Minnesota,Grand Rapids,19600 Cardinal Drive,55744,-93.399751,47.156081,,
on-farm market,"Feb 17th, 2022",default-onfarmmarket-4-3.jpg,701635,Blue Dirt Farm,,Scott Haase,scott@bluedirtfarm.com,507-526-4729,https://bluedirtfarm.com/,https://www.facebook.com/bluedirtfarm,,,,,,"8574 377th Avenue, Blue Earth, Minnesota 56013",Minnesota,Blue Earth,8574 377th Avenue,56013,-94.112340,43.610897,,
on-farm market,"Feb 28th, 2020",default-onfarmmarket-4-3.jpg,701506,Helstrom Farms,,Jason Helstrom,jason@helstromfarms.com,2189696064,www.helstromfarms.com,"Helstrom Farms - Home | Facebookwww.facebook.com  Places  Hibbing, Minnesota  Farm",,,,,,"10955 South Townline Road, Hibbing, Minnesota 55746",Minnesota,Hibbing,10955 South Townline Road,55746,-92.831859,47.297397,,
on-farm market,"Feb 8th, 2015",default-onfarmmarket-4-3.jpg,701207,Ward Hilltop Farm,,William Patrick Ward,WardHilltopFarm@gmail.com,507-867-1601,https://wardhilltopfarm.shutterfly.com/,https://www.facebook.com/pages/Ward-Hilltop-Farm/701227939907497?ref=settings,,,,,,"26541 County 40, Chatfield , Minnesota 55923",Minnesota,Chatfield,26541 County 40,55923,-92.120479,43.840284,,
on-farm market,"Jan 19th, 2017",default-onfarmmarket-4-3.jpg,701384,Peaceful Pines Farm,,Bill Carpenter,peacefulpinesfarm@gmail.com,320-591-0007,peacefulpinesfarm.com,facebook.com/PeacefulPinesFarm,,,,,,"13650 Government Rd, Pine City, Minnesota 55063",Minnesota,Pine City,13650 Government Rd,55063,-92.934008,45.831203,,
on-farm market,"Jul 12th, 2016",default-onfarmmarket-4-3.jpg,701355,River Falls Ranch,,Nicole Peterson,riverfallsranch@hotmail.com,218-964-5370,,www.facebook.com/riverfallsranch,,,,,,"13500 150th Ave. SE, Saint Hilaire, Minnesota 56754",Minnesota,Saint Hilaire,13500 150th Ave. SE,56754,-96.159302,47.969608,,
on-farm market,"Jul 26th, 2014",default-onfarmmarket-4-3.jpg,700552,Minnesota Fresh Farm,,Sharon Johnson,sharon@minnesotafreshfarm.com,612-735-5459,www.minnesotafreshfarm.com,www.facebook.com/MinnesotaFreshFarm,,,,,,"20241 Highway 65, East Bethel, Minnesota 55011",Minnesota,East Bethel,20241 Highway 65,55011,-93.235380,45.334493,,
on-farm market,"Jul 26th, 2014",default-onfarmmarket-4-3.jpg,700579,Red Barn Orchard,,Jon Stachour,redbarnorchard@yahoo.com,218 8388185,www.redbarnorchard.com,,,,,,,"1365 44th Street South West, Pine River, Minnesota 56474",Minnesota,Pine River,1365 44th Street South West,56474,-94.354116,46.645768,,
on-farm market,"Jul 27th, 2014",default-onfarmmarket-4-3.jpg,700180,"Auntie Annie's Fields, LLC",,Elizabeth O,auntieanniesfields@gmail.com,507-645-4662,,https://www.facebook.com/auntieanniesfields,,,,,,"12456 Bagley Ave., Dundas, Minnesota 55019",Minnesota,Dundas,12456 Bagley Ave.,55019,-93.303168,44.408731,,
on-farm market,"Jul 27th, 2014",default-onfarmmarket-4-3.jpg,700330,Paradise Valley Buffalo Ranch,,Duane Hayes,info@bisonisbetter.com,218-694-2290,,,,,,,,"15132  346st, Bagley, Minnesota 56621",Minnesota,Bagley,15132  346st,56621,-95.457726,47.5072118,,
on-farm market,"Jul 27th, 2014",default-onfarmmarket-4-3.jpg,700377,Crow River Nursery,,Paul Saunders,crowriver2@aol.com,888-551-5630,www.crowrivernursery.com,,,,,,,"1339 County Road 6 Southwest, Howard Lake, Minnesota 55349",Minnesota,Howard Lake,1339 County Road 6 Southwest,55349,-94.073601,45.132957,,
on-farm market,"Jul 27th, 2014",default-onfarmmarket-4-3.jpg,700620,Nelson-Shine Produce,,Gretchen nelson,ng.nelson@hotmail.com,218-829-9084,www.nelsonshineproduce.com,www.facebook.com/pages/Nelson-Shine-Produce,,,,,,"2911 145th Avenue, Brainerd, Minnesota 56401",Minnesota,Brainerd,2911 145th Avenue,56401,-94.096183,46.1977690,,
on-farm market,"Jul 27th, 2014",default-onfarmmarket-4-3.jpg,700626,Blueberry Fields Of Stillwater,,,bev@blueberryfieldsofstillwater.com,651-351-0492,,,,,,,,"9450 Mendel Road North, Stillwater, Minnesota 55082",Minnesota,Stillwater,9450 Mendel Road North,55082,-92.852251,45.085194,,
on-farm market,"Jul 28th, 2014",default-onfarmmarket-4-3.jpg,700251,Minnesota Syrup Co.,,Paul Sutherland,Paul@mnsyrup.com,218-353-7514,www.mnsyrup.com,,,,,,,"5669 west park hill rd, Finland, Minnesota 55603",Minnesota,Finland,5669 west park hill rd,55603,-91.196107,47.415494,,
on-farm market,"Jul 30th, 2014",default-onfarmmarket-4-3.jpg,700090,Omega Maiden Oils,,Justin and Kathleen Smith,sales@omegamaidenoils.com,507-822-6100,www.omegamaidenoils.com,www.facebook.com/OmegaMaidenOils,,,,,www.OmegaMaidenOils.com/blog,"37574 County Road 11, Lamberton, Minnesota 56152",Minnesota,Lamberton,37574 County Road 11,56152,-95.327905,44.154267,,
on-farm market,"Jul 30th, 2014",default-onfarmmarket-4-3.jpg,700216,Sweetland Orchard,,Mike and Gretchen Perbix,sweetlandorchard@gmail.com,651-252-4337,http://sweetlandorchard.com,https://www.facebook.com/sweetlandorchard,https://twitter.com/sweetlandorchrd,,,,http://sweetlandorchard.com,"26205 Fairlawn Ave, Webster, Minnesota 55088",Minnesota,Webster,26205 Fairlawn Ave,55088,-93.460514,44.569636,,
on-farm market,"Jul 31st, 2014",default-onfarmmarket-4-3.jpg,700076,Little Hill Berry Farm,,Molly McGovern,info@littlehillberryfarm.com,,www.littlehillberryfarm.com,https://www.facebook.com/pages/Little-Hill-Berry-Farm/114731131926590,,,,,www.littlehillberryfarm.com,"4339 320th St W, Northfield, Minnesota 55057",Minnesota,Northfield,4339 320th St W,55057,-93.153468,44.485908,,
on-farm market,"Jun 20th, 2015",default-onfarmmarket-4-3.jpg,700686,Jake and Scout's Berry Farm,,Lise Herren,lise@jakeandscoutsberryfarm.com,218-821-1145,www.jakeandscoutsberryfarm.com,www.facebook.com/jakeandscoutsberryfarm,,,,,,"1822 County Road 29, Lake Shore, Minnesota 56468",Minnesota,Lake Shore,1822 County Road 29,56468,-94.378346,46.5291316,,
on-farm market,"Mar 29th, 2015",default-onfarmmarket-4-3.jpg,700379,Covered Bridge Farm,,Pete Larsen,coveredbridgefarm.mn@gmail.com,651-464-0735,www.coveredbridgefarm.net,,,,,,,"18655 Forest Blvd. N., Forest Lake, Minnesota 55025",Minnesota,Forest Lake,18655 Forest Blvd. N.,55025,-92.981095,45.219599,,
on-farm market,"Mar 29th, 2015",default-onfarmmarket-4-3.jpg,700993,Simple Harvest Farm Organics,,Kathy Zeman,kzeman@kmwb.net,507-664-9446,www.simpleharvestfarm.com,https://www.facebook.com/pages/Simple-Harvest-Farm-Organics/173674052675008,,,,,,"9800 155th Street East, Nerstrand, Minnesota 55053",Minnesota,Nerstrand,9800 155th Street East,55053,-93.105069,44.364147,,
on-farm market,"Mar 3rd, 2022",default-onfarmmarket-4-3.jpg,701642,Dancing the Land Farm Store,,Liz Dwyer,dancingtheland@gmail.com,3205582853,https://www.dancingtheland.com/,https://www.facebook.com/dancingtheland/,,,,,,"19485 Estes Road, Clearwater, Minnesota 55320",Minnesota,Clearwater,19485 Estes Road,55320,-94.153961,45.405741,,
on-farm market,"May 18th, 2015",default-onfarmmarket-4-3.jpg,701261,Woods' Edge Apples,,Joe & Laurie Schroeder,woodsedgeapples@msn.com,763-682-4409,http://www.localharvest.org/woods-edge-apples-orchard-M6311,https://www.facebook.com/pages/Woods-Edge-Apples/206645359389046,,,,,,"1901 50th St NE, Buffalo, Minnesota 55313",Minnesota,Buffalo,1901 50th St NE,55313,-93.848981,45.222802,,
on-farm market,"May 1st, 2015",default-onfarmmarket-4-3.jpg,700400,Blueberry Meadows / 5th Meadow,,Renie Lauer,blueberrymeadowspyo@gmail.com,218-398-4263,blueberrymeadows.com,http://facebook.com/pages/Blueberry-Meadows/119913568027370,https://www.twitter.com/bluemeadow5,,,,,"34625 8 Mile Rd, Grand Rapids, Minnesota 55744",Minnesota,Grand Rapids,34625 8 Mile Rd,55744,-93.591111,47.1183920,,
on-farm market,"Oct 2nd, 2014",default-onfarmmarket-4-3.jpg,701117,Brambleberry Farm,,Brambleberry Farm,jimfruth@charter.net,2185685477,www.brambleberryfruitfarm.com,,,,,,,"4002 Davis Street, Pequot Lakes, Minnesota 56472",Minnesota,Pequot Lakes,4002 Davis Street,56472,-94.320368,46.5937660,,
on-farm market,"Oct 6th, 2014",default-onfarmmarket-4-3.jpg,700564,Sam Kedem Nursery and Gardens,,Sam Kedem,sam@kedemgarden.com,651-437-7516,www.kedemgarden.com,,,,,,,"12414 191st Street East, Hastings, Minnesota 50033",Minnesota,Hastings,12414 191st Street East,50033,-92.856364,44.6691760,,
on-farm market,"Sep 17th, 2014",default-onfarmmarket-4-3.jpg,700078,Cornerstone Pines,,Chuck & Kathy Parker,info@cornerstonepineschristmastrees.com,320-732-3299,http://www.cornerstonepineschristmastrees.com/,https://www.facebook.com/pages/Cornerstone-Pines/203194103124691,,,,,http://www.cornerstonepineschristmastrees.com/pages/BLOG/,"19180 281st Ave, Grey Eagle, Minnesota 56336",Minnesota,Grey Eagle,19180 281st Ave,56336,-94.784708,45.907281,,
on-farm market,"Sep 25th, 2014",default-onfarmmarket-4-3.jpg,700030,Straight River Farm,,Bill Hein,info@straightriverfarm.com,507-334-2226,www.straightriverfarm.com,https://www.facebook.com/StraightRiverFarm,,,,,,"3733 220th St E, Faribault, Minnesota 55021",Minnesota,Faribault,3733 220th St E,55021,-93.228507,44.268815,,
on-farm market,"Sep 30th, 2014",default-onfarmmarket-4-3.jpg,700106,"Maple Hills Orchard, LLC",,Gary Goreham,maplehillsorchard@hotmail.com,218-844-5445,http://www.maplehillsorchard.com/,https://www.facebook.com/MapleHillsOrchard,,,,,,"29355 130 St, Frazee, Minnesota 56544",Minnesota,Frazee,29355 130 St,56544,-95.791331,46.759858,,
on-farm market,"Sep 30th, 2014",default-onfarmmarket-4-3.jpg,700375,Sunrise Sheep & Wool,,David Nelson,danelson@sunrisesheep.com,651-674-5920,www.sunrisesheep.com,https://www.facebook.com/sunrisesheep,,,,,,"38286 Kost Trail, Sunrise, Minnesota 55056",Minnesota,Sunrise,38286 Kost Trail,55056,-92.868231,45.502828,,
