Type,ModifyDate,Image,ListingID,Name,Description,ContactName,ContactEmail,ContactPhone,Website,Facebook,Twitter,Instagram,Pinterest,Youtube,Blog,Address,State,City,Street,Zip,Longitude,Latitude,Dates,Products
farmers market,"Apr 17th, 2020",default-farmersmarket-4-3.jpg,301083,Marlette Farmers Market,,Lisa Kenny,marlettefarmersmarket@gmail.com,9896357448,http://www.cityofmarlette.com/2216/Marlette-Farmers-Market,http://www.facebook.com/marlettefarmersmarket,,,,,,"3048 Main Street, Marlette, Michigan 48453",Michigan,Marlette,3048 Main Street,48453,-83.080532,43.327346,May to October,"Fresh fruits, Fresh vegetables, Baked goods, Bedding plants, Canned or preserved fruits/vegetables, Coffee/tea, Crafts/woodworking items, Cut flowers, Dairy products., Dry beans, Eggs, Fresh/dried herbs, Honey, Maple products, Pet food, Poultry/fowl meat and products, Prepared foods, Red/other non-poultry meat and products, Soap/body care products"
farmers market,"Apr 20th, 2020",default-farmersmarket-4-3.jpg,300144,Saline Farmers Market,,Jodi Hilberer,salinefarmersmarket@gmail.com,734-681-0860,www.cityofsaline.org/farmersmarket,https://www.facebook.com/pages/Saline-Farmers-Market/199592293395735,,,,,,"S. Ann Arbor Street, Saline, Michigan 48176",Michigan,Saline,S. Ann Arbor Street,48176,-83.781146,42.165956,May to October,"Fresh fruits, Fresh vegetables, Baked goods, Bedding plants, Canned or preserved fruits/vegetables, Coffee/tea, Crafts/woodworking items, Cut flowers, Dairy products., Eggs, Fresh/dried herbs, Honey, Maple products, Nursery stock, Poultry/fowl meat and products, Prepared foods, Red/other non-poultry meat and products, Soap/body care products"
farmers market,"Apr 20th, 2020",default-farmersmarket-4-3.jpg,300145,Saline Farmers Market,,Jodi Hilberer,salinefarmersmarket@gmail.com,734-681-0860,www.cityofsaline.org/farmersmarket,https://www.facebook.com/pages/Saline-Farmers-Market/199592293395735,,,,,,"7265 Saline Ann Arbor Road, Saline, Michigan 48176",Michigan,Saline,7265 Saline Ann Arbor Road,48176,-83.785094,42.179728,November to December,"Fresh vegetables, Baked goods, Coffee/tea, Dairy products., Eggs, Fish/seafood, Fresh/dried herbs, Honey, Maple products, Poultry/fowl meat and products, Prepared foods, Red/other non-poultry meat and products, Soap/body care products"
farmers market,"Apr 21st, 2022",default-farmersmarket-4-3.jpg,300808,Plainfield Township Farmers Market Hale,,Cheryl McDonell,cdmcdonell@gmail.com,5867478767,,,,,,,,"220 West Washington, Hale, Michigan 48739",Michigan,Hale,220 West Washington,48739,-83.804474,44.380388,May to September,"Fresh fruits, Fresh vegetables, Baked goods, Bedding plants, Canned or preserved fruits/vegetables, Coffee/tea, Crafts/woodworking items, Cut flowers, Eggs, Honey, Maple products, Soap/body care products"
farmers market,"Apr 7th, 2022",farmersmarket_301489_12266_20220407161153.png,301489,Battle Creek Farmers Market,"With a focus on Michigan grown and Michigan made foods, the Battle Creek Farmers Market is a great place to find fresh and flavor packed local foods from Michigan businesses. Non-food businesses are also welcome. The Market is held in Festival Market Square in downtown Battle Creek on Wednesday, 9-1, beginning in May and ending in October. Customers will find a family friendly market with a good variety of variety of vendors. Vendors will find a well managed and vendor friendly market. An open air marketplace under a pavilion offers picnic tables, restrooms onsite and free 1-hour parking for customers in the Hamblin Avenue ramp. Live music and other activities make summer fun at the farmers market. BCFM participates in Bridge Card (SNAP), Double Up Food Bucks, Senior Market FRESH, WIC Project FRESH, NHBP Elders Nutrition Program. Payment with cash, Credit and Debit cards as well a market issued scrip accepted. Contact us for more information. Visit us on Facebook and Instagram, too!",Kelly Walden,kwalden@kelloggarena.com,269-788-1102,https://kelloggarena.com/summer-series/,,,,,,,"25 S McCamly St, Battle Creek, Michigan 49017",Michigan,Battle Creek,25 S McCamly St,49017,-85.185150,42.320090,May to October,"Fresh fruits, Fresh vegetables, Baked goods, Bedding plants, Canned or preserved fruits/vegetables, Coffee/tea, Crafts/woodworking items, Cut flowers, Dairy products., Eggs, Fresh/dried herbs, Honey, Juices/non-alcoholic ciders, Maple products, Mushrooms, Poultry/fowl meat and products, Prepared foods, Red/other non-poultry meat and products, Soap/body care products"
farmers market,"Apr 9th, 2022",default-farmersmarket-4-3.jpg,301505,St. Louis Farmers Market,"Our market strives to be a gathering place for our community members. We offer music, cooking demonstrations, and booth space for non-profit agencies. Part of our mission is to improve access to health food. We offer multiple food assistance programs to help us achieve that goal. Our market is professionally run by  a Certified Farmers Market Manager (Michigan Farmers Market Association).",Linda Bader,stlouisfarmersmarket@gmail.com,9896200448,www.gratiotfarmersmarkets.com/st-louis,www.facebook.com/stlouisfm,,Https://www.instagram.com/stlouisfm,,,,"300 North Mill Street, St. Louis, Michigan 48880",Michigan,St. Louis,300 North Mill Street,48880,-84.608462,43.410742,June to October,"Fresh fruits, Fresh vegetables, Baked goods, Bedding plants, Canned or preserved fruits/vegetables, Coffee/tea, Crafts/woodworking items, Cut flowers, Dairy products., Dry beans, Eggs, Fresh/dried herbs, Honey, Maple products, Poultry/fowl meat and products, Prepared foods, Red/other non-poultry meat and products, Soap/body care products"
farmers market,"Aug 8th, 2021",default-farmersmarket-4-3.jpg,301589,New Era Farmers Market,,Sandy Whitaker,SHOPPNQUEEN@HOTMAIL.COM,5172420041,www.neweracrc.org,New Era Farmers Market,,,,,,"1820 Ray Avenue, New Era, Michigan 49446",Michigan,New Era,1820 Ray Avenue,49446,-86.347156,43.559633,June to September,"Fresh fruits, Fresh vegetables, Baked goods, Canned or preserved fruits/vegetables, Crafts/woodworking items, Cut flowers, Eggs, Fresh/dried herbs, Honey, Maple products, Mushrooms, Pet food, Prepared foods, Soap/body care products, Wild harvested forest products"
farmers market,"Aug 8th, 2022",farmersmarket_301754_14254_20220808210353.png,301754,South East Market,Small market sourcing first from BIPOC and women-led businesses and farms.,,manager@southeastmarketgr.com,,https://www.southeastmarketgr.com,https://www.facebook.com/southeastmarketgr,,https://www.instagram.com/southeastmarketgr,,,,"1220 Kalamazoo Avenue Southeast, Grand Rapids, MI, USA",Michigan,Grand Rapids,1220 Kalamazoo Avenue Southeast,49507,-85.64427789999999,42.94075230000001,Year-round,
farmers market,"Feb 19th, 2021",default-farmersmarket-4-3.jpg,301438,Menominee Historic Downtown Farmers Market  Association,,Lucy Pier,menomineehdfarmersmarket@gmail.com,9068638718,http://www.menomineefarmersmarket.com/,https://www.facebook.com/MenomineeFarmersMarket,https://twitter.com/MenoFarmMarket,,,,,"Menominee, Michigan 49858",Michigan,Menominee,,49858,-87.604562,45.107233,June to September,"Fresh fruits, Fresh vegetables, Baked goods, Crafts/woodworking items, Eggs, Fish/seafood, Honey, Maple products, Mushrooms"
farmers market,"Feb 1st, 2021",default-farmersmarket-4-3.jpg,300075,Northport Farmers Market,,Gary Kohlhaas,leelanaufarmersmarkets@gmail.com,231-256-0665,http://www.leelanaufarmersmarkets.com,https://www.facebook.com/leelanaufarmersmarkets/,,,,,,"105 S. Bay Street, Northport, Michigan 49670",Michigan,Northport,105 S. Bay Street,49670,-85.614175,45.129668,June to September,"Fresh fruits, Fresh vegetables, Baked goods, Bedding plants, Canned or preserved fruits/vegetables, Coffee/tea, Crafts/woodworking items, Cut flowers, Dairy products., Eggs, Fresh/dried herbs, Honey, Maple products, Mushrooms, Nursery stock, Pet food, Prepared foods, Red/other non-poultry meat and products, Soap/body care products"
farmers market,"Feb 1st, 2021",default-farmersmarket-4-3.jpg,300076,Suttons Bay Farmers Market,,,leelanaufarmersmarkets@gmail.com,231-256-0665,http://www.leelanaufarmersmarkets.com,https://www.facebook.com/leelanaufarmersmarkets/,,,,,,"Intersection of M22 & M204, Suttons Bay, Michigan 49682",Michigan,Suttons Bay,Intersection of M22 & M204,49682,-85.647075,44.980186,May to October,"Fresh fruits, Fresh vegetables, Baked goods, Bedding plants, Canned or preserved fruits/vegetables, Coffee/tea, Crafts/woodworking items, Cut flowers, Dairy products., Eggs, Fresh/dried herbs, Honey, Maple products, Mushrooms, Nursery stock, Nuts, Poultry/fowl meat and products, Prepared foods, Red/other non-poultry meat and products, Soap/body care products"
farmers market,"Feb 1st, 2021",default-farmersmarket-4-3.jpg,300077,Glen Arbor Farmers Market,,,leelanaufarmersmarkets@gmail.com,231-256-0665,http://www.leelanaufarmersmarkets.com,https://www.facebook.com/leelanaufarmersmarkets/,,,,,,"6394 Western Ave., Glen Arbor, Michigan 49636",Michigan,Glen Arbor,6394 Western Ave.,49636,-85.986905,44.897978,June to September,"Fresh fruits, Fresh vegetables, Baked goods, Bedding plants, Canned or preserved fruits/vegetables, Coffee/tea, Crafts/woodworking items, Cut flowers, Dairy products., Dry beans, Eggs, Fresh/dried herbs, Honey, Maple products, Mushrooms, Nuts, Poultry/fowl meat and products, Prepared foods, Red/other non-poultry meat and products, Soap/body care products"
farmers market,"Feb 1st, 2021",default-farmersmarket-4-3.jpg,300078,Leland Farmers Market,,,leelanaufarmersmarkets@gmail.com,231-256-0665,http://www.leelanaufarmersmarkets.com,https://www.facebook.com/leelanaufarmersmarkets/,,,,,,"River Street, Leland, Michigan 49654",Michigan,Leland,River Street,49654,-85.759459,45.022857,June to September,"Fresh fruits, Fresh vegetables, Baked goods, Canned or preserved fruits/vegetables, Crafts/woodworking items, Cut flowers, Fresh/dried herbs, Maple products, Nuts, Prepared foods, Soap/body care products"
farmers market,"Feb 1st, 2021",default-farmersmarket-4-3.jpg,300079,Empire Farmers Market,,,leelanaufarmersmarkets@gmail.com,231-256-9888,http://www.leelanaufarmersmarkets.com,https://www.facebook.com/leelanaufarmersmarkets/,,,,,,"10234 Front Street, Empire, Michigan 49630",Michigan,Empire,10234 Front Street,49630,-86.063056,44.811224,June to September,"Fresh fruits, Fresh vegetables, Baked goods, Bedding plants, Canned or preserved fruits/vegetables, Crafts/woodworking items, Cut flowers, Dairy products., Eggs, Fresh/dried herbs, Honey, Maple products, Mushrooms, Nursery stock, Soap/body care products"
farmers market,"Feb 24th, 2021",default-farmersmarket-4-3.jpg,301444,Belleville Farmers Market,,Shane Convery,jfayemillard@att.net,7345585368,www.bellevillecentralbusinesscommunity.com,Belleville Farmers Market,,,,,,"Main and 4th, Belleville, Michigan 48111",Michigan,Belleville,Main and 4th,48111,-83.482812,42.201917,June to September,"Fresh vegetables, Baked goods, Canned or preserved fruits/vegetables, Crafts/woodworking items, Cut flowers, Honey, Maple products, Soap/body care products"
farmers market,"Feb 4th, 2021",default-farmersmarket-4-3.jpg,300274,Downtown Allen Park Farmers Market,,Kibby Jennifer,jkibby@cityofallenpark.org,313-928-0940,http://www.allenparkdowntown.org,https://www.facebook.com/allenpark.dda?sk=wall,,,,,,"Park Avenue and Harrison Avenue, Allen Park, Michigan 48101",Michigan,Allen Park,Park Avenue and Harrison Avenue,48101,-83.208989,42.2548010,April to October,"Fresh fruits, Fresh vegetables, Baked goods, Bedding plants, Canned or preserved fruits/vegetables, Crafts/woodworking items, Cut flowers, Dairy products., Fresh/dried herbs, Honey, Nursery stock, Pet food, Prepared foods"
farmers market,"Feb 8th, 2021",default-farmersmarket-4-3.jpg,300149,Imlay City Farmers Market,,Katrina Morrow,ddapromotions@imlaycity.org,8107242135,www.icdda.com,https://www.facebook.com/pages/Imlay-City-Farmers-Market/215845188439242,,,,,,"120 N Main, Imlay City, Michigan 48444",Michigan,Imlay City,120 N Main,48444,-83.074322,43.024290,May to October,"Fresh fruits, Fresh vegetables, Baked goods, Bedding plants, Canned or preserved fruits/vegetables, Coffee/tea, Crafts/woodworking items, Eggs, Honey, Maple products, Poultry/fowl meat and products, Prepared foods, Soap/body care products"
farmers market,"Jan 25th, 2021",default-farmersmarket-4-3.jpg,300040,Ithaca Farmers Market,,Shelly Moffit,smoffit@ithacami.com,9898753200,129 W. Emerson St.,,,,,,,"Center & Pine River Street, Ithaca, Michigan 48847",Michigan,Ithaca,Center & Pine River Street,48847,-84.598559,43.292319,,"Fresh fruits, Fresh vegetables, Baked goods, Bedding plants, Canned or preserved fruits/vegetables, Crafts/woodworking items, Dairy products., Eggs, Fresh/dried herbs, Honey, Maple products, Red/other non-poultry meat and products"
farmers market,"Jan 25th, 2021",default-farmersmarket-4-3.jpg,300104,Dexter Farmers Market,,Dana Queen,farmersmarket@dextermi.gov,734-426-8303,"8123 Main St., 2nd floor",,,,,,,"3233 Alpine, Dexter, Michigan 48130",Michigan,Dexter,3233 Alpine,48130,-83.889459,42.339503,May to October,"Fresh fruits, Fresh vegetables, Baked goods, Bedding plants, Canned or preserved fruits/vegetables, Coffee/tea, Crafts/woodworking items, Cut flowers, Dairy products., Dry beans, Eggs, Fish/seafood, Fresh/dried herbs, Honey, Maple products, Mushrooms, Poultry/fowl meat and products, Soap/body care products"
farmers market,"Jan 25th, 2021",default-farmersmarket-4-3.jpg,300217,Monroe County Farmer's Market,,Denise Lewis,Wildflour.dl@gmail.com,734-854-2991,www.farmersmarketmonroemi.com,https://www.facebook.com/farmersmarketmonroemi,,,,,,"20 E. Willow St., Monroe, Michigan 48162",Michigan,Monroe,20 E. Willow St.,48162,-83.39378,41.91965,Year-round,"Fresh fruits, Fresh vegetables, Baked goods, Bedding plants, Canned or preserved fruits/vegetables, Crafts/woodworking items, Cut flowers, Eggs, Fresh/dried herbs, Honey, Maple products, Nuts, Poultry/fowl meat and products, Red/other non-poultry meat and products, Soap/body care products"
farmers market,"Jan 25th, 2021",default-farmersmarket-4-3.jpg,301385,Mt. Pleasant Farmers' Market - Island Park,,Carol Moody,parks-rec@mt-pleasant.org,989-779-5331,http://www.mt-pleasant.org/farmersmarket,https://www.facebook.com/mpfarmersmarket,,,,,,"331 N. Main Street, Mount Pleasant, Michigan 48858",Michigan,Mount Pleasant,331 N. Main Street,48858,-84.780178,43.607074,May to October,"Fresh fruits, Fresh vegetables, Baked goods, Bedding plants, Canned or preserved fruits/vegetables, Coffee/tea, Crafts/woodworking items, Cut flowers, Dairy products., Dry beans, Eggs, Fish/seafood, Fresh/dried herbs, Honey, Maple products, Mushrooms, Poultry/fowl meat and products, Prepared foods, Red/other non-poultry meat and products, Soap/body care products"
farmers market,"Jan 25th, 2021",default-farmersmarket-4-3.jpg,301386,Mt. Pleasant Farmers' Market - Broadway Street,,Carol Moody,parks-rec@mt-pleasant.org,9897795331,320 W. Broadway Street,https://www.facebook.com/mpfarmersmarket,,,,,,"Broadway Street between Main & University Streets, Mount Pleasant, Michigan 48858",Michigan,Mount Pleasant,Broadway Street between Main & University Streets,48858,-84.776052,43.604433,June to October,"Fresh fruits, Fresh vegetables, Baked goods, Canned or preserved fruits/vegetables, Coffee/tea, Crafts/woodworking items, Cut flowers, Eggs, Honey, Maple products, Mushrooms, Red/other non-poultry meat and products, Soap/body care products"
farmers market,"Jan 27th, 2021",default-farmersmarket-4-3.jpg,300530,Livonia Wilson Barn Farmers Market,,Karen DePerro,kdeperro5170@gmail.com,734-261-3602,29350 W. Chicago,The Wilson Barn,,,,,,"29350 W. Chicago, Livonia, Michigan 48150",Michigan,Livonia,29350 W. Chicago,48150,-83.331995,42.362596,July to October,"Fresh fruits, Fresh vegetables, Baked goods, Canned or preserved fruits/vegetables, Crafts/woodworking items, Honey, Prepared foods, Soap/body care products"
farmers market,"Jan 4th, 2021",default-farmersmarket-4-3.jpg,300644,Terra Square Farmers Market,,Teri Schut,Tschut@hudsonville.org,(616)669-0200,Terrasquare.com,,,,,,,"3380 Chicago Dr., Hudsonville, Michigan 49426",Michigan,Hudsonville,3380 Chicago Dr.,49426,-85.865455,42.8677383,June to September,"Fresh fruits, Fresh vegetables, Baked goods, Coffee/tea, Crafts/woodworking items, Cut flowers, Dairy products., Eggs, Honey, Juices/non-alcoholic ciders, Maple products, Mushrooms, Pet food, Poultry/fowl meat and products, Prepared foods, Red/other non-poultry meat and products, Soap/body care products, Wine, spirits, beer, hard cider"
farmers market,"Jan 4th, 2021",default-farmersmarket-4-3.jpg,301364,Ludington Farmer's Market,,Heather Tykoski,htykoski@ci.ludington.mi.us,231-845-6237,,https://www.facebook.com/Ludingtonfarmersmarket,,,,,,"LUDINGTON, Michigan 49431",Michigan,LUDINGTON,,49431,-86.447744,43.955713,September,"Fresh fruits, Fresh vegetables, Baked goods, Bedding plants, Canned or preserved fruits/vegetables, Cut flowers, Dairy products., Eggs, Fresh/dried herbs, Honey, Maple products, Nursery stock, Poultry/fowl meat and products, Prepared foods, Wine, spirits, beer, hard cider"
farmers market,"Jan 5th, 2021",default-farmersmarket-4-3.jpg,300084,Frankenmuth Farmers Market,,Christie Kilbourn,frankenmuthfarmersmarket@gmail.com,9896079214,www.frankenmuthfarmersmarket.org,https://www.facebook.com/Frankenmuth-Farmers-Market-106279602732863/,https://twitter.com/MuthFarmMarket,,,,,"534 North Main Street, Frankenmuth, Michigan 48734",Michigan,Frankenmuth,534 North Main Street,48734,-83.738212,43.344313,May to October,"Fresh fruits, Fresh vegetables, Baked goods, Bedding plants, Canned or preserved fruits/vegetables, Coffee/tea, Crafts/woodworking items, Cut flowers, Dairy products., Dry beans, Eggs, Fish/seafood, Fresh/dried herbs, Grains/flour, Honey, Juices/non-alcoholic ciders, Maple products, Mushrooms, Nuts, Pet food, Poultry/fowl meat and products, Prepared foods, Red/other non-poultry meat and products, Soap/body care products, Tofu/non-animal protein, Wild harvested forest products, Wine, spirits, beer, hard cider"
farmers market,"Jan 5th, 2021",default-farmersmarket-4-3.jpg,300414,Plainwell Farmers Market,,Denise Siegel,dsiegel@plainwell.org,2696856821,plainwell.org,Plainwell Farmers Market Official,,,,,,"554 Allegan St. , Plainwell , Michigan 49080",Michigan,Plainwell,554 Allegan St.,49080,-85.650721,42.452003,May to October,"Fresh vegetables, Baked goods, Coffee/tea, Crafts/woodworking items, Dairy products., Eggs, Fresh/dried herbs, Honey, Maple products, Prepared foods, Red/other non-poultry meat and products, Soap/body care products, Wine, spirits, beer, hard cider"
farmers market,"Jan 5th, 2021",default-farmersmarket-4-3.jpg,300817,Plainwell Indoor Market,,,market@plainwell.org,2696856821,plainwell.org,Plainwell Farmers Market Official,,,,,,"211 N. Main St. , Plainwell, Michigan 49080",Michigan,Plainwell,211 N. Main St.,49080,-85.643297,42.444910,November to December,"Baked goods, Canned or preserved fruits/vegetables, Crafts/woodworking items, Dairy products., Eggs, Honey, Maple products, Poultry/fowl meat and products, Prepared foods, Soap/body care products, Wine, spirits, beer, hard cider"
farmers market,"Jul 2nd, 2021",default-farmersmarket-4-3.jpg,301556,Harrison City Market,,Deborah Andrews,debbyandrews@hotmail.com,9893309561,www.harrisoncitymarket.com,https://www.facebook.com/GardenGrillandGallery,,,,,,"121 E. Main Street, Harrison, Michigan 48625",Michigan,Harrison,121 E. Main Street,48625,-84.800573,44.019859,June to October,"Fresh fruits, Fresh vegetables, Baked goods, Crafts/woodworking items, Eggs, Honey, Prepared foods, Soap/body care products"
farmers market,"Jul 31st, 2020",default-farmersmarket-4-3.jpg,301185,Pittsfield Township Farmers Market,,Tina Lloyd,farmersmarket@pittsfield-mi.gov,7348222121,https://www.pittsfield-mi.gov/Index.aspx?NID=760,https://www.facebook.com/pittsfieldtwpfarmersmarket,,,,,,"6201 W. Michigan Ave, Ann Arbor, Michigan 48108",Michigan,Ann Arbor,6201 W. Michigan Ave,48108,-83.700262,42.197733,June to September,"Fresh fruits, Fresh vegetables, Baked goods, Bedding plants, Cut flowers, Eggs, Fresh/dried herbs, Honey, Prepared foods, Soap/body care products"
farmers market,"Jun 25th, 2020",default-farmersmarket-4-3.jpg,301144,3rd Day Farmer's Market,,Anne M Gothard,3rddayfarm@gmail.com,231-884-5683,www.3rddayfarm.com,facebook/ 3rd Day Farm,,,,,,"3234 S. LaChance Rd, Lake City, Michigan 49651",Michigan,Lake City,3234 S. LaChance Rd,49651,-85.296147,44.292952,,"Fresh fruits, Fresh vegetables, Baked goods, Bedding plants, Canned or preserved fruits/vegetables, Crafts/woodworking items, Cut flowers, Dairy products., Eggs, Fresh/dried herbs, Honey, Maple products, Mushrooms, Nursery stock, Poultry/fowl meat and products, Red/other non-poultry meat and products, Soap/body care products, Wild harvested forest products"
farmers market,"Jun 29th, 2022",farmersmarket_301740_14198_20220630002200.png,301740,belding beatnik bazaar,,jenny bennett,hmusic116@yahoo.com,616-255-7146,,https://www.facebook.com/BeldingBazaar,,,,,,"301 East Main Street, Belding, Michigan, USA",Michigan,Belding,301 East Main Street,48809,-85.2266911,43.0976237,,
farmers market,"Jun 30th, 2021",default-farmersmarket-4-3.jpg,301555,Northville Farmers Market,,Lindsey Butzin,lindseybutzin@Northville.org,2483497640,https://www.northville.org/farmers-market-vendors,https://www.facebook.com/NorthvilleFarmersMarket,https://twitter.com/NorthvilleChamb,,,,,"Corner of 7 Mile and Center Streets, Northville, Michigan 48167",Michigan,Northville,Corner of 7 Mile and Center Streets,48167,-83.483407,42.426370,May to October,"Fresh fruits, Fresh vegetables, Baked goods, Canned or preserved fruits/vegetables, Coffee/tea, Crafts/woodworking items, Cut flowers, Dairy products., Eggs, Fish/seafood, Fresh/dried herbs, Juices/non-alcoholic ciders, Mushrooms, Nursery stock, Poultry/fowl meat and products, Red/other non-poultry meat and products"
farmers market,"Mar 21st, 2023",default-farmersmarket-4-3.jpg,310881,Acorn Farmers Market and Cafe,,,,734-718-5506,acornfarmersmarketcafe.org,,,,,,,"455 West Main Street, Manchester, Michigan",Michigan,Manchester,455 West Main Street,,-84.04438075916327,42.147544523440004,,
farmers market,"Mar 21st, 2023",default-farmersmarket-4-3.jpg,310882,Ada Farmers Market,,,,616-676-9191,http://adafarmersmarket.com,,,,,,,"7239 Thornapple River Drive Southeast, Ada, Michigan",Michigan,Ada,7239 Thornapple River Drive Southeast,,-85.48902851936563,42.95538284444001,,
farmers market,"Mar 21st, 2023",default-farmersmarket-4-3.jpg,310883,Adrian City Farmers Market,,,,734-678-6033x517,,https://www.facebook.com/pages/Adrian-Farmers-Market/151915178215362,,,,,,"115 Toledo Street, Adrian, Michigan",Michigan,Adrian,115 Toledo Street,,-84.03515278436502,41.900145747565794,,
farmers market,"Mar 21st, 2023",default-farmersmarket-4-3.jpg,310884,Alamo Farmers' and Crafters' Market,,,alamofarmersmarket@gmail.com,269-254-1002,http://www.alamofarmersandcrafters.com/,https://www.facebook.com/alamofarmersandcrafters/,,,,,,"8326 W. De Ave., Kalamazoo, MI, 49009",Michigan,Kalamazoo,8326 W. De Ave.,49009,-85.7134113151255,42.36422103779497,,
farmers market,"Mar 21st, 2023",default-farmersmarket-4-3.jpg,310885,Albion Farmer s Market,,,,,,https://www.facebook.com/albionmifarmersmarket,,,,,,"211 Market Place, Albion, Michigan",Michigan,Albion,211 Market Place,,-84.75243645383176,42.24470781361821,,
farmers market,"Mar 21st, 2023",default-farmersmarket-4-3.jpg,310886,Alcona County Farmers' Market,,,,,,,,,,,,"320 South State Street Harrisville, MI 48740",Michigan,HARRISVILLE,320 S STATE ST,48740,-83.29787607093733,44.653688796939484,,
farmers market,"Mar 21st, 2023",default-farmersmarket-4-3.jpg,310887,Alger Heights Farmers' Market,,,,616-915-0352,https://www.foodshed.net/grfarmersmarkets/,,,,,,,"2420 Eastern Ave. SE Grand Rapids, MI 49503",Michigan,Grand Rapids,2420 Eastern Ave. SE,49503,-85.64750076811393,42.9195863954936,,
farmers market,"Mar 21st, 2023",default-farmersmarket-4-3.jpg,310888,Allegan Farmers Market,,,,788-987-0714x269,,https://www.facebook.com/pages/Allegan-Farmers-Market/146878898707147?sk=info,,,,,,"112 Locust Street, Allegan, Michigan",Michigan,Allegan,112 Locust Street,,-85.84929329284415,42.5278016810121,,
farmers market,"Mar 21st, 2023",default-farmersmarket-4-3.jpg,310889,Allen Farmers Market,,,,517-367-2468,http://allenneighborhoodcenter.org/food/market/,,,,,,,"1611 East Kalamazoo Street, Lansing, Michigan",Michigan,Lansing,1611 East Kalamazoo Street,,-84.52708453523114,42.73001339864466,,
farmers market,"Mar 21st, 2023",default-farmersmarket-4-3.jpg,310890,Allen Neighborhood Center Market,,,exchange@allenneighborhoodcenter.org,517-999-3923,http://www.allenmarketplace.org/farmers-market/,https://www.facebook.com/AllenMarketPlace,,,,,,"1629 E. Kalamazoo, Lansing, MI, 48912",Michigan,Lansing,1629 E. Kalamazoo,48912,-84.5268939624216,42.73000959985111,,
farmers market,"Mar 21st, 2023",default-farmersmarket-4-3.jpg,310891,Allendale Farmers' Market,,,,616-892-2632,,,,,,,,"6676 Lake Michigan Drive Allendale, MI 49401",Michigan,Allendale,6676 Lake Michigan Drive,49401,-85.95086694776138,42.972219544067244,,
farmers market,"Mar 21st, 2023",default-farmersmarket-4-3.jpg,310892,Almena Farmers' Market,,,,269-668-8244,http://www.almenatownship.net/farmers_market.php,,,,,,,"27625 County Road 375 Paw Paw, MI 49079",Michigan,PAW PAW,27625 CO RD 375,49079,-85.81662141546738,42.26684029947899,,
farmers market,"Mar 21st, 2023",default-farmersmarket-4-3.jpg,310893,Almont Farmers Market,,,,586-453-9530,http://www.almontfarmersmarket.com,,,,,,,"741 South Main Street (M-53) Almont, MI 48003",Michigan,ALMONT,741 S MAIN ST,48003,-83.0447350135597,42.91462426457508,,
farmers market,"Mar 21st, 2023",default-farmersmarket-4-3.jpg,310894,Alpena Farmers Market,,,,989-255-9372,http://www.alpenafarmersmarket.com,,,,,,,"1302 South State Avenue, Alpena, Michigan",Michigan,Alpena,1302 South State Avenue,,-83.44740724725712,45.047749529656734,,
farmers market,"Mar 21st, 2023",default-farmersmarket-4-3.jpg,310895,Ann Arbor Farmers Market,,,,734-794-6255,www.a2gov.org/market,,,,,,,"315 Detroit Street, Ann Arbor, Michigan",Michigan,Ann Arbor,315 Detroit Street,,-83.74663376200793,42.28340482174158,,
farmers market,"Mar 21st, 2023",default-farmersmarket-4-3.jpg,310896,ARA Farm Market,,,,989-724-5077x6427045,,https://www.facebook.com/ARA-Farm-Market-642704582559703/,,,,,,"854 North Barlow Road, Lincoln, Michigan",Michigan,Lincoln,854 North Barlow Road,,-83.40336743543283,44.68245317225045,,
farmers market,"Mar 21st, 2023",default-farmersmarket-4-3.jpg,310897,Armada Flea and Farmers Market,,,,586-784-9604,http://www.richmondcoc.org/business/armada-flea-market/,,,,,,,"25381 Armada Ridge Road, Richmond, Michigan",Michigan,Richmond,25381 Armada Ridge Road,,-82.860841822773,42.84734943962478,,
farmers market,"Mar 21st, 2023",default-farmersmarket-4-3.jpg,310898,Athens Farmers Market,,,,,,,,,,,,"299-227 North Capital Avenue, Athens, Michigan",Michigan,Athens,299-227 North Capital Avenue,,-85.23560521959108,42.09096444463562,,
farmers market,"Mar 21st, 2023",default-farmersmarket-4-3.jpg,310899,Bangor Farmers Market,,,,269-302-0081,,http://www.facebook.com/BangorFarmMarket,,,,,,"12 Monroe Street Bangor, MI 49013",Michigan,BANGOR,12 W MONROE ST,49013,-86.10963374362538,42.31253863609787,,
farmers market,"Mar 21st, 2023",default-farmersmarket-4-3.jpg,310900,Barryton Farmers' Market,,,barrytongov@gmail.com,989-382-7822,,https://www.facebook.com/Barryton-Farmers-Market-598338030212882/,,,,,,"195 Rose Ave., Barryton, MI, 49305",Michigan,Barryton,195 Rose Ave.,49305,-85.14490859585354,43.75053016264401,,
farmers market,"Mar 21st, 2023",default-farmersmarket-4-3.jpg,310901,Bart's Fruit Market,,,,989-366-8038,https://barts-fruit-market.business.site/,,,,,,,"431 W. Houghton Lake Dr Prudenville, MI 48651",Michigan,Prudenville,431 W. Houghton Lake Dr,48651,-84.64645759337378,44.30146357609684,,
farmers market,"Mar 21st, 2023",default-farmersmarket-4-3.jpg,310902,Bath Township Farmers Market,,,mroblyer@bathtownship.us,517-641-6728,https://www.bathtownship.us/,,,,,,,"14480 Webster Road Bath, MI 48808",Michigan,Bath,14480 Webster Road,48808,-84.44832488484062,42.80632605094054,,
farmers market,"Mar 21st, 2023",default-farmersmarket-4-3.jpg,310903,Bay County Farmers Market,,,,517-893-0541,,,,,,,,"108 Adams Street 108 Adams Street Bay City, MI 48708",Michigan,BAY CITY,108 ADAMS ST,48708,-83.88788143492403,43.58959198663474,,
farmers market,"Mar 21st, 2023",default-farmersmarket-4-3.jpg,310904,Bay Mills/Brimley Farmers Market,,,,,http://www.baymills.org,,,,,,,"11644 West Plantation Road, Brimley, Michigan",Michigan,Brimley,11644 West Plantation Road,,-84.60644125790746,46.425666647225064,,
farmers market,"Mar 21st, 2023",default-farmersmarket-4-3.jpg,310905,Beaverton Farmers Market Ross Lake,,,,,,https://www.facebook.com/BeavertonMIFarmersMarket/,,,,,,"358 Ross Street, Beaverton, Michigan",Michigan,Beaverton,358 Ross Street,,-84.48533141219494,43.87986726640472,,
farmers market,"Mar 21st, 2023",default-farmersmarket-4-3.jpg,310906,Bellaire Farmers Market,,,,231-350-8835,,https://www.facebook.com/BellaireFarmersMarket?fref=ts,,,,,,"102 Maple Street, Bellaire, Michigan",Michigan,Bellaire,102 Maple Street,,-85.20501256823167,44.976024758421886,,
farmers market,"Mar 21st, 2023",default-farmersmarket-4-3.jpg,310907,Bellaire Winter Farmers Market,,,,231-916-2517,,https://www.facebook.com/BellaireWinterFarmersMarket,,,,,,"116 North Bridge Street, Bellaire, Michigan",Michigan,Bellaire,116 North Bridge Street,,-85.20999828685562,44.97565819350919,,
farmers market,"Mar 21st, 2023",default-farmersmarket-4-3.jpg,310908,Benton Harbor Farmers Market,,,,269-927-5639,http://www.bchdmi.org/community_health/farmers_market,,,,,,,"127 Pipestone Street, Benton Harbor, Michigan",Michigan,Benton Harbor,127 Pipestone Street,,-86.45416605856019,42.114816621316166,,
farmers market,"Mar 21st, 2023",default-farmersmarket-4-3.jpg,310909,Benton Harbor Fruit Market,,,,269-925-0681,http://bhfm.com,,,,,,,"1891 Territorial Road Benton Harbor, MI 49085",Michigan,BENTON HARBOR,1891 TERRITORIAL RD,49022,-86.41350500553307,42.123186460513836,,
farmers market,"Mar 21st, 2023",default-farmersmarket-4-3.jpg,310910,Big Rapids Farmers' Market,,,,231-796-6363,,,,,,,,"310 North 4th Ave Big Rapids, MI 49307",Michigan,Big Rapids,310 North 4th Ave,49307,-85.46994875326867,43.69838336249518,,
farmers market,"Mar 21st, 2023",default-farmersmarket-4-3.jpg,310911,Birch Run Farmers Market,,,,989-327-4744,,http://www.facebook.com/HB-Marketplace-104395927603832,,,,,,"12155 S Beyer Road Birch Run, MI 48415 Come into the outlet mall turn left at the light.. We will be located on the left hand side building after Bob Evans..",Michigan,BIRCH RUN,12155 S BEYER RD,48415,-83.77849539576178,43.24837329405548,,
farmers market,"Mar 21st, 2023",default-farmersmarket-4-3.jpg,310912,Birmingham Farmers Market,,,,248-530-1254,http://www.AllinBirmingham.com/farmersmarket,,,,,,,"660 North Old Woodward Avenue, Birmingham, Michigan",Michigan,Birmingham,660 North Old Woodward Avenue,,-83.21914460082517,42.552847831384796,,
farmers market,"Mar 21st, 2023",default-farmersmarket-4-3.jpg,310913,Blissfield Farmers Market,,,,,,,,,,,,"325 W Adrian St, behind Frosty Boy Blissfield, MI 49228",Michigan,BLISSFIELD,325 W ADRIAN ST,49228,-83.86790463551702,41.834731706638195,,
farmers market,"Mar 21st, 2023",default-farmersmarket-4-3.jpg,310914,Blue Tree Market,,,,616-788-9574x1004773,,https://www.facebook.com/Blue-Tree-Market-100477392183596/,,,,,,"29 North Main Street, Kent City, Michigan",Michigan,Kent City,29 North Main Street,,-85.75121636671832,43.22063110308362,,
farmers market,"Mar 21st, 2023",default-farmersmarket-4-3.jpg,310915,Boyne City Farmers Market,,,,231-675-1805,http://boynecitymainstreet.com/farmers-market-welcome/,,,,,,,"319 North Street, Boyne City, Michigan",Michigan,Boyne City,319 North Street,,-85.0108510271522,45.21721052261991,,
farmers market,"Mar 21st, 2023",default-farmersmarket-4-3.jpg,310916,Bridgman Open air Market,,,,269-405-0916,,https://www.facebook.com/BridgmanOpenAirMarket/,,,,,,"4509 Lake Street, Bridgman, Michigan",Michigan,Bridgman,4509 Lake Street,,-86.56334302623176,41.9429398985825,,
farmers market,"Mar 21st, 2023",default-farmersmarket-4-3.jpg,310917,Brighton Farmers Market,,,,810-819-7990,,https://www.facebook.com/BrightonFarmers,,,,,,"200 North 1st Street, Brighton, Michigan",Michigan,Brighton,200 North 1st Street,,-83.78518457787038,42.53059967840328,,
farmers market,"Mar 21st, 2023",default-farmersmarket-4-3.jpg,310918,Bronson Winter Farmers' Market,,,,269-341-6307,http://www.bronsonhealth.com/farmersmarket,,,,,,,"601 John Street Kalamazoo, MI 49007",Michigan,KALAMAZOO,601 JOHN ST,49007,-85.58133178416358,42.28613330484472,,
farmers market,"Mar 21st, 2023",default-farmersmarket-4-3.jpg,310919,Buchanan Farmers Market,,,,269-506-3021,http://www.buchananfarmersmarket.com/index.html,,,,,,,"122 Days Avenue, Buchanan, Michigan",Michigan,Buchanan,122 Days Avenue,,-86.35957472000395,41.82698371837812,,
farmers market,"Mar 21st, 2023",default-farmersmarket-4-3.jpg,310920,Cadillac Area Farmers Market,,,,428-382-0053x231,,https://www.facebook.com/Cadillac-Area-Farmers-Market-102242838200538/,,,,,,"117 West Cass Street, Cadillac, Michigan",Michigan,Cadillac,117 West Cass Street,,-85.39906793337666,44.24918529326864,,
farmers market,"Mar 21st, 2023",default-farmersmarket-4-3.jpg,310921,Cadillac Made in Michigan Farmers' Market,,,jlynn133@hotmail.com,231-878-7724,http://www.downtowncadillac.com/index.html,https://www.facebook.com/cadillacmadeinmichiganfarmersmarket,,,,,,"190 W. Cass St., City Park, Cadillac, MI, 49601",Michigan,Cadillac,"190 W. Cass St., City Park",49601,-85.40022691412535,44.24874741667189,,
farmers market,"Mar 21st, 2023",default-farmersmarket-4-3.jpg,310922,Caledonia Farmers Market,,,,,,https://www.facebook.com/Caledonia-Farmers-Market-174559179263535/,,,,,,"9957 Cherry Valley Avenue Southeast, Caledonia, Michigan",Michigan,Caledonia,9957 Cherry Valley Avenue Southeast,,-85.50678191810464,42.7836703446058,,
farmers market,"Mar 21st, 2023",default-farmersmarket-4-3.jpg,310923,Canton Farmers Market,,,,734-394-5375,http://cantonfun.org,,,,,,,"500 Ridge Road, Canton, Michigan",Michigan,Canton,500 Ridge Road,,-83.5411870539828,42.30033043557015,,
farmers market,"Mar 21st, 2023",default-farmersmarket-4-3.jpg,310924,Caro Farmers Market,,,,989-673-7671,,https://www.facebook.com/carofarmersmarket/,,,,,,"238 South State Street, Caro, Michigan",Michigan,Caro,238 South State Street,,-83.397439306736,43.48817984667087,,
farmers market,"Mar 21st, 2023",default-farmersmarket-4-3.jpg,310925,Cass City Farmers Market,,,,989-872-4311,,https://www.facebook.com/casscityfarmersmarket/,,,,,,"6506 Main Street, Cass City, Michigan",Michigan,Cass City,6506 Main Street,,-83.17410917319913,43.600886900785596,,
farmers market,"Mar 21st, 2023",default-farmersmarket-4-3.jpg,310926,Cassopolis Farmers Market,,,,574-536-7212,,https://www.facebook.com/cassopolisfarmersmarket/,,,,,,"105 North Broadway Street, Cassopolis, Michigan",Michigan,Cassopolis,105 North Broadway Street,,-86.01254839844981,41.911788397797054,,
farmers market,"Mar 21st, 2023",default-farmersmarket-4-3.jpg,310927,Cesar E. Chavez Farmers Market,,,,616-243-2489,,https://www.facebook.com/CesarEChavezFarmersMarket/,,,,,,"546 Rumsey Street Southwest, Grand Rapids, Michigan",Michigan,Grand Rapids,546 Rumsey Street Southwest,,-85.68099588172531,42.95063124050826,,
farmers market,"Mar 21st, 2023",default-farmersmarket-4-3.jpg,310928,Charlevoix Farmers Market,,,,231-547-3253,http://charlevoixmi.gov/338/Farmers-Market,,,,,,,"408 Bridge Street, Charlevoix, Michigan",Michigan,Charlevoix,408 Bridge Street,,-85.25866224617059,45.31497677095563,,
farmers market,"Mar 21st, 2023",default-farmersmarket-4-3.jpg,310929,Charlotte Artisans and Farmers Market,,,,517-543-0400,,https://www.facebook.com/CharlotteArtisansAndFarmersMarket/,,,,,,"120 West Lovett Street, Charlotte, Michigan",Michigan,Charlotte,120 West Lovett Street,,-84.83599812927947,42.56236268585684,,
farmers market,"Mar 21st, 2023",default-farmersmarket-4-3.jpg,310930,Cheboygan Farmers Market,,,,231-627-9931,,https://www.facebook.com/cheboyganfarmersmarket/,,,,,,"401 North Main Street, Cheboygan, Michigan",Michigan,Cheboygan,401 North Main Street,,-84.47369190316368,45.64815763235036,,
farmers market,"Mar 21st, 2023",default-farmersmarket-4-3.jpg,310931,Chelsea Farmers Market,,,,734-593-6806,http://www.chelseafarmersmkt.org,,,,,,,"304 South Main Street, Chelsea, Michigan",Michigan,Chelsea,304 South Main Street,,-84.02043824987808,42.315976922816496,,
farmers market,"Mar 21st, 2023",default-farmersmarket-4-3.jpg,310932,Chelsea Farmers Market and Bushel Basket Market,,,,616-734-9123,http://www.chelseafarmersmkt.org,http://www.facebook.com/chelseafarmersmkt/,,,,,,"222 S. Main St Chelsea, MI 48118",Michigan,CHELSEA,222 S MAIN ST,48118,-84.02046918324646,42.31657222856878,,
farmers market,"Mar 21st, 2023",default-farmersmarket-4-3.jpg,310933,Chesaning Farmers' Market,,,,989-845-3055,,,,,,,,"625 Broad St Chesaning, MI 48616",Michigan,Chesaning,625 Broad St,48616,-84.1208350771081,43.185957032270224,,
farmers market,"Mar 21st, 2023",default-farmersmarket-4-3.jpg,310934,City of Au Gres Downtown Farmers Market,,,,989-876-8811,http://cityofau-gres-mi.org/farmers-market.html,,,,,,,"400 East Huron Road, Au Gres, Michigan",Michigan,Au Gres,400 East Huron Road,,-83.68948603246602,44.04805008773764,,
farmers market,"Mar 21st, 2023",default-farmersmarket-4-3.jpg,310935,City of Bronson Farmer's Market,,,,517-369-7334,http://www.bronson-mi.com/residents/farmer-s-market,http://www.facebook.com/Bronsoncity/,,,,,,"118 E. Chicago Street Bronson, MI 49028-1396 Located next to City Hall and Century Bank in Downtown Bronson at 7 Foy Court, Bronson, MI 40928. There is ample parking in the City parking lot. Hours are",Michigan,BRONSON,118 E CHICAGO ST,49028,-85.19437990619319,41.87241352779681,,
farmers market,"Mar 21st, 2023",default-farmersmarket-4-3.jpg,310936,City of Gladstone Farmers Market,,,,906-280-6031,http://www.gladstonemi.org,,,,,,,"911 Delta Avenue, Gladstone, Michigan",Michigan,Gladstone,911 Delta Avenue,,-87.02092916897806,45.84750746064102,,
farmers market,"Mar 21st, 2023",default-farmersmarket-4-3.jpg,310937,City of Holland Municipal Farmer's Market,,,hcmanager@cityofholland.com,616-355-1133,https://www.cityofholland.com/,,,,,,,"150 W. 8th St. Holland, MI 49423",Michigan,Holland,150 W. 8th St.,49423,-86.11457425687378,42.79025044619937,,
farmers market,"Mar 21st, 2023",default-farmersmarket-4-3.jpg,310938,Clarkston Farmers' Market,,,clarkstonareafarmersmarket@gmail.com,248-821-4769,http://clarkstonareafarmersmarket.weebly.com/,https://www.facebook.com/clarkstonareafarmersmarket,,,,,,"6558 Waldon Rd., Clarkston Community Education Building, Clarkston, MI, 48346",Michigan,Clarkston,6558 Waldon Rd.,48346,-83.41113928385303,42.73284454293373,,
farmers market,"Mar 21st, 2023",default-farmersmarket-4-3.jpg,310939,Clawson Farmers' Market,,,,248-435-6500,,https://www.facebook.com/Clawson-Farmers-Market-156582121049116/,,,,,,"1080 N. Custer Ave., Clawson, MI, 48017",Michigan,Clawson,1080 N. Custer Ave.,48017,-83.15299916226463,42.541583890149305,,
farmers market,"Mar 21st, 2023",default-farmersmarket-4-3.jpg,310940,Clinton Farmers Market,,,,517-945-3886,www.clintonfarmersmarket.com,,,,,,,"114 Jackson Street, Clinton, Michigan",Michigan,Clinton,114 Jackson Street,,-83.97185753675573,42.07290699802123,,
farmers market,"Mar 21st, 2023",default-farmersmarket-4-3.jpg,310941,Cobblestone Farmers Market,,,,734-478-4772,http://www.cobblestonefarmmarket.org,,,,,,,"2781 Packard Street, Ann Arbor, Michigan",Michigan,Ann Arbor,2781 Packard Street,,-83.71064887331768,42.244806057095964,,
farmers market,"Mar 21st, 2023",default-farmersmarket-4-3.jpg,310942,Corktown Farmers' Market,,,shop@corktownfarmersmarket.com,313-444-9342,http://www.corktownfarmersmarket.com/,https://www.facebook.com/corktownfarmersmarket/,,,,,,"1236 Michigan Ave., Detroit, MI, 48226",Michigan,Detroit,1236 Michigan Ave.,48226,-83.06322483601515,42.331469136368796,,
farmers market,"Mar 21st, 2023",default-farmersmarket-4-3.jpg,310943,Corner Farmers Market,,,,517-618-1515,http://www.thecornerfarmersmarket.com/,,,,,,,"17 South Hudson Street, Coldwater, Michigan",Michigan,Coldwater,17 South Hudson Street,,-84.99947699157028,41.938926966492915,,
farmers market,"Mar 21st, 2023",default-farmersmarket-4-3.jpg,310944,Crystal Farmers Market,,,,,https://www.crystalareachamber.org/community/farmers-market/,,,,,,,"217 West Park Street, Crystal, Michigan",Michigan,Crystal,217 West Park Street,,-84.91621975046925,43.262239173175644,,
farmers market,"Mar 21st, 2023",default-farmersmarket-4-3.jpg,310945,CSBrew Farmers Market,,,,616-696-2337,http://csbrew.com,http://www.facebook.com/CedarSpringsBrew,,,,,,"95 N. Main St. Cedar Springs, MI 49319 The CSBrew Farmers Market is held directly in our parking lot behind the brewery.",Michigan,CEDAR SPRINGS,95 N MAIN ST NE,49319,-85.55119947601986,43.225302243255896,,
farmers market,"Mar 21st, 2023",default-farmersmarket-4-3.jpg,310946,Davison Farmers Market,,,,810-412-5883,http://www.davisonfarmersmarket.com/,,,,,,,"8110 East Court Street, Davison, Michigan",Michigan,Davison,8110 East Court Street,,-83.55046071282541,43.019642868285274,,
farmers market,"Mar 21st, 2023",default-farmersmarket-4-3.jpg,310947,De Tour Village Farmers Market,,,,906-297-5471,,https://www.facebook.com/DeTourVillageFarmersMarket/,,,,,,"178 S. Superior St., De Tour Village, MI, 49725",Michigan,De Tour Village,178 S. Superior St.,49725,-83.90056293180763,45.991440360085285,,
farmers market,"Mar 21st, 2023",default-farmersmarket-4-3.jpg,310948,Dearborn Farmers & Artisan Market,,,cfrancois@downtowndearborn.org,313-584-6100,https://www.dearbornfarmersartisansmarket.com/,https://www.facebook.com/pages/Dearborn-Farmers-Artisans-Market/280679835373320,,,,,,"22100 MIchigan Ave In the Lot Behind Bryant Library Dearborn, MI 48124",Michigan,Dearborn,22100 MIchigan Ave,48124,-83.24620863140412,42.305721130374074,,
farmers market,"Mar 21st, 2023",default-farmersmarket-4-3.jpg,310949,Dearborn Farmers Market,,,,313-584-6100,,,,,,,,"15544 Michigan Ave. Dearborn, MI 48124",Michigan,DEARBORN,15544 CHIGAN AVE,48126,-83.19555642197739,42.316540498159696,,
farmers market,"Mar 21st, 2023",default-farmersmarket-4-3.jpg,310950,Detroit Eastern Market,,,admin@easternmarket.com,313-833-9300,http://www.easternmarket.com/,https://www.facebook.com/easternmarketdetroit,,,,,,"2943 Russell St., Detroit, MI, 48207",Michigan,Detroit,2943 Russell St.,48207,-83.04190563009091,42.34849952325743,,
farmers market,"Mar 21st, 2023",default-farmersmarket-4-3.jpg,310951,Dixboro Farmers Market,,,,734-707-1607,http://www.dixborofarmersmarket.org,,,,,,,"5221 Church Road, Ann Arbor, Michigan",Michigan,Ann Arbor,5221 Church Road,,-83.65712755975096,42.31311716190353,,
farmers market,"Mar 21st, 2023",default-farmersmarket-4-3.jpg,310952,Douglass Farmers' Market,,,,269-492-1270,https://douglassfarmersmarket.wordpress.com/,https://www.facebook.com/pages/Fair-Food-Matters/113123338709080,,,,,,"1000 West Paterson Street Kalamazoo, MI 49007",Michigan,Kalamazoo,1000 West Paterson Street,49007,-85.5977555037222,42.30339467419903,,
farmers market,"Mar 21st, 2023",default-farmersmarket-4-3.jpg,310953,Dowagiac Farm and Artisan Market,,,,269-782-8212,https://www.cityofdowagiac.com/arts_recreation/dowagiac_farm_and_artisan_market/index.php,,,,,,,"201 East Division Street, Dowagiac, Michigan",Michigan,Dowagiac,201 East Division Street,,-86.10904924677217,41.98372644922715,,
farmers market,"Mar 21st, 2023",default-farmersmarket-4-3.jpg,310954,Downtown DeWitt Farmers Market,,,,517-624-0286,http://www.dewittdda.org/FarmersMarket.aspx,,,,,,,"414 West Main Street, DeWitt, Michigan",Michigan,DeWitt,414 West Main Street,,-84.57311403570083,42.84221651647476,,
farmers market,"Mar 21st, 2023",default-farmersmarket-4-3.jpg,310955,Downtown Houghton Farmers Market,,,,906-482-1700x2231638,,https://www.facebook.com/Downtown-Houghton-Farmers-Market-223163828066481/,,,,,,"56 Huron Street, Houghton, Michigan",Michigan,Houghton,56 Huron Street,,-88.56811881229407,47.122093822184446,,
farmers market,"Mar 21st, 2023",default-farmersmarket-4-3.jpg,310956,Downtown Market,,,,616-805-5308,http://downtownmarketgr.com/outdoor-farmers-market,https://www.facebook.com/DowntownMarket,,,,,,"435 Ionia Ave. SW, Grand Rapids, MI, 49503",Michigan,Grand Rapids,435 Ionia Ave. SW,49503,-85.67012475517905,42.954737903122364,,
farmers market,"Mar 21st, 2023",default-farmersmarket-4-3.jpg,310957,Downtown Marquette Farmers Market,,,,906-228-9475,http://www.mqtfarmersmarket.com,,,,,,,"112 South 3rd Street, Marquette, Michigan",Michigan,Marquette,112 South 3rd Street,,-87.39540611263514,46.543447224842495,,
farmers market,"Mar 21st, 2023",default-farmersmarket-4-3.jpg,310958,Downtown Owosso Farmers Market,,,,989-413-3728,,https://www.facebook.com/DowntownOwossoFarmersMarket/,,,,,,"215 North Water Street, Owosso, Michigan",Michigan,Owosso,215 North Water Street,,-84.17315568367496,43.00000378421709,,
farmers market,"Mar 21st, 2023",default-farmersmarket-4-3.jpg,310959,Downtown Petoskey Farmers Market,,,,231-347-4150,http://www.petoskeychamber.com/downtown-petoskey-farmers-market,,,,,,,"401 East Mitchell Street, Petoskey, Michigan",Michigan,Petoskey,401 East Mitchell Street,,-84.95542921534452,45.37398176837826,,
farmers market,"Mar 21st, 2023",default-farmersmarket-4-3.jpg,310960,Downtown Rochester Farmers Market,,,,248-656-0060,www.DowntownRochesterMi.com,,,,,,,"202 East 3rd Street, Rochester, Michigan",Michigan,Rochester,202 East 3rd Street,,-83.13135069632997,42.67945039569311,,
farmers market,"Mar 21st, 2023",default-farmersmarket-4-3.jpg,310961,Downtown Saginaw Farmers' Market,,,saginawdsfm@yahoo.com,989-758-2500,http://www.saginawfarmersmarket.org/,https://www.facebook.com/pages/Downtown-Saginaw-Farmers-Market/252237630500,,,,,,"507 S. Washington Ave., Saginaw, MI, 48607",Michigan,Saginaw,507 S. Washington Ave.,48607,-83.94055952590121,43.42855164690501,,
farmers market,"Mar 21st, 2023",default-farmersmarket-4-3.jpg,310962,Downtown Sparta Farmers' Market,,,,616-887-2454,http://www.spartami.org/,,,,,,,"71 N. Union St., Sparta, MI, 49345",Michigan,Sparta,71 N. Union St.,49345,-85.70719730603729,43.16335924605867,,
farmers market,"Mar 21st, 2023",default-farmersmarket-4-3.jpg,310963,Downtown Ypsilanti Farmers' Market,,,market@growinghope.net,734-786-8401,http://growinghope.net/,https://www.facebook.com/YpsilantiFarmersMarkets,,,,,,"16 S. Washington St., Ypsilanti, MI, 48197",Michigan,Ypsilanti,16 S. Washington St.,48197,-83.6145311540684,42.240774996462086,,
farmers market,"Mar 21st, 2023",default-farmersmarket-4-3.jpg,310964,Durand Farmer s Market,,,,989-666-1051,,https://www.facebook.com/DurandFarmersMarket/,,,,,,"101 Hagle Street, Durand, Michigan",Michigan,Durand,101 Hagle Street,,-83.98329300840338,42.91077336525323,,
farmers market,"Mar 21st, 2023",default-farmersmarket-4-3.jpg,310965,East Lansing Farmers Market,,,,517-319-6888,,,,,,,,"280 Valley Court East Lansing, MI 48823",Michigan,East Lansing,280 Valley Court,48823,-84.48656754172846,42.73679268837451,,
farmers market,"Mar 21st, 2023",default-farmersmarket-4-3.jpg,310966,East Warren Avenue Farmers Market,,,,248-943-4649,,,,,,,,"14600 Mack Ave Detroit, MI 48215",Michigan,Detroit,14600 Mack Ave,48215,-82.95067494514292,42.386821256765636,,
farmers market,"Mar 21st, 2023",default-farmersmarket-4-3.jpg,310967,Eastern Market,,,,313-833-9300,http://www.easternmarket.com,,,,,,,"2934 Russell Street, Detroit, Michigan",Michigan,Detroit,2934 Russell Street,,-83.04170502145138,42.34822775467809,,
farmers market,"Mar 21st, 2023",default-farmersmarket-4-3.jpg,310968,Eastside Farmers Market,,,,313-571-2800,,https://www.facebook.com/eastsidefarmersmarket,,,,,,"14820 Mack Avenue Detroit, MI 48215",Michigan,Detroit,14820 Mack Avenue,48215,-82.94845659979512,42.38717373796155,,
farmers market,"Mar 21st, 2023",default-farmersmarket-4-3.jpg,310969,Eaton Rapids Community Market,,,,517-663-8118,,https://www.facebook.com/ERFarmersMarket/,,,,,,"116 Hall Street, Eaton Rapids, Michigan",Michigan,Eaton Rapids,116 Hall Street,,-84.65685741196371,42.512352297302364,,
farmers market,"Mar 21st, 2023",default-farmersmarket-4-3.jpg,310970,Edmore Farmers Market,,,,989-427-3787,,https://www.facebook.com/EdmoreFarmersMarket/?ref=page_internal,,,,,,"544 East Forrest Street, Edmore, Michigan",Michigan,Edmore,544 East Forrest Street,,-85.03818819209575,43.404962437372845,,
farmers market,"Mar 21st, 2023",default-farmersmarket-4-3.jpg,310971,Elsie Farmers Market,,,,989-277-3247,,,,,,,,"122 S Ovid St Elsie, MI 48831",Michigan,ELSIE,122 N OVID ST,48831,-84.38721678956595,43.088996913193775,,
farmers market,"Mar 21st, 2023",default-farmersmarket-4-3.jpg,310972,Farmers Market at the Capitol,,,,517-432-3381,,,,,,,,"100 North Capitol Avenue, Lansing, Michigan",Michigan,Lansing,100 North Capitol Avenue,,-84.5538785772466,42.73371965660387,,
farmers market,"Mar 21st, 2023",default-farmersmarket-4-3.jpg,310973,Farmington Farmers & Artisans Market,,,,248-971-5882,http://www.farmingtonfarmersmarket.com,http://www.facebook.com/farmingtonfarmers&artisansmarket,,,,,,"33113 Grand River Ave Farmington, MI 48335 Located at the corner of Grand River and Grove Street 1/4 mile east of Farmington Rd in the heart of historic, charming downtown Farmington. Find it all at w",Michigan,FARMINGTON,33113 GRAND RIVER AVE,48336,-83.37358716595313,42.46368489062099,,
farmers market,"Mar 21st, 2023",default-farmersmarket-4-3.jpg,310974,Farwell s Arts & Crafts Farm Market,,,,989-588-9926,http://www.farwellfarmersmarket.org,,,,,,,"124 East Illinois Street, Farwell, Michigan",Michigan,Farwell,124 East Illinois Street,,-84.86674757216458,43.83361733433415,,
farmers market,"Mar 21st, 2023",default-farmersmarket-4-3.jpg,310975,Fenton Farmers Market,,,,810-714-2011,http://www.slpr.net,,,,,,,"150 South Leroy Street, Fenton, Michigan",Michigan,Fenton,150 South Leroy Street,,-83.70472982872684,42.79549339298201,,
farmers market,"Mar 21st, 2023",default-farmersmarket-4-3.jpg,310976,Flint Farmers Market,,,,810-232-1399,http://www.flintfarmersmarket.com,,,,,,,"300 East 1st Street, Flint, Michigan",Michigan,Flint,300 East 1st Street,,-83.68741727703633,43.01738405413882,,
farmers market,"Mar 21st, 2023",default-farmersmarket-4-3.jpg,310977,Fowlerville Farmers' Market,,,,517-712-9134,,,,,,,,"213 S Grand Ave Fowlerville, MI 48836",Michigan,Fowlerville,213 S Grand Ave,48836,-84.07310598513503,42.65925669033317,,
farmers market,"Mar 21st, 2023",default-farmersmarket-4-3.jpg,310978,Frankfort Farmers Market,,,,231-352-7117,,https://www.facebook.com/frankfortfarmersmarketmichigan/?ref=page_internal,,,,,,"832 Main Street, Frankfort, Michigan",Michigan,Frankfort,832 Main Street,,-86.23187450792857,44.632465647365976,,
farmers market,"Mar 21st, 2023",default-farmersmarket-4-3.jpg,310979,Fraser Farmers Market,,,,586-293-3100,https://www.ci.fraser.mi.us/,,,,,,,"33000 Garfield Road, Fraser, Michigan",Michigan,Fraser,33000 Garfield Road,,-82.94969415582146,42.538735246826484,,
farmers market,"Mar 21st, 2023",default-farmersmarket-4-3.jpg,310980,Fremont Farmers Market,,,,231-924-0770,https://fremontcommerce.com/fremont-farmers-market,,,,,,,"7 East Main Street, Fremont, Michigan",Michigan,Fremont,7 East Main Street,,-85.94465990622402,43.46712290101631,,
farmers market,"Mar 21st, 2023",default-farmersmarket-4-3.jpg,310981,Fulton Street Farmers Market,,,,616-454-4118,http://www.fultonstreetmarket.org,,,,,,,"1145 Fulton Street East, Grand Rapids, Michigan",Michigan,Grand Rapids,1145 Fulton Street East,,-85.64036343314065,42.96274732959754,,
farmers market,"Mar 21st, 2023",default-farmersmarket-4-3.jpg,310982,G&A Farmers Market and Garden Center,,,,724-759-9882,,http://www.facebook.com/gandagardencenter,,,,,,"400 W Sharon Ave Houghton, MI 49931 M-26 and Sharon Ave Econo/Shopko intersection, turn east to W. Sharon Ave.",Michigan,HOUGHTON,400 W SHARON AVE,49931,-88.57745488133058,47.112381682803694,,
farmers market,"Mar 21st, 2023",default-farmersmarket-4-3.jpg,310983,Galesburg Community Market,,,,269-665-4131,https://www.galeasburgcommunitymarket.com/,https://www.facebook.com/galesburgcommunitymarket,,,,,,"45 East Michgan Galesburg, MI 49053",Michigan,Galesburg,45 East Michgan,49053,-85.4170694682022,42.28892055570401,,
farmers market,"Mar 21st, 2023",default-farmersmarket-4-3.jpg,310984,Galesburg Farmers Market,,,,,,http://www.facebook.com/GalesburgFarmersmarket,,,,,,"47 W. Michigan Ave Galesburg , MI 49053 Parking access on Battle Creek Street, NOT Michigan ave.",Michigan,GALESBURG,47 W CHIGAN AVE,49053,-85.41893036403027,42.28888701722971,,
farmers market,"Mar 21st, 2023",default-farmersmarket-4-3.jpg,310985,Garden Taste Fest and Market Place,,,,,,,,,,,,"19308 Whitcomb Detroit, MI 48235",Michigan,DETROIT,19308 WHITCOMB AVE,48235,-83.19748847885411,42.432530218757556,,
farmers market,"Mar 21st, 2023",default-farmersmarket-4-3.jpg,310986,Georgetown Township Farmers Market,,,,616-457-9620,http://www.gtfarmersmmarket.org/,,,,,,,"1525 Baldwin Street, Georgetown Township, Michigan",Michigan,Georgetown Township,1525 Baldwin Street,,-85.81983678345931,42.907158760889466,,
farmers market,"Mar 21st, 2023",default-farmersmarket-4-3.jpg,310987,Gibraltar Farmers Market,,,,,,https://www.facebook.com/groups/1385780114967863/?fref=nf,,,,,,"29340 S Gibraltar Road Gibraltar, MI 48173",Michigan,Gibraltar,29340 S Gibraltar Road,48173,-83.19171898321258,42.093817453911164,,
farmers market,"Mar 21st, 2023",default-farmersmarket-4-3.jpg,310988,Gladwin Farmers Market,,,,,https://www.gladwin.org/community/activities___attractions/index.php,,,,,,,"101 North State Street, Gladwin, Michigan",Michigan,Gladwin,101 North State Street,,-84.48182608337827,43.98068107945319,,
farmers market,"Mar 21st, 2023",default-farmersmarket-4-3.jpg,310989,Grand Haven Farmers Market,,,,616-842-4910,https://grandhavenchamber.org/play/farmers-markets/,,,,,,,"301 North Harbor Drive, Grand Haven, Michigan",Michigan,Grand Haven,301 North Harbor Drive,,-86.23375688233654,43.06551703277827,,
farmers market,"Mar 21st, 2023",default-farmersmarket-4-3.jpg,310990,Grand Ledge Farmers' Market,,,marketonthegrand@grandledgechamber.com,517-627-6811,https://www.glfarm.org/,,,,,,,"213 S. Bridge St Grand Ledge, MI 48837",Michigan,Grand Ledge,213 S. Bridge St,48837,-84.74540550343795,42.75385843138432,,
farmers market,"Mar 21st, 2023",default-farmersmarket-4-3.jpg,310991,Grand River Farmers Market,,,,517-788-4355,,,,,,,,"117 Louis Glick Highway Jackson, MI 49201",Michigan,Jackson,117 Louis Glick Highway,49201,-84.4070778032304,42.24932810206202,,
farmers market,"Mar 21st, 2023",default-farmersmarket-4-3.jpg,310992,Grand Valley State University Farmers' Market,,,jakobciy@gvsu.edu,616-892-2632,http://www.gvsu.edu/farmersmarket/,https://www.facebook.com/pages/Grand-Valley-State-University-Farmers-Market/123296344349296?ref=aymt_homepage_panel,,,,,,"1 Campus Dr., Parking Lot G, Allendale, MI, 49401",Michigan,Allendale,1 Campus Dr.,49401,-85.8880859919575,42.96041360335007,,
farmers market,"Mar 21st, 2023",default-farmersmarket-4-3.jpg,310993,Grandville Farmers Market,,,,616-885-4488,,,,,,,,"4144 Chicago Drive Southwest, Grandville, Michigan",Michigan,Grandville,4144 Chicago Drive Southwest,,-85.7664636628495,42.90844387176221,,
farmers market,"Mar 21st, 2023",default-farmersmarket-4-3.jpg,310994,Grant Farmers Market,,,,231-282-0424,,,,,,,,"135 South Maple Street, Grant, Michigan",Michigan,Grant,135 South Maple Street,,-85.81056921377686,43.33425300459438,,
farmers market,"Mar 21st, 2023",default-farmersmarket-4-3.jpg,310995,Grass Lake Farmers Market,,,,734-323-9856,,https://www.facebook.com/GrassLakeFarmersMarket/,,,,,,"120 Brown Street, Grass Lake, Michigan",Michigan,Grass Lake,120 Brown Street,,-84.2123713912527,42.25198269728873,,
farmers market,"Mar 21st, 2023",default-farmersmarket-4-3.jpg,310996,Grayling Back To Our Roots Farmers Market,,,,989-619-3539,,https://www.facebook.com/GraylingBacktoOurRootsFarmersMarket/,,,,,,"6811 West M-72 Highway, Grayling, Michigan",Michigan,Grayling,6811 West M-72 Highway,,-84.74737078113857,44.657959498320714,,
farmers market,"Mar 21st, 2023",default-farmersmarket-4-3.jpg,310997,Green Boots Veteran Community Hotriculture Gardens/Marketplace,,,,313-623-2361,,,,,,,,"13500 Southfield Road, Detroit, Michigan",Michigan,Detroit,13500 Southfield Road,,-83.21723789037924,42.384572450099355,,
farmers market,"Mar 21st, 2023",default-farmersmarket-4-3.jpg,310998,Green Oak Farmers and Community Market,,,,,,www.facebook.com/GreenOakMarket,,,,,,"11299 Grand River Avenue, Brighton MI 48116",Michigan,Brighton,11299 Grand River Avenue,48116,-83.72884771503631,42.51610425879716,,
farmers market,"Mar 21st, 2023",default-farmersmarket-4-3.jpg,310999,Greenville Farmer s Market,,,,571-428-8326x616,,https://www.facebook.com/profile.php?id=100057142883262,,,,,,"1325 West Washington Street, Greenville, Michigan",Michigan,Greenville,1325 West Washington Street,,-85.27031666567952,43.17729819862183,,
farmers market,"Mar 21st, 2023",default-farmersmarket-4-3.jpg,311000,Greenville Farmers' Market,,,,616-754-5697,,,,,,,,"307 Luray St. Greenville, MI 48838",Michigan,Greenville,307 Luray St.,48838,-85.26652248747538,43.17832557998443,,
farmers market,"Mar 21st, 2023",default-farmersmarket-4-3.jpg,311001,Gypsy Farms Market,,,,231-881-6008,https://www.gypsyvodka.com/,,,,,,,"5251 Charlevoix Avenue, Petoskey, Michigan",Michigan,Petoskey,5251 Charlevoix Avenue,,-85.04697589077867,45.35863510611221,,
farmers market,"Mar 21st, 2023",default-farmersmarket-4-3.jpg,311002,Hancock Tori and Farmers Market,,,,906-482-2720,http://www.cityofhancock.net/,,,,,,,"403 Quincy Street, Hancock, Michigan",Michigan,Hancock,403 Quincy Street,,-88.58506747866974,47.12661832820397,,
farmers market,"Mar 21st, 2023",default-farmersmarket-4-3.jpg,311003,Harbor Beach Farmers Market,,,,,http://harborbeachfarmersmarket.info,http://www.facebook.com/Harbor-beach-farmers-market/1433724856867015,,,,,,"766 State Street Harbor Beach, MI 48441",Michigan,HARBOR BEACH,766 STATE ST,48441,-82.66245552878942,43.841647203489295,,
farmers market,"Mar 21st, 2023",default-farmersmarket-4-3.jpg,311004,Harbor Market,,,harbormarket@occda.com,269-925-9925,http://harbor-market.com/,https://www.facebook.com/HarborMarket,,,,,,"510 W. Main St., Benton Harbor, MI, 49022",Michigan,Benton Harbor,510 W. Main St.,49022,-86.46508289808527,42.11368927168499,,
farmers market,"Mar 21st, 2023",default-farmersmarket-4-3.jpg,311005,Hartland Farmer s Market,,,,810-599-7603x1188697,,https://www.facebook.com/Hartland-Farmers-Market-118869704798526/,,,,,,"10400 Highland Road, Hartland, Michigan",Michigan,Hartland,10400 Highland Road,,-83.74690147226502,42.63359012811568,,
farmers market,"Mar 21st, 2023",default-farmersmarket-4-3.jpg,311006,Hastings Farmers Market,,,,269-945-2468x4159534,,https://www.facebook.com/Hastings-MI-Farmers-Market-415953415444788,,,,,,"220 West State Street, Hastings, Michigan",Michigan,Hastings,220 West State Street,,-85.28923583254559,42.64870425443885,,
farmers market,"Mar 21st, 2023",default-farmersmarket-4-3.jpg,311007,Hazel Park Growers' and Makers' Market,,,HPGMMarket@gmail.com,248-506-0949,http://hpgmmarket.org/,https://www.facebook.com/hazelparkgrowersandmakersmarket/,,,,,,"111 E. 9 Mile Rd., Hazel Park, MI, 48030",Michigan,Hazel Park,111 E. 9 Mile Rd.,48030,-83.1035566405572,42.46141856294846,,
farmers market,"Mar 21st, 2023",default-farmersmarket-4-3.jpg,311008,Hemlock Farmers Market,,,,989-751-6751,,https://www.facebook.com/HemlockFarmersMarket/,,,,,,"398 Colorado Ridge, Hemlock, Michigan",Michigan,Hemlock,398 Colorado Ridge,,-84.22330532139938,43.41697130649197,,
farmers market,"Mar 21st, 2023",default-farmersmarket-4-3.jpg,311009,Hensler's Country Market LLC,,,,989-695-2196,,,,,,,,"7620 Freeland Rd Freeland, MI 48623",Michigan,Freeland,7620 Freeland Rd,48623,-84.06397544717395,43.52432926845149,,
farmers market,"Mar 21st, 2023",default-farmersmarket-4-3.jpg,311010,Hillsdale County Farmers Market,,,,,http://eatfreshhillsdale.com/,,,,,,,"29 North Howell Street, Hillsdale, Michigan",Michigan,Hillsdale,29 North Howell Street,,-84.63200823875242,41.92114284654267,,
farmers market,"Mar 21st, 2023",default-farmersmarket-4-3.jpg,311011,Hillsdale Farmers' Market,,,,,http://www.cityofhillsdale.org/hillsdale-county-farmer's-market.aspx,,,,,,,"11 N. Broad St., Hillsdale, MI, 49242",Michigan,Hillsdale,11 N. Broad St.,49242,-84.63081183271605,41.92036621432846,,
farmers market,"Mar 21st, 2023",default-farmersmarket-4-3.jpg,311012,Hillsdale Flea Market,,,,517-437-2424,,,,,,,,"115 S. Broad Hillsdale, MI 49242",Michigan,Hillsdale,115 S. Broad,49242,-84.62825317774349,41.9152939086863,,
farmers market,"Mar 21st, 2023",default-farmersmarket-4-3.jpg,311013,Holland Farmers Market,,,,616-796-0472,http://www.hollandfarmersmarket.com,,,,,,,"150 West 8th Street, Holland, Michigan",Michigan,Holland,150 West 8th Street,,-86.11457425687378,42.79025044619937,,
farmers market,"Mar 21st, 2023",default-farmersmarket-4-3.jpg,311014,Holly Farm and Flea Market,,,,248-794-3841,,,,,,,,"220 S Saginaw Street Holly, MI 48442",Michigan,Holly,220 S Saginaw Street,48442,-83.62764802762726,42.79086101547216,,
farmers market,"Mar 21st, 2023",default-farmersmarket-4-3.jpg,311015,Holt Farmers Market,,,,517-694-4048,http://www.holtfarmersmarket.org,,,,,,,"2150 Cedar Street Holt, MI 48842I am",Michigan,HOLT,2150 CEDAR ST,48842,-84.52033735836302,42.64492904299853,,
farmers market,"Mar 21st, 2023",default-farmersmarket-4-3.jpg,311016,Hubbard Lake Farmers' Market,,,,989-727-2404,,http://www.facebook.com/HubbardLakeFarmers'Market,,,,,,"1561 Hubert Road Hubbard Lake, MI 49747 We will be outside on the blacktopped parking lot behind the Hubbard Lake Community Center in good weather and inside during inclement weather.",Michigan,HUBBARD LAKE,1561 HUBERT RD,49747,-83.58908536859336,44.85904311376683,,
farmers market,"Mar 21st, 2023",default-farmersmarket-4-3.jpg,311017,Hudsonville Farmers' Market & Crafts,,,tbrenner@fcelevator.com,616-669-9596,https://www.fcelevator.com/,,,,,,,"3302 Prospect Street Hudsonville, MI 49426",Michigan,Hudsonville,3302 Prospect Street,49426,-85.86390682405445,42.86817452849092,,
farmers market,"Mar 21st, 2023",default-farmersmarket-4-3.jpg,311018,Huron Valley Farmers' Market,,,,,http://www.hvfarmersmarket.weebly.com,http://www.facebook.com/HuronValleyFarmersMarket,,,,,,"300 W. Livingston Highland Twp., MI 48357",Michigan,HIGHLAND,300 W LIVINGSTON RD,48357,-83.62196347979416,42.63783471017086,,
farmers market,"Mar 21st, 2023",default-farmersmarket-4-3.jpg,311019,Huss Project Farmers Market,,,,269-244-6020,https://www.hussproject.com,,,,,,,"1008 8th Street, Three Rivers, Michigan",Michigan,Three Rivers,1008 8th Street,,-85.62476616325965,41.933052460749416,,
farmers market,"Mar 21st, 2023",default-farmersmarket-4-3.jpg,311020,Indian River Grower's Market,,,,231-238-9325,,,,,,,,"3435 S Straits Hwy Indian River, MI 49749",Michigan,Indian River,3435 S Straits Hwy,49749,-84.62932898617059,45.374760331031275,,
farmers market,"Mar 21st, 2023",default-farmersmarket-4-3.jpg,311021,Ionia Harvest Marketplace,,,,616-302-4615,,https://www.facebook.com/IoniaHarvestMarketplace/,,,,,,"120 South Steele Street, Ionia, Michigan",Michigan,Ionia,120 South Steele Street,,-85.06785314464841,42.98213645826698,,
farmers market,"Mar 21st, 2023",default-farmersmarket-4-3.jpg,311022,Iron Mountain Farmers & Artisans Market,,,,906-774-4002,,https://www.facebook.com/pg/Iron-Mountain-Farmers-Artisans-Market,,,,,,"501 South Stephenson Avenue, Iron Mountain, Michigan",Michigan,Iron Mountain,501 South Stephenson Avenue,,-88.06566825720247,45.81838226095453,,
farmers market,"Mar 21st, 2023",default-farmersmarket-4-3.jpg,311023,Islandview Farmers Market,,,,313-571-0937,http://www.genesishope.org/our-work/islandview_farmers_market/,,,,,,,"7200 Mack Avenue, Detroit, Michigan",Michigan,Detroit,7200 Mack Avenue,,-83.01233682155228,42.36467196761756,,
farmers market,"Mar 21st, 2023",default-farmersmarket-4-3.jpg,311024,Jefferson Chalmers Farmers Market,,,,,,https://www.facebook.com/groups/400875177120647/about,,,,,,"903 Manistique Street, Detroit, Michigan",Michigan,Detroit,903 Manistique Street,,-82.94020637058523,42.37275019957793,,
farmers market,"Mar 21st, 2023",default-farmersmarket-4-3.jpg,311025,Jewett Street Farmers' Market,,,,734-255-7304,,,,,,,,"1289 Jewett St Ann Arbor, MI 48104",Michigan,Ann Arbor,1289 Jewett St,48104,-83.73150164648888,42.25379294449432,,
farmers market,"Mar 21st, 2023",default-farmersmarket-4-3.jpg,311026,Kalamazoo Farmers Market,,,,269-342-5686,http://www.pfcmarkets.com,,,,,,,"251 Mills Street, Kalamazoo, Michigan",Michigan,Kalamazoo,251 Mills Street,,-85.56646734955487,42.29147710029007,,
farmers market,"Mar 21st, 2023",default-farmersmarket-4-3.jpg,311027,Kalamazoo Indoor Flea and Farmers Market,,,,,https://www.discoverkalamazoo.com/member-detail/indoor-flea-farmers-market/,,,,,,,"2900 Lake Street, Kalamazoo, Michigan",Michigan,Kalamazoo,2900 Lake Street,,-85.5439263318224,42.27925527641971,,
farmers market,"Mar 21st, 2023",default-farmersmarket-4-3.jpg,311028,Kensington Metropark's Farmers Market,,,,248-684-8632,http://www.metroparks.com/facilities-education/kensington-farm-center/,http://www.facebook.com/KensingtonMetropark/,,,,,,"2440 W Buno Rd Milford, MI 48380 The Farmers Market is at the Farm Center inside of Kensington Metropark. You must have a park permit to be inside Kensington. They are available at the toll booths or",Michigan,MILFORD,2440 W BUNO RD,48380,-83.64263451309081,42.54962780276733,,
farmers market,"Mar 21st, 2023",default-farmersmarket-4-3.jpg,311029,Kentwood Farmers Market,,,,616-656-5270,https://www.kentwood.us/farmers_market.php,,,,,,,"4900 Breton Road Southeast, Kentwood, Michigan",Michigan,Kentwood,4900 Breton Road Southeast,,-85.59770554770091,42.87423708586045,,
farmers market,"Mar 21st, 2023",default-farmersmarket-4-3.jpg,311030,Kinglsey Farmers Market,,,,231-620-3297,,https://www.facebook.com/KingsleyMarket,,,,,,"205 South Brownson Avenue, Kingsley, Michigan",Michigan,Kingsley,205 South Brownson Avenue,,-85.53770510195693,44.57864290933788,,
farmers market,"Mar 21st, 2023",default-farmersmarket-4-3.jpg,311031,Laingsburg Farmers Market,,,,,,https://www.facebook.com/LaingsburgFarmersMarket,,,,,,"115 Crum Street, Laingsburg, Michigan",Michigan,Laingsburg,115 Crum Street,,-84.35210981545076,42.89140317455612,,
farmers market,"Mar 21st, 2023",default-farmersmarket-4-3.jpg,311032,Lake Leelanau Farmers Market,,,,231-256-9888,http://www.leelanau.cc/farmersmarkets.asp,,,,,,,"112 W Front Street Lake Leelanau, MI 49654",Michigan,MICHIGAN,112 FRONT ST,58259,-98.12249377473294,48.02303476751337,,
farmers market,"Mar 21st, 2023",default-farmersmarket-4-3.jpg,311033,Lake Linden Farmers Market,,,,906-296-9911,http://www.lakelinden.net/farmers-market.html?fbclid=IwAR0qEdbktE-LOkp9ptc9NSvRr0P2pZaMRTZkkD_pol1srAipsvEk6SsLajA,,,,,,,"198-100 Calumet Street, Lake Linden, Michigan",Michigan,Lake Linden,198-100 Calumet Street,,-88.4101078846832,47.189212339976656,,
farmers market,"Mar 21st, 2023",default-farmersmarket-4-3.jpg,311034,Lake Orion Farmers Market,,,,248-693-9742,http://lakeorionfarmersmarket.com,http://www.facebook.com/lakeorionfarmersmarket,,,,,,"93 S. Anderson Street Lake Orion, MI 48362",Michigan,LAKE ORION,93 S ANDERSON ST,48362,-83.23867411824635,42.783956918965586,,
farmers market,"Mar 21st, 2023",default-farmersmarket-4-3.jpg,311035,Lakeview Farmers Market,,,,989-352-6322,,https://www.facebook.com/lakeviewfarmersmarket/,,,,,,"215 South Lincoln Avenue, Lakeview, Michigan",Michigan,Lakeview,215 South Lincoln Avenue,,-85.2803074235811,43.44349084681233,,
farmers market,"Mar 21st, 2023",default-farmersmarket-4-3.jpg,311036,Lapeer Farmers Market,,,,810-882-8032,,,,,,,,"287 W. Nepessing St. Lapeer, MI 48446",Michigan,Lapeer,287 W. Nepessing St.,48446,-83.31146594559029,43.05430210600864,,
farmers market,"Mar 21st, 2023",default-farmersmarket-4-3.jpg,311037,Leelanau Farmers' Market,,,leelanaufarmersmarkets@gmail.com,231-256-9888,http://www.leelanau.cc/farmersmarket.asp,https://www.facebook.com/pages/Leelanau-Farmers-Markets/133061540053608?v=wall,,,,,,"10234 W. Front St., Empire, MI, 49630",Michigan,Empire,10234 W. Front St.,49630,-86.0630348582611,44.81104079344044,,
farmers market,"Mar 21st, 2023",default-farmersmarket-4-3.jpg,311038,Les Cheneaux Farmers Market,,,,906-767-8765,,https://www.facebook.com/LesCheneauxFarmersMarket/,,,,,,"3206 West Cedar Road, Hessel, Michigan",Michigan,Hessel,3206 West Cedar Road,,-84.43028913237579,46.005956176097065,,
farmers market,"Mar 21st, 2023",default-farmersmarket-4-3.jpg,311039,Little Red Shed Farm Market,,,,269-806-4528,,http://www.facebook.com/pages/AAs-Little-Red-Shed-Farm-Market-/333510893505718,,,,,,"79202 M-40 Lawton, MI 49065",Michigan,LAWTON,79202 M 40,49065,-85.851737470043,42.14302863143723,,
farmers market,"Mar 21st, 2023",default-farmersmarket-4-3.jpg,311040,Lowell Area Farmers Market,,,,616-916-9193,http://www.discoverlowell.org/,,,,,,,"11840 Fulton Street East, Lowell, Michigan",Michigan,Lowell,11840 Fulton Street East,,-85.37699906211083,42.93052437700871,,
farmers market,"Mar 21st, 2023",default-farmersmarket-4-3.jpg,311041,M&M Farmers Market,,,,906-639-3377,,https://www.facebook.com/MandMFarmersMarket/,,,,,,"1207 8th Avenue, Menominee, Michigan",Michigan,Menominee,1207 8th Avenue,,-87.61601398362333,45.106036521883794,,
farmers market,"Mar 21st, 2023",default-farmersmarket-4-3.jpg,311042,Madison Farmers Market,,,,517-442-6418,,https://www.facebook.com/madisonfarmersmarketadrian/,,,,,,"3000 Treat Street, Adrian, Michigan",Michigan,Adrian,3000 Treat Street,,-84.01861469740892,41.87508125386195,,
farmers market,"Mar 21st, 2023",default-farmersmarket-4-3.jpg,311043,Mancelona Farmers Market,,,,231-886-0416,http://mancelonafarmersmarket.weebly.com/,,,,,,,"121 East State Street, Mancelona, Michigan",Michigan,Mancelona,121 East State Street,,-85.05903313297324,44.9024198178949,,
farmers market,"Mar 21st, 2023",default-farmersmarket-4-3.jpg,311044,Manistique Farmers Market,,,,906-450-4240,http://www.manistiquefarmersmarket.com,,,,,,,"180 North Maple Street, Manistique, Michigan",Michigan,Manistique,180 North Maple Street,,-86.24460329504308,45.95687380602381,,
farmers market,"Mar 21st, 2023",default-farmersmarket-4-3.jpg,311045,Marine City Farmer s Market,,,,810-765-4501,,https://www.facebook.com/FarmersMarketMC/,,,,,,"310 South Parker Street, Marine City, Michigan",Michigan,Marine City,310 South Parker Street,,-82.50054655749842,42.71962129952163,,
farmers market,"Mar 21st, 2023",default-farmersmarket-4-3.jpg,311046,Market on the Grand,,,,517-627-2383,https://www.grandledgechamber.com/market_on_the_grand.php,,,,,,,"525 East River Street, Grand Ledge, Michigan",Michigan,Grand Ledge,525 East River Street,,-84.74107847733383,42.750585889968605,,
farmers market,"Mar 21st, 2023",default-farmersmarket-4-3.jpg,311047,Marquette Farmers & Artists Market,,,,906-225-0671,http://www.downtownmarquette.org/farmersmarket.php,,,,,,,"112 S. Third St. (Marquette Commons) Marquette, MI 49855",Michigan,MARQUETTE,112 S 3RD ST,49855,-87.39541014262964,46.54343620162226,,
farmers market,"Mar 21st, 2023",default-farmersmarket-4-3.jpg,311048,Marshall Area Farmers Market,,,,269-274-2139,http://www.cityofmarshall.com/departments/140,,,,,,,"125 West Green Street, Marshall, Michigan",Michigan,Marshall,125 West Green Street,,-84.95943353179767,42.27105613055727,,
farmers market,"Mar 21st, 2023",default-farmersmarket-4-3.jpg,311049,Martin Marketplace,,,,616-837-8101,http://www.martinmarketplace.com,,,,,,,"1619 12th Ave. Martin, MI 49070",Michigan,MARTIN,1619 12TH ST,49070,-85.6622163668911,42.53865901842836,,
farmers market,"Mar 21st, 2023",default-farmersmarket-4-3.jpg,311050,Marysville Farmers Market and Flea Market,,,,810-625-1823,http://cwchurch.com,,,,,,,"2415 Gratiot Blvd Marysville, MI 48040",Michigan,MARYSVILLE,2415 GRATIOT BLVD,48040,-82.48760261671762,42.9151812571922,,
farmers market,"Mar 21st, 2023",default-farmersmarket-4-3.jpg,311051,Mason Area Farmers Market,,,,517-676-4175,,https://www.facebook.com/MasonFarmersMarketMI/,,,,,,"304 South Jefferson Street, Mason, Michigan",Michigan,Mason,304 South Jefferson Street,,-84.44311904306065,42.58011774312108,,
farmers market,"Mar 21st, 2023",default-farmersmarket-4-3.jpg,311052,Mason Farmers' Market,,,,517-676-4175,,,,,,,,"121 E Maple Street Mason, MI 48854",Michigan,Mason,121 E Maple Street,48854,-84.44268446668335,42.58020120341238,,
farmers market,"Mar 21st, 2023",default-farmersmarket-4-3.jpg,311053,Melvindale DDA Farmers Market,,,,313-220-3020,,,,,,,,"3100 Oakwood Blvd Melvindale, MI 48122",Michigan,Melvindale,3100 Oakwood Blvd,48122,-83.17575443722413,42.28238070884371,,
farmers market,"Mar 21st, 2023",default-farmersmarket-4-3.jpg,311054,Menominee Farmers' Market,,,,906-863-8718,www.menomineefarmersmarket.com,www.facebook.com/MenomineeFarmersMarke,,,,,,"800 1st St., Menominee, MI, 49858",Michigan,Menominee,800 1st St.,#VALUE!,-87.60396573675644,45.10594755939204,,
farmers market,"Mar 21st, 2023",default-farmersmarket-4-3.jpg,311055,Menominee Historial Downtown Farmers Market Association,,,,906-863-8718,,,,,,,,"905 10th Street Menominee MI 49858 Menominee, MI 49858",Michigan,MENOMINEE,"905 10TH ST, MENONEE",49858,-87.6146726014925,45.10704445991504,,
farmers market,"Mar 21st, 2023",default-farmersmarket-4-3.jpg,311056,Meridian Township Farmers' Market,,,farmers.market.manager@gmail.com,517-712-2395,http://www.meridian.mi.us/index.asp?Type=B_BASIC&SEC={FBDDD477-61D6-4BC4-8CAD-81DAA4BB9692},https://www.facebook.com/MeridianTownshipFarmersMarket,,,,,,"5151 Marsh Rd., Central Park Pavilion, Okemos, MI, 48864",Michigan,Okemos,5151 Marsh Rd.,48864,-84.41183651290741,42.73099622766447,,
farmers market,"Mar 21st, 2023",default-farmersmarket-4-3.jpg,311057,Metro Health Farm Market,,,,801-930-8776x616,,https://m.facebook.com/profile.php?id=269380193087765&__tn__=C-R,,,,,,"5900 Byron Center Avenue Southwest, Wyoming, Michigan",Michigan,Wyoming,5900 Byron Center Avenue Southwest,,-85.72300978310952,42.85720050959169,,
farmers market,"Mar 21st, 2023",default-farmersmarket-4-3.jpg,311058,Midland Farmers' Market,,,chamber@macc.org,989-839-9901,http://www.macc.org/farmersmarket,https://www.facebook.com/midlandfarmersmarket,,,,,,"111 W. Main St., End of Ashman St., Midland, MI, 48640",Michigan,Midland,"111 W. Main St., End of Ashman St.",48640,-84.24569221216656,43.61328159660149,,
farmers market,"Mar 21st, 2023",default-farmersmarket-4-3.jpg,311059,Milan Farmers' and Artisan Market,,,milanmimarket@gmail.com,734-478-8252,,https://www.facebook.com/MilanMImarket/,,,,,,"147 Wabash St., Milan, MI, 48160",Michigan,Milan,147 Wabash St.,48160,-83.68553872485312,42.08201862375412,,
farmers market,"Mar 21st, 2023",default-farmersmarket-4-3.jpg,311060,Milford Farmers' Market,,,mfm.vendorinfo@gmail.com,313-999-1165,http://www.milfordfarmersmarket.org/,https://www.facebook.com/pages/Milford-Farmers-Market/93544778955,,,,,,"115 E. Liberty St., Milford, MI, 48381",Michigan,Milford,115 E. Liberty St.,48381,-83.60002518872486,42.589502327174,,
farmers market,"Mar 21st, 2023",default-farmersmarket-4-3.jpg,311061,Monroe Farmers market,,,,734-854-2991,https://monroemifarmersmarket.com/,,,,,,,"20 East Willow Street, Monroe, Michigan",Michigan,Monroe,20 East Willow Street,,-83.39508683176628,41.919674994059676,,
farmers market,"Mar 21st, 2023",default-farmersmarket-4-3.jpg,311062,Mount Clemens Downtown Farmers Market,,,,586-493-7600,http://www.mountclemensfarmersmarket.com/,,,,,,,"125 Macomb Place, Mount Clemens, Michigan",Michigan,Mount Clemens,125 Macomb Place,,-82.87974487037584,42.59946651905787,,
farmers market,"Mar 21st, 2023",default-farmersmarket-4-3.jpg,311063,Mount Clemens Farmers Market,,,,586-493-7600,http://www.mountclemensfarmersmarket.com,,,,,,,"141 North River Road, Mount Clemens, Michigan",Michigan,Mount Clemens,141 North River Road,,-82.86940306397528,42.59828105716067,,
farmers market,"Mar 21st, 2023",default-farmersmarket-4-3.jpg,311064,Munising Farmers & Artisans Market,,,,248-343-5909,,https://www.facebook.com/MunisingFarmersMarket,,,,,,"355 Elm Avenue, Munising, Michigan",Michigan,Munising,355 Elm Avenue,,-86.65702180425039,46.40913442599938,,
farmers market,"Mar 21st, 2023",default-farmersmarket-4-3.jpg,311065,Muskegon Farmers Market,,,,231-722-3251,http://www.muskegonfarmersmarket.com,,,,,,,"242 West Western Avenue, Muskegon, Michigan",Michigan,Muskegon,242 West Western Avenue,,-86.23845826349476,43.24760603559186,,
farmers market,"Mar 21st, 2023",default-farmersmarket-4-3.jpg,311066,Muskegon Indoor Winter Market,,,muskfarmermkt@frontier.com,231-722-3251,http://www.muskegonfarmersmarket.com/,https://www.facebook.com/MuskegonIndoorWinterMarket,,,,,,"350 W. Western Ave., Muskegon, MI, 49440",Michigan,Muskegon,350 W. Western Ave.,49440,-86.25367454100476,43.2350258253626,,
farmers market,"Mar 21st, 2023",default-farmersmarket-4-3.jpg,311067,Native Farmers Market,,,,989-775-4629,http://www.sagchip.org/news.aspx?newsid=354#.VV4X5blVhBd,,,,,,,"7070 East Broadway Road, Mount Pleasant, Michigan",Michigan,Mount Pleasant,7070 East Broadway Road,,-84.7065625740989,43.604532369228586,,
farmers market,"Mar 21st, 2023",default-farmersmarket-4-3.jpg,311068,New Baltimore Farmers Market,,,,586-215-7484,http://www.newbaltimorefarmersmarket.com,,,,,,,"50976 Washington Street, New Baltimore, Michigan",Michigan,New Baltimore,50976 Washington Street,,-82.73474525495048,42.67945911293176,,
farmers market,"Mar 21st, 2023",default-farmersmarket-4-3.jpg,311069,New Buffalo Farmers Market,,,,888-660-6222,https://newbuffalo.org/?s=farmers+market,,,,,,,"107 North Whittaker Street, New Buffalo, Michigan",Michigan,New Buffalo,107 North Whittaker Street,,-86.74458818867302,41.795305514079445,,
farmers market,"Mar 21st, 2023",default-farmersmarket-4-3.jpg,311070,Newaygo Farmers Market,,,,231-652-3068,,https://www.facebook.com/NewaygoFarmersMarket,,,,,,"54 Quarterline Street, Newaygo, Michigan",Michigan,Newaygo,54 Quarterline Street,,-85.79826224380562,43.41957029896879,,
farmers market,"Mar 21st, 2023",default-farmersmarket-4-3.jpg,311071,Niles Artisan Alley Market,,,,269-687-4332,http://www.nilesmi.org/community/niles_market_in_the_alley.php,,,,,,,"100 East Main Street, Niles, Michigan",Michigan,Niles,100 East Main Street,,-86.25803037323203,41.82990350144567,,
farmers market,"Mar 21st, 2023",default-farmersmarket-4-3.jpg,311072,Niles Bensidoun French Market/Niles Main Street,,,,269-687-4332,https://www.nilesmainstreet.org/page7.php,,,,,,,"210 E Main Niles, MI 49120",Michigan,Niles,210 E Main,49120,-86.25716795204802,41.829909479666746,,
farmers market,"Mar 21st, 2023",default-farmersmarket-4-3.jpg,311073,Northeast Michigan Regional Farm Market,,,,989-909-3193,http://www.getitfresh.org/,http://www.facebook.com/pages/Northeast-Michigan-Regional-Farm-Market/90400258607,,,,,,"815 W. Lake Street Gateway Park Tawas City, MI 48763",Michigan,ALABASTER,815 W LAKE ST,48763,-83.52770085162271,44.25931589301164,,
farmers market,"Mar 21st, 2023",default-farmersmarket-4-3.jpg,311074,Novi Farmers' Market & International Street Fair,,,,248-504-8102,http://www.novifarmersmarket.com/,,,,,,,"43155 Main St. Novi, MI 48375",Michigan,NOVI,43155 MAIN ST,48375,-83.47275654215785,42.478142260346196,,
farmers market,"Mar 21st, 2023",default-farmersmarket-4-3.jpg,311075,Oak Park Farmers Market,,,,248-691-2357,,,,,,,,"13701 Oak Park Boulevard, Oak Park, Michigan",Michigan,Oak Park,13701 Oak Park Boulevard,,-83.1847951046737,42.46573619112758,,
farmers market,"Mar 21st, 2023",default-farmersmarket-4-3.jpg,311076,Oakland Avenue Farmers Market,,,,313-649-7756,www.oaklandavenueurbanfarm.org,,,,,,,"9354 Oakland Avenue, Detroit, Michigan",Michigan,Detroit,9354 Oakland Avenue,,-83.07354258435117,42.38728061772064,,
farmers market,"Mar 21st, 2023",default-farmersmarket-4-3.jpg,311077,Oakland County Farmers Market,,,,248-858-5495,http://www.DestinationOakland.com/countymarket,,,,,,,"2350 Pontiac Lk Rd Waterford, MI 48328",Michigan,WATERFORD,2350 PONTIAC LAKE RD,48328,-83.33665808697154,42.654121379905426,,
farmers market,"Mar 21st, 2023",default-farmersmarket-4-3.jpg,311078,Old Depot Farmers Market,,,,651-233-8710,http://www.cityofironwood.org,http://www.facebook.com/olddepotfarmersmarket?ref=hl,,,,,,"150 N. Lowell St. Ironwood, MI 49938 East on US2 turn right onto Business US2 (Douglas BLVD) continue for 1/4 mile; Market is on the left with parking.",Michigan,IRONWOOD,150 N LOWELL ST,49938,-90.1711950320077,46.45487357192278,,
farmers market,"Mar 21st, 2023",default-farmersmarket-4-3.jpg,311079,Old School Farmers Market,,,,269-673-5435,https://www.laurascountrycandles.com/,,,,,,,"1141 Lincoln Road Allegan, MI 49010",Michigan,Allegan,1141 Lincoln Road,49010,-85.79386182128559,42.50255987357679,,
farmers market,"Mar 21st, 2023",default-farmersmarket-4-3.jpg,311080,Old Town Emmet Farm Market,,,,231-347-3769,http://www.oldtownemmetfarmmarket.com/,,,,,,,"1322 Anderson Road, Petoskey, Michigan",Michigan,Petoskey,1322 Anderson Road,,-84.97083416857639,45.35974781623232,,
farmers market,"Mar 21st, 2023",default-farmersmarket-4-3.jpg,311081,Orion Farmers' Market,,,,248-693-7067,http://orionfarmersmarket.com,,,,,,,"550 E. Silverbell Rd Orion, MI 48360",Michigan,ORION,550 E SILVERBELL RD,48360,-83.23339024561085,42.72328239671125,,
farmers market,"Mar 21st, 2023",default-farmersmarket-4-3.jpg,311082,Ortonville Farmers Market,,,,,http://ortonvillefarmersmarket.org,http://www.facebook.com/ortonvillefarmersmarket/,,,,,,"476 Mill St Ortonville, MI 48462",Michigan,ORTONVILLE,476 LL ST,48462,-83.44308976628756,42.85217638280649,,
farmers market,"Mar 21st, 2023",default-farmersmarket-4-3.jpg,311083,Osma Acres Farmers Market,,,,906-483-0586,http://www.osmaacresfarm/com,,,,,,,"53464 Osma Acres Rd Houghton, MI 49931",Michigan,HOUGHTON,53464 OSMA ACRES RD,49931,-88.64462036629509,47.19143941964445,,
farmers market,"Mar 21st, 2023",default-farmersmarket-4-3.jpg,311084,Otsego Farmers Market,,,,269-760-7056,,https://www.facebook.com/Otsegofarmersmarket/,,,,,,"112 Kalamazoo Street, Otsego, Michigan",Michigan,Otsego,112 Kalamazoo Street,,-85.69840180292317,42.46062410566212,,
farmers market,"Mar 21st, 2023",default-farmersmarket-4-3.jpg,311085,Owosso Farmers Market,,,,989-372-1694,http://www.owossofarmersmarket.com,,,,,,,"7321 N Seymour Rd. Owosso, MI 48867",Michigan,OWOSSO,7321 N SEYMOUR RD,48867,-84.14861521166685,43.105517869849805,,
farmers market,"Mar 21st, 2023",default-farmersmarket-4-3.jpg,311086,Owosso Original Farmer s Market,,,,517-256-6425,,https://www.facebook.com/OriginalOwossoFarmMarket/,,,,,,"1643 East M 21, Owosso, Michigan",Michigan,Owosso,1643 East M 21,,-84.13884847777246,42.99787842426182,,
farmers market,"Mar 21st, 2023",default-farmersmarket-4-3.jpg,311087,Paw Paw Farmers Market,,,,269-921-1482,http://pawpaw.net/FarmersMarket.aspx,,,,,,,"118 South Gremps Street, Paw Paw, Michigan",Michigan,Paw Paw,118 South Gremps Street,,-85.89283562829647,42.216797718942274,,
farmers market,"Mar 21st, 2023",default-farmersmarket-4-3.jpg,311088,Pentwater Farmers Market,,,,231-869-4150,www.pentwater.org,,,,,,,"231 South Hancock Street, Pentwater, Michigan",Michigan,Pentwater,231 South Hancock Street,,-86.43304557259044,43.77964773390706,,
farmers market,"Mar 21st, 2023",default-farmersmarket-4-3.jpg,311089,"Pentwater, MI Farmers' Market",,,,,,,,,,,,"324 S. Hancock St. (Village Green) Pentwater, MI 49449",Michigan,PENTWATER,324 S HANCOCK ST,49449,-86.43290959475776,43.777983229605816,,
farmers market,"Mar 21st, 2023",default-farmersmarket-4-3.jpg,311090,Pickford Farmers Market,,,,906-630-2881,,https://www.facebook.com/pg/pickfordfarmersmarket,,,,,,"185 North Manila Road, Pickford, Michigan",Michigan,Pickford,185 North Manila Road,,-84.35559548440638,46.15874990486611,,
farmers market,"Mar 21st, 2023",default-farmersmarket-4-3.jpg,311091,Plainfield Charter Township Farmers' Market,,,FarmersMarket@plainfieldchartertwp.org,616-364-8466x147,http://www.plainfieldchartertwp.org/pctfarmers.htm,https://www.facebook.com/PlainfieldTownshipFarmersMarket/,,,,,,"4411 Plainfield Ave. NE, Grand Rapids, MI, 49525",Michigan,Grand Rapids,4411 Plainfield Ave. NE,49525,-85.60722723954824,43.04296916633133,,
farmers market,"Mar 21st, 2023",default-farmersmarket-4-3.jpg,311092,Plymouth Farmers Market,,,,734-453-1540,http://www.plymouthchamber.org/events,,,,,,,"736 Penniman Avenue, Plymouth, Michigan",Michigan,Plymouth,736 Penniman Avenue,,-83.468707231435,42.37045596962927,,
farmers market,"Mar 21st, 2023",default-farmersmarket-4-3.jpg,311093,Pontiac Farmers Market,,,,,https://www.pontiacfarmersmarket.org/,,,,,,,"11 North Saginaw Street, Pontiac, Michigan",Michigan,Pontiac,11 North Saginaw Street,,-83.2920717798926,42.63705597310482,,
farmers market,"Mar 21st, 2023",default-farmersmarket-4-3.jpg,311094,Port Austin Farmers Market,,,,989-551-8100,https://portaustinarea.com/about-the-farmers-market/,,,,,,,"8700 Line Street, Port Austin, Michigan",Michigan,Port Austin,8700 Line Street,,-82.99481961428849,44.04499321198723,,
farmers market,"Mar 21st, 2023",default-farmersmarket-4-3.jpg,311095,Port Sanilac Farmers Market,,,,734-453-1540,http://www.portsanilac.net,,,,,,,"228 South Ridge Street, Port Sanilac, Michigan",Michigan,Port Sanilac,228 South Ridge Street,,-82.5424600470694,43.42102636306143,,
farmers market,"Mar 21st, 2023",default-farmersmarket-4-3.jpg,311096,Portage Farmers Market,,,,269-329-4522,http://www.farmersmarket.portagemi.gov/,,,,,,,"7900 South Westnedge Avenue, Portage, Michigan",Michigan,Portage,7900 South Westnedge Avenue,,-85.58938394100292,42.20196271068734,,
farmers market,"Mar 21st, 2023",default-farmersmarket-4-3.jpg,311097,Powers Spalding Farmers Market,,,,906-553-8719,http://psfarmersmarket.com/,http://www.facebook.com/PowersSpaldingFarmersMarket/,,,,,,"N16087 MAIN ST POWERS, MI 49874 Located behind the Java and Jive Coffeehouse and Lion's Club.",Michigan,POWERS,N16087 MAIN ST,49874,-87.52126857844421,45.69375915295835,,
farmers market,"Mar 21st, 2023",default-farmersmarket-4-3.jpg,311098,Redford Township Market at the Marquee,,,,313-387-2504,http://www.redfordtwp.com,,,,,,,"15145 Beech Daly Road Redford, MI 48239",Michigan,REDFORD,15145 BEECH DALY RD,48239,-83.29583277720931,42.39821936064802,,
farmers market,"Mar 21st, 2023",default-farmersmarket-4-3.jpg,311099,Richland Farmers Market,,,,269-629-9430,http://www.richlandfarmersmarket.weebly.com,,,,,,,"9400 East CD Avenue, Richland, Michigan",Michigan,Richland,9400 East CD Avenue,,-85.44732150719956,42.38349794749019,,
farmers market,"Mar 21st, 2023",default-farmersmarket-4-3.jpg,311100,Rockford Farmer s Market,,,,616-866-1537,http://www.rockford.mi.us,,,,,,,"54 South Main Street, Rockford, Michigan",Michigan,Rockford,54 South Main Street,,-85.5595210654207,43.118056352016545,,
farmers market,"Mar 21st, 2023",default-farmersmarket-4-3.jpg,311101,Rogers City Farmers Market,,,,989-734-4977,,,,,,,,"146 East Erie Street, Rogers City, Michigan",Michigan,Rogers City,146 East Erie Street,,-83.81502678380326,45.419753599885325,,
farmers market,"Mar 21st, 2023",default-farmersmarket-4-3.jpg,311102,Romeo Farmers' Market,,,rfmfresh@gmail.com,989-325-8285,,https://www.facebook.com/RomeoFarmersMarket,,,,,,"219 N. Main St., Romeo, MI, 48065",Michigan,Romeo,219 N. Main St.,48065,-83.01338445618504,42.80314047343203,,
farmers market,"Mar 21st, 2023",default-farmersmarket-4-3.jpg,311103,Roscommon Village Farmers Market,,,,,,,,,,,,"211 N. Main Street Roscommon, MI 48653",Michigan,Roscommon,211 N. Main Street,48653,-84.59284686321075,44.500070532166355,,
farmers market,"Mar 21st, 2023",default-farmersmarket-4-3.jpg,311104,Rose City Farmers Market,,,,989-329-0074,http://www.rosecitymi.org,,,,,,,"429 North Williams Street, Rose City, Michigan",Michigan,Rose City,429 North Williams Street,,-84.11631068202385,44.425702862443934,,
farmers market,"Mar 21st, 2023",default-farmersmarket-4-3.jpg,311105,Royal Oak Farmers Market,,,,248-246-3276,https://www.romi.gov/389/Farmers-Market,,,,,,,"316 East Eleven Mile Road, Royal Oak, Michigan",Michigan,Royal Oak,316 East Eleven Mile Road,,-83.14163104211684,42.489879427957376,,
farmers market,"Mar 21st, 2023",default-farmersmarket-4-3.jpg,311106,Saginaw VA Farmers Market,,,,,,,,,,,,"1500 Weiss St Saginaw, MI 48602",Michigan,SAGINAW,1500 WEISS ST,48602,-83.96086405102002,43.4436837950841,,
farmers market,"Mar 21st, 2023",default-farmersmarket-4-3.jpg,311107,Sandusky Farmers' Market,,,,810-648-5415,,,,,,,,"82 S. Townline Rd. Sandusky, MI 48471",Michigan,Sandusky,82 S. Townline Rd.,48471,-82.86904324829733,43.41749882144642,,
farmers market,"Mar 21st, 2023",default-farmersmarket-4-3.jpg,311108,Sanford Farmers' Market,,,,989-687-6476,,,,,,,,"683 E. Saginaw Rd Sanford, MI 48657",Michigan,Sanford,683 E. Saginaw Rd,48657,-84.34237888288531,43.665151050108875,,
farmers market,"Mar 21st, 2023",default-farmersmarket-4-3.jpg,311109,Saugatuck-Douglas Green Market,,,boxoffice@sc4a.org,269-857-2399,https://www.sc4a.org/,,,,,,,"400 Culver St. Saugatuck, MI 49453",Michigan,Saugatuck,400 Culver St.,49453,-86.20171074539404,42.6548157971208,,
farmers market,"Mar 21st, 2023",default-farmersmarket-4-3.jpg,311110,Sault Ste. Marie Farmers' Market,,,,906-635-6368,https://ssm-farmers-market.posterous.com/,https://www.facebook.com//profile.php?id=100002311614150,,,,,,"111 Portage Ave Sault Sainte Marie, MI 49783",Michigan,Sault Sainte Marie,111 Portage Ave,49783,-84.34616526995053,46.5003057742775,,
farmers market,"Mar 21st, 2023",default-farmersmarket-4-3.jpg,311111,Scottville Farmers' Market at Millers Ma...,,,jen@millersmarketplace.com,231-233-1584,http://www.millersmarketplace.com/farmers-market.html,https://www.facebook.com/mrsmillersmarketplace/,,,,,,"202 Main St. N., Scottville, MI, 49454",Michigan,Scottville,202 Main St. N.,49454,-86.27947025403073,43.95608726384809,,
farmers market,"Mar 21st, 2023",default-farmersmarket-4-3.jpg,311112,Shelby Farmers Market,,,,586-943-5785,http://shelbyfarmersmarket.com,,,,,,,"49965 Van Dyke Avenue, Shelby Township, Michigan",Michigan,Shelby Township,49965 Van Dyke Avenue,,-83.03365565640527,42.66190526670561,,
farmers market,"Mar 21st, 2023",default-farmersmarket-4-3.jpg,311113,Solon Township Farmers' Market,,,adminasst@solontwp.org.,616-696-1718,http://www.solontwp.org/farmers-market/,https://www.facebook.com/Solon-Market-112305385471360/,,,,,,"15185 Algoma Ave., Cedar Springs, MI, 49319",Michigan,Cedar Springs,15185 Algoma Ave.,49319,-85.61111406591363,43.24069236481662,,
farmers market,"Mar 21st, 2023",default-farmersmarket-4-3.jpg,311114,South Haven Farmers Market,,,,269-206-0324,http://www.southhavenfarmmarket.com/,,,,,,,"539 Huron Street, South Haven, Michigan",Michigan,South Haven,539 Huron Street,,-86.27211895487358,42.401878588736075,,
farmers market,"Mar 21st, 2023",default-farmersmarket-4-3.jpg,311115,South Lansing Farmers Market,,,,517-374-5700,http://www.southlansing.org,,,,,,,"800 West Barnes Avenue, Lansing, Michigan",Michigan,Lansing,800 West Barnes Avenue,,-84.56314920238546,42.71493176765025,,
farmers market,"Mar 21st, 2023",default-farmersmarket-4-3.jpg,311116,South Lyon Farmer and Artisan Market,,,,248-437-1735,http://www.downtownsouthlyon.org/,http://www.facebook.com/southlyonfarmersmarket,,,,,,"106 South Lafayette Street South Lyon, MI 48178",Michigan,SOUTH LYON,106 N LAFAYETTE ST,48178,-83.65150476947854,42.46072814570807,,
farmers market,"Mar 21st, 2023",default-farmersmarket-4-3.jpg,311117,Southeast Area Farmers Market,,,,616-206-3641,http://www.oktJustice.org/farmers-market/,,,,,,,"900 Fuller Avenue Southeast, Grand Rapids, Michigan",Michigan,Grand Rapids,900 Fuller Avenue Southeast,,-85.63939992759774,42.94550021432553,,
farmers market,"Mar 21st, 2023",default-farmersmarket-4-3.jpg,311118,Southfield Farmers Market,,,,248-796-5190,https://www.southfieldfarmersmarket.net/,,,,,,,"21755 Greenfield Road Southfield, MI 48075",Michigan,Southfield,21755 Greenfield Road,48075,-83.20098941977035,42.452548494674325,,
farmers market,"Mar 21st, 2023",default-farmersmarket-4-3.jpg,311119,Southgate Farmer s Market,,,,734-250-2328,,https://www.facebook.com/MarketInTheParkMI/,,,,,,"13545 Eureka Road, Southgate, Michigan",Michigan,Southgate,13545 Eureka Road,,-83.1905142345141,42.19930397551317,,
farmers market,"Mar 21st, 2023",default-farmersmarket-4-3.jpg,311120,Southside Community Coalition Farmers Market (Lansing),,,,517-394-6846,https://www.southsidecommunitycenter.net/,,,,,,,"2101 West Holmes Rd. Lansing, MI 48910",Michigan,Lansing,2101 West Holmes Rd.,48910,-84.580197167659,42.69756196529075,,
farmers market,"Mar 21st, 2023",default-farmersmarket-4-3.jpg,311121,Sowing Seeds Growing Futures Farmers Market,,,,313-581-7773,http://www.joysouthfield.org,,,,,,,"18900 Joy Road, Detroit, Michigan",Michigan,Detroit,18900 Joy Road,,-83.2249792886863,42.35773004419172,,
farmers market,"Mar 21st, 2023",default-farmersmarket-4-3.jpg,311122,Spring Lake Farm & Garden Market,,,,616-842-4910,https://grandhavenchamber.org/play/farmers-markets/,,,,,,,"225 East Exchange Street, Spring Lake, Michigan",Michigan,Spring Lake,225 East Exchange Street,,-86.1945332301353,43.07562492392436,,
farmers market,"Mar 21st, 2023",default-farmersmarket-4-3.jpg,311123,Springfield Farmers Market,,,,248-249-1592,https://www.springfieldfarmersmarket.wordpress.com/,https://www.facebook.com/pages/Springfield-Farmers-Market/209917455700576,,,,,,"12000 Davisburg Road Davisburg, MI 48350",Michigan,Davisburg,12000 Davisburg Road,48350,-83.52615404889123,42.75525519311643,,
farmers market,"Mar 21st, 2023",default-farmersmarket-4-3.jpg,311124,Springfield Recreation Area Farmers' Market,,,,231-879-4249,,,,,,,,"3933 Lund Road Fife Lake, MI 49633",Michigan,Fife Lake,3933 Lund Road,49633,-85.25132192888233,44.54086458710289,,
farmers market,"Mar 21st, 2023",default-farmersmarket-4-3.jpg,311125,St. Clair Farmers Market,,,,747-504-4451x810,,https://www.facebook.com/St-Clair-Farmers-Market-112674750444516/,,,,,,"201 North Riverside Avenue, Saint Clair, Michigan",Michigan,Saint Clair,201 North Riverside Avenue,,-82.4857773984167,42.824038102955264,,
farmers market,"Mar 21st, 2023",default-farmersmarket-4-3.jpg,311126,St. Clair Shores Farmers Market,,,,,http://scsfarmersmarket.com,http://www.facebook.com/scsfarmersmarket/,,,,,,"24800 Jefferson Avenue Saint Clair Shores, MI 48080 4th Sunday of every month | 8am - 1pm 2016 Season: May 22 | June 26 | July 24 | August 28 | September 25",Michigan,SAINT CLAIR SHORES,24800 JEFFERSON AVE,48080,-82.88930049885923,42.475019569666664,,
farmers market,"Mar 21st, 2023",default-farmersmarket-4-3.jpg,311127,St. Ignace Farmers Market,,,info@saintignace.org,906-643-8717,https://www.saintignace.org/,,,,,,,"560 N. State Street Saint Ignace, MI 49781",Michigan,Saint Ignace,560 N. State Street,49781,-84.73096064121945,45.872218874601884,,
farmers market,"Mar 21st, 2023",default-farmersmarket-4-3.jpg,311128,St. Johns Farmers Market,,,,989-224-7863,,https://www.facebook.com/SaintJohnsFarmersMarket/,,,,,,"100 Maple Street, Saint Johns, Michigan",Michigan,Saint Johns,100 Maple Street,,-84.55910154128078,43.00132916035333,,
farmers market,"Mar 21st, 2023",default-farmersmarket-4-3.jpg,311129,Summer Thyme Farmers Market and Flea Market,,,,,,https://www.facebook.com/events/867261847473594/?active_tab=discussion,,,,,,"260 Roosevelt Street, Smiths Creek, Michigan",Michigan,Smiths Creek,260 Roosevelt Street,,-82.50231007577949,42.91451506183103,,
farmers market,"Mar 21st, 2023",default-farmersmarket-4-3.jpg,311130,Swartz Creek Farmers' Market,,,Information@metropolicegc.org,810-635-4464,https://www.cityofswartzcreek.org/Market/index.html,,,,,,,"8083 Miller Rd. Swartz Creek, MI 48473",Michigan,Swartz Creek,8083 Miller Rd.,48473,-83.8340402263146,42.957153945300824,,
farmers market,"Mar 21st, 2023",default-farmersmarket-4-3.jpg,311131,Sweetwater Local Foods Market,,,sweetwaterlfm@charter.net,231-329-4908,http://www.sweetwaterlocalfoodsmarket.org,https://www.facebook.com/pages/Sweetwater-Local-Foods-Market/111077177535,,,,,,"6401 Harvey St, Muskegon, MI, 49444",Michigan,Muskegon,6401 Harvey St,49444,-86.20599006947788,43.13617191487638,,
farmers market,"Mar 21st, 2023",default-farmersmarket-4-3.jpg,311132,Taylor Farmers Market,,,,734-374-8900,http://www.cityoftaylor.com/435/Farmers-Market,,,,,,,"12111 Pardee Road, Taylor, Michigan",Michigan,Taylor,12111 Pardee Road,,-83.25410193698274,42.21757785827019,,
farmers market,"Mar 21st, 2023",default-farmersmarket-4-3.jpg,311133,Tecumseh Farmers' Market,,,chamber@tecumsehchamber.org,517-451-8063,http://www.tecumseh.mi.us/things-to-do/tecumseh-s-farmers-market#.VRW91451xNU,https://www.facebook.com/tecumsehsfarmersmarket,,,,,,"302 E. Chicago Blvd, Tecumseh, MI, 49288",Michigan,Tecumseh,302 E. Chicago Blvd,49288,-83.94177142009853,42.004095614858485,,
farmers market,"Mar 21st, 2023",default-farmersmarket-4-3.jpg,311134,Tecumseh Farmers Market at The Market on Evans,,,,517-423-3740,http://www.downtowntecumseh.com/outdoor-recreation/tecumseh-s-farmers-market-at-the-market-on-evans,,,,,,,"213 North Evans Street, Tecumseh, Michigan",Michigan,Tecumseh,213 North Evans Street,,-83.94525431171269,42.00610507214299,,
farmers market,"Mar 21st, 2023",default-farmersmarket-4-3.jpg,311135,Texas Township Farmers Market,,,,269-375-1591,http://www.texastownship.org/farmers-market/,,,,,,,"7110 West Q Avenue, Kalamazoo, Michigan",Michigan,Kalamazoo,7110 West Q Avenue,,-85.68908970651921,42.201059457478415,,
farmers market,"Mar 21st, 2023",default-farmersmarket-4-3.jpg,311136,The Congregation Farmers Market,,,,313-307-5518,https://thecongregationdetroit.com/farmers-market/,,,,,,,"9321 Rosa Parks Boulevard, Detroit, Michigan",Michigan,Detroit,9321 Rosa Parks Boulevard,,-83.10024693214723,42.377462582491795,,
farmers market,"Mar 21st, 2023",default-farmersmarket-4-3.jpg,311137,The Market at SCA (Saugatuck Center for the Arts),,,,269-857-2399,http://www.sc4a.org/event/the-market-at-sca/,http://www.facebook.com/themarketatsca,,,,,,"400 Culver St Saugatuck, MI 49453",Michigan,SAUGATUCK,400 CULVER ST,49453,-86.20171074539404,42.6548157971208,,
farmers market,"Mar 21st, 2023",default-farmersmarket-4-3.jpg,311138,The Market Lexington,,,,810-404-7570,themarketlexington.com,,,,,,,"6934 Peck Road, Lexington, Michigan",Michigan,Lexington,6934 Peck Road,,-82.54977157516647,43.26757717960689,,
farmers market,"Mar 21st, 2023",default-farmersmarket-4-3.jpg,311139,The Old Winery Farmers Market,,,,810-837-1727,http://www.theoldwineryfarmersmarket.com,http://www.facebook.com/facebook@The-OldWineryFarmers-Market,,,,,,"31505 Grand River Ave. Farmington, MI 48336",Michigan,FARMINGTON,31505 GRAND RIVER AVE,48336,-83.35529617909955,42.45587291252523,,
farmers market,"Mar 21st, 2023",default-farmersmarket-4-3.jpg,311140,The Village at Grand Traverse Commons Farmers Market,,,,231-941-1961,http://www.thevillagetc.com/events-attractions/farmers-market/,,,,,,,"830 Cottageview Drive, Traverse City, Michigan",Michigan,Traverse City,830 Cottageview Drive,,-85.64460411994285,44.75852116461408,,
farmers market,"Mar 21st, 2023",default-farmersmarket-4-3.jpg,311141,Thomas Township Farmers Market,,,,989-781-0151,,https://www.facebook.com/thomastownshipmarket,,,,,,"455 South Miller Road, Saginaw, Michigan",Michigan,Saginaw,455 South Miller Road,,-84.07147995130697,43.41300866691333,,
farmers market,"Mar 21st, 2023",default-farmersmarket-4-3.jpg,311142,Three Oaks Farmers Market,,,,269-756-2059,http://threeoaksfarmersmarket.com/,,,,,,,"4 North Elm Street, Three Oaks, Michigan",Michigan,Three Oaks,4 North Elm Street,,-86.61040076427223,41.80090493506068,,
farmers market,"Mar 21st, 2023",default-farmersmarket-4-3.jpg,311143,Three Rivers - Scidmore Park Farmers' Market,,,,269-273-1075,,,,,,,,"333 W. Michigan Ave. Three Rivers, MI 49093",Michigan,Three Rivers,333 W. Michigan Ave.,49093,-85.6362404230557,41.94267752560719,,
farmers market,"Mar 21st, 2023",default-farmersmarket-4-3.jpg,311144,Traverse City Farmers' Market,,,jon@kirkbridehall.com,231-941-1961,http://www.ci.traverse-city.mi.us/farmers-market,https://www.facebook.com/Village-Farmers-Market-at-the-Mercato-266131887269/timeline/,,,,,,"800 Cottageview Dr., at The Piazza, Traverse City, MI, 49684",Michigan,Traverse City,800 Cottageview Dr.,49684,-85.64462308682775,44.758427233374604,,
farmers market,"Mar 21st, 2023",default-farmersmarket-4-3.jpg,311145,Troy Farmers Market,,,,248-524-1147,http://www.troymi.gov/farmersmarket,,,,,,,"241 Town Center Drive, Troy, Michigan",Michigan,Troy,241 Town Center Drive,,-83.15441247938428,42.56722757446762,,
farmers market,"Mar 21st, 2023",default-farmersmarket-4-3.jpg,311146,Vassar Farmers Market,,,,989-823-8517,https://www.cityofvassar.org/185/Farmers-Market,,,,,,,"194 East Huron Avenue, Vassar, Michigan",Michigan,Vassar,194 East Huron Avenue,,-83.58170486849993,43.37134718838151,,
farmers market,"Mar 21st, 2023",default-farmersmarket-4-3.jpg,311147,Vicksburg Farmers Market,,,,,http://www.vicksburgfarmersmarket.com,,,,,,,"300 North Richardson Street, Vicksburg, Michigan",Michigan,Vicksburg,300 North Richardson Street,,-85.52996842864589,42.12290911475512,,
farmers market,"Mar 21st, 2023",default-farmersmarket-4-3.jpg,311148,Village of Constantine Farmers Market,,,,269-435-2085,http://constantinemi.com,,,,,,,"165 N Washington Street Constantine, MI 49042",Michigan,CONSTANTINE,165 N WASHINGTON ST,49042,-85.67053090671098,41.84420515356065,,
farmers market,"Mar 21st, 2023",default-farmersmarket-4-3.jpg,311149,Wacousta Community Farmers' Market,,,farmersmarket@wacoustaumc.org,517-626-6623,http://wacoustaumc.org/Resources/farmersmarket.html,https://www.facebook.com/WacoustaCommunityFarmersMarket,,,,,,"9180 W. Herbison Rd., Eagle, MI, 48822",Michigan,Eagle,9180 W. Herbison Rd.,48822,-84.70527657832321,42.82775559170328,,
farmers market,"Mar 21st, 2023",default-farmersmarket-4-3.jpg,311150,Walled Lake Farmers' Market,,,jjoyce@walledlake.com,248-624-4847,,https://www.facebook.com/Walled-Lake-Farmers-Market-439386996083020/,,,,,,"1499 E. West Maple Rd., Walled Lake, MI, 48390",Michigan,Walled Lake,1499 E. West Maple Rd.,48390,-83.46675316399542,42.53968949259326,,
farmers market,"Mar 21st, 2023",default-farmersmarket-4-3.jpg,311151,Watershed Farmers' Market,,,,517-886-0440,http://watershed.net,,,,,,,"16280 National Parkway Lansing, MI 48917",Michigan,LANSING,16280 NATIONAL PKWY,48906,-84.63721911551761,42.7806423528266,,
farmers market,"Mar 21st, 2023",default-farmersmarket-4-3.jpg,311152,Waukazoo Market,,,,403-9466,,https://www.facebook.com/waukazoomarket/,,,,,,"1126 Ottawa Beach Road, Holland, Michigan",Michigan,Holland,1126 Ottawa Beach Road,,-86.15578604420013,42.793779505653404,,
farmers market,"Mar 21st, 2023",default-farmersmarket-4-3.jpg,311153,Wayne Farmers' Market,,,towfmmanager@gmail.com,734-721-0100,http://www.waynefarmersmarket.com/,https://www.facebook.com/waynefarmersmarket,,,,,,"3355 S. Wayne Rd., Wayne, MI, 48184",Michigan,Wayne,3355 S. Wayne Rd.,48184,-83.38360733149185,42.28511887954533,,
farmers market,"Mar 21st, 2023",default-farmersmarket-4-3.jpg,311154,Wayne Open-Air Market,,,,734-748-3771,https://notredamehall.com/,,,,,,,"3144 South Wayne Road, Wayne, Michigan",Michigan,Wayne,3144 South Wayne Road,,-83.38391857540553,42.28618556504875,,
farmers market,"Mar 21st, 2023",default-farmersmarket-4-3.jpg,311155,Wayne State Wednesday Farmers Market,,,,,http://www.clas.wayne.edu/seedwayne,,,,,,,"5201 Cass Ave Detroit, MI 48202",Michigan,DETROIT,5201 CASS AVE,48201,-83.06730862433201,42.357113175388164,,
farmers market,"Mar 21st, 2023",default-farmersmarket-4-3.jpg,311156,Webster Farmers Market,,,,734-717-9188,,https://www.facebook.com/websterfarmersmarket/,,,,,,"5501 Webster Church Road, Dexter, Michigan",Michigan,Dexter,5501 Webster Church Road,,-83.82292212542316,42.36338423001821,,
farmers market,"Mar 21st, 2023",default-farmersmarket-4-3.jpg,311157,Wednesday Evening Farmers Market,,,,734-794-6255,http://www.a2gov.org/government/communityservices/ParksandRecreation/FarmersMarket/Pages/WednesdayEveningMarket.aspx,,,,,,,"315 Detroit St. Ann Arbor, MI 48104",Michigan,ANN ARBOR,315 DETROIT ST,48104,-83.74663376200793,42.28340482174158,,
farmers market,"Mar 21st, 2023",default-farmersmarket-4-3.jpg,311158,West Branch Farmers Market,,,,989-345-0500,http://www.westbranch.com/residents/farmers_market/index.php,,,,,,,"100 South 3rd Street, West Branch, Michigan",Michigan,West Branch,100 South 3rd Street,,-84.23852819013096,44.27616125621777,,
farmers market,"Mar 21st, 2023",default-farmersmarket-4-3.jpg,311159,West Willow Farmers Market,,,,,westwillowfarmersmarket@gmail.com,,,,,,,"2057 Tyler Road, Ypsilanti, Michigan",Michigan,Ypsilanti,2057 Tyler Road,,-83.57076121094023,42.2318310325068,,
farmers market,"Mar 21st, 2023",default-farmersmarket-4-3.jpg,311160,Westland Farmers' Market,,,,734-326-7222,http://www.westlandfarmersmarket.com/,https://www.facebook.com/WestlandFarmersMarket/,,,,,,"1901 N. Carlson St., Westland, MI, 48185",Michigan,Westland,1901 N. Carlson St.,48185,-83.39882495435772,42.32225646957168,,
farmers market,"Mar 21st, 2023",default-farmersmarket-4-3.jpg,311161,Westside Farmers Market,,,,313-231-2046,,https://www.facebook.com/A2WestsideFarmersMarket/,,,,,,"2501 Jackson Avenue, Ann Arbor, Michigan",Michigan,Ann Arbor,2501 Jackson Avenue,,-83.78177549464453,42.280861118965404,,
farmers market,"Mar 21st, 2023",default-farmersmarket-4-3.jpg,311162,Westside Farmer's Market,,,,616-451-0150,https://www.foodshed.net/grfarmersmarkets/,,,,,,,"733 Bridge St. NW Grand Rapids, MI 49504",Michigan,Grand Rapids,733 Bridge St. NW,49504,-85.68692515263123,42.970744233024604,,
farmers market,"Mar 21st, 2023",default-farmersmarket-4-3.jpg,311163,Westside Farmers Market,,,,517-999-2894,http://www.nwlansing.org/,,,,,,,"400 N. Walnut St. - Ferris Park, Lansing, MI 48933 (Off Shiawassee St., Between Pine & Walnut Steets) Lansing, MI 48933",Michigan,Lansing,400 N. Walnut St.,48933,-84.55693980199581,42.73741342529312,,
farmers market,"Mar 21st, 2023",default-farmersmarket-4-3.jpg,311164,Williamston Farmers' Market,,,williamston.farmers.market@gmail.com,517-719-6193,http://new.williamston-mi.us/OurCommunity/FarmersMarket.aspx,,,,,,,"161 E. Grand River, Williamston, MI, 48895",Michigan,Williamston,161 E. Grand River,48895,-84.35674751057917,42.707294949960826,,
farmers market,"Mar 21st, 2023",default-farmersmarket-4-3.jpg,311165,YMCA Farmers' Market,,,svanderzanden@grymca.org,616-855-9680,,https://www.facebook.com/YMCA-Farmers-Market-145014825569789/timeline/?ref=hl,,,,,,"475 Lake Michigan Dr. NW, Grand Rapids, MI, 49504",Michigan,Grand Rapids,475 Lake Michigan Dr. NW,49504,-85.68061137100432,42.96613131500639,,
farmers market,"Mar 25th, 2021",default-farmersmarket-4-3.jpg,300327,Historic Farmers Market of Lapeer LLC,,Denise Becker,kdjckk@hotmail.com,8108828032,www.historicfarmersmarketoflapeer.com,Historic Farmers Market of Lapeer,,,,,,"272 N. Court St. , Lapeer , Michigan 48446",Michigan,Lapeer,272 N. Court St.,48446,-83.309076,43.053482,May to October,"Fresh fruits, Fresh vegetables, Baked goods, Bedding plants, Canned or preserved fruits/vegetables, Coffee/tea, Crafts/woodworking items, Cut flowers, Dry beans, Eggs, Fresh/dried herbs, Honey, Maple products, Prepared foods, Soap/body care products, Wild harvested forest products"
farmers market,"Mar 25th, 2021",default-farmersmarket-4-3.jpg,301478,City of St. Clair Shores Farmers Market,,Henry Bowman,bowmanh@scsmi.net,5864982401,www.scsmi.net,https://www.facebook.com/StClair-Shores-Farmers-Market-434292750726325,,,,,,"24800 Jeffereson, St. Clair Shores, Mi, Michigan 48080",Michigan,"St. Clair Shores, Mi",24800 Jeffereson,48080,-82.932268,42.6958071,May to October,"Fresh fruits, Fresh vegetables, Baked goods, Crafts/woodworking items, Honey, Mushrooms, Prepared foods, Soap/body care products"
farmers market,"Mar 28th, 2020",default-farmersmarket-4-3.jpg,301068,Menominee Historic Downtown Farmers Market  Association,,Lucy Pier,menomineehdfarmersmarket@gmail.com,906-863-8718,http://menomineefarmersmarket.com/,https://www.facebook.com/MenomineeFarmersMarket/,,,,,,"800 1st Street & 8th Avenue, Menominee, Michigan 49858",Michigan,Menominee,800 1st Street & 8th Avenue,49858,-87.603938,45.105926,June to September,"Fresh fruits, Fresh vegetables, Baked goods, Eggs, Fish/seafood, Fresh/dried herbs, Honey, Maple products, Soap/body care products"
farmers market,"May 17th, 2022",farmersmarket_300797_11576_20220518013454.png,300797,Lincoln Park Farmers Market,"Lincoln Park Farmers Market is a seasonal market focusing on locally grown fruits and vegetables, locally made specialty foods as well as and locally made arts and crafts.  Our mission is, To educate the community about healthy, locally grown food, and promoting good health. Our objective is Michigan grown/Michigan made by the farmer, vendor, and crafter.  With the emphasis on organic foods, the advantage of a local farmer market is that one can talk to the farmer who raised the foods that they are to take home and eat.",,lpfm@inbox.com,313-427-0443,https://www.lpfarmersmarket.org/,https://www.facebook.com/Lincoln-Park-Farmers-Market-208206362528258/,https://twitter.com/LPFarmersMarket,https://www.instagram.com/lpfarmersmarket/,https://www.pinterest.com/LPmarket/,,,"1661 Fort Street, Lincoln Park, Michigan 48146, USA",Michigan,Lincoln Park,1661 Fort Street,48146,-83.175189,42.25165700000001,June to October,"Fresh fruits, Fresh vegetables, Baked goods, Bedding plants, Canned or preserved fruits/vegetables, Coffee/tea, Crafts/woodworking items, Cut flowers, Eggs, Fresh/dried herbs, Honey, Prepared foods, Soap/body care products"
farmers market,"May 2nd, 2022",farmersmarket_300883_11511_20220502174100.png,300883,Dimondale Farmers' Market,,Denise Parisian,dimondalefarmersmarket@gmail.com,5176460230,villageofdimondale.org,http://facebook.com/dimondalefarmersmarket,,,,,,"136 N Bridge St, Dimondale, Michigan 48821",Michigan,Dimondale,136 N Bridge St,48821,-84.647388,42.646201,June to September,"Fresh fruits, Fresh vegetables, Baked goods, Canned or preserved fruits/vegetables, Crafts/woodworking items, Cut flowers, Dairy products., Dry beans, Eggs, Fish/seafood, Fresh/dried herbs, Honey, Juices/non-alcoholic ciders, Maple products, Poultry/fowl meat and products, Prepared foods, Red/other non-poultry meat and products, Soap/body care products"
farmers market,"Nov 30th, 2020",default-farmersmarket-4-3.jpg,301356,Westland Farmers & Artisan Market,,Gretchen Heinicke,westlandchamber@yahoo.com,734-326-7222,http://www.westlandfarmersmarket.com/,https://www.facebook.com/WestlandFarmersMarket,,,,,,"1901 N. Carlson, Westland, Michigan 48185",Michigan,Westland,1901 N. Carlson,48185,-83.380778,42.319173,May to October,"Fresh fruits, Fresh vegetables, Baked goods, Canned or preserved fruits/vegetables, Crafts/woodworking items, Eggs, Honey, Maple products, Soap/body care products"
farmers market,"Sep 10th, 2020",default-farmersmarket-4-3.jpg,300127,Ionia Farmers' Market,,Linda Curtis,lcurtis@ci.ionia.mi.us,616-527-1420,www.cityofionia.org,,,,,,,"South Steele Street and Adams Street, Ionia, Michigan 48846",Michigan,Ionia,South Steele Street and Adams Street,48846,-85.067726,42.9814841,June to October,Soap/body care products
farmers market,"Sep 10th, 2022",farmersmarket_301763_14311_20220910185642.png,301763,Dexter Winter Farmers Market,"We are dedicated to supporting local growers and producers by providing Dexter and the surrounding communities with a friendly and welcoming farmers market, which meets the demands of local residents for purchasing local, fresh food and merchandise.",Anne Young,dwfmarket@gmail.com,7348343229,https://www.dextermarket.com,https://www.facebook.com/dextermarket,https://twitter.com/dextermarket,,,,,"7643 Huron River Drive, Dexter, Michigan 48130, USA",Michigan,Dexter,7643 Huron River Drive,48130,-83.8842035,42.3452962,to 04/15/2023,"Fresh fruits, Fresh vegetables, Baked goods, Canned or preserved fruits/vegetables, Coffee/tea, Crafts/woodworking items, Cut flowers, Dairy products., Eggs, Fish/seafood, Grains/flour, Honey, Maple products, Poultry/fowl meat and products, Prepared foods, Red/other non-poultry meat and products, Soap/body care products"
farmers market,"Sep 11th, 2020",default-farmersmarket-4-3.jpg,300594,Lawrence Farmers Market,,Jan Petersen,petersen@bloomingdalecom.net,2696748730,http://www.lawrencemi.org/lawrence-farmers-market/,https://www.facebook.com/LawrenceFarmersMkt,,,,,,"Lawrence , Michigan 49064",Michigan,Lawrence,,49064,-86.048868,42.219637,July to September,"Fresh fruits, Fresh vegetables, Baked goods, Cut flowers, Eggs, Fresh/dried herbs, Honey, Maple products, Nursery stock, Red/other non-poultry meat and products"
on-farm market,"Apr 11th, 2015",default-onfarmmarket-4-3.jpg,701244,Raven's Roost Farm,,DOUGLAS BEDELL,bedell.doug@gmail.com,2313506448,,https://www.facebook.com/pages/Ravens-Roost-Farm/244514162293833,,,,,,"2398 Vandermark Rd, Bellaire, Michigan 49615",Michigan,Bellaire,2398 Vandermark Rd,49615,-85.241874,44.9987500,,
on-farm market,"Apr 1st, 2015",default-onfarmmarket-4-3.jpg,700926,Hickory Corners Homestead,,Layne Hagerman,hickorycornershomestead@gmail.com,269-615-1542,www.hickorycornershomestead.com,www.facebook.com/HickoryCornersHomestead,,,,,,"12751 E Baseline Rd, Hickory Corners , Michigan 49060",Michigan,Hickory Corners,12751 E Baseline Rd,49060,-85.382163,42.419918,,
on-farm market,"Apr 22nd, 2022",onfarmmarket_700137_13898_20220422133913.png,700137,GCC Organics,A real down to earth experience. We practice truth in food as we don\'t spin what we do.,Delbert Garrett,info@vraefoods.com,989-718-8723,https://vraefoods.com,https://www.facebook.com/vraefoods,,,,,,"431 S Littlefield Rd, Mount Pleasant, Michigan 48858",Michigan,Mount Pleasant,431 S Littlefield Rd,48858,-84.948278,43.633948,,
on-farm market,"Apr 27th, 2016",default-onfarmmarket-4-3.jpg,701288,Galloway's Red Clay Ranch,,Joanne Galloway,galloway.joanne@gmail.com,906 322 7501,,Galloway\'s Red Clay Ranch,,,,,,"5696 W Townline Rd, Pickford, Michigan 49774",Michigan,Pickford,5696 W Townline Rd,49774,-84.481615,46.1582650,,
on-farm market,"Apr 29th, 2016",default-onfarmmarket-4-3.jpg,701334,Peaceful Produce,,Amy Ball,peacefulproducefarm@gmail.com,2314361221,,Peaceful Produce,,,,,,"3565 Elder Rd., Carp Lake, Michigan 49718",Michigan,Carp Lake,3565 Elder Rd.,49718,-84.843103,45.709447,,
on-farm market,"Aug 12th, 2014",default-onfarmmarket-4-3.jpg,700603,Papaxe2x80x99s Pumpkin Patch,,william miller jr.,papaspumpkinpatch@yahoo.com,989-773-4345,papaspumpkinpatch@yahoo.com,,,,,,,"3909 S Summerton Road, Mt. Pleasant, Michigan 48858",Michigan,Mt. Pleasant,3909 S Summerton Road,48858,-84.719181,43.571437,,
on-farm market,"Aug 13th, 2014",default-onfarmmarket-4-3.jpg,700062,Piggott's Farm Market & Bakery,,George McManus IV,info@piggottsfarmmarket.com,269-876-9269,www.piggottsfarmmarket.com,https://www.facebook.com/piggottsfarmmarketbakery,https://twitter.com/piggottsproduce,,,,,"3824 E. Napier Ave., Benton Harbor, Michigan 49022",Michigan,Benton Harbor,3824 E. Napier Ave.,49022,-86.365637,42.0906298,,
on-farm market,"Aug 13th, 2014",default-onfarmmarket-4-3.jpg,700164,Fresh Whole Rabbit,,Catalaya\'s Rabbitry,catalayarabbitry@yahoo.com,989-400-2407,www.catalayarabbitry.weebly.com,https://www.facebook.com/catalayasrabbitry,,,,,,"Friesian Lane, Lakeview, Michigan 48850",Michigan,Lakeview,Friesian Lane,48850,-85.253005,43.349196,,
on-farm market,"Aug 15th, 2014",default-onfarmmarket-4-3.jpg,700646,Nye's Apple Barn and Farms,,Angela Thompson,nyesapplebarn@hotmail.com,(269) 429-0596,www.nyesapplebarn.com,www.facebook.com/NyesAppleBarn,,,,,,"3151 Niles Avenue (M63), Saint Joseph, Michigan 49085",Michigan,Saint Joseph,3151 Niles Avenue (M63),49085,-86.459915,42.060280,,
on-farm market,"Aug 15th, 2014",default-onfarmmarket-4-3.jpg,700783,Friends Farm,,Mark Mortenson,friendsministry@yahoo.com,231-839-8816,friendsministry.net,https://www.facebook.com/FriendsMinistryLC,,,,,,"3728 S. Morey Road, Lake City, Michigan 49651",Michigan,Lake City,3728 S. Morey Road,49651,-85.215038,44.2847493,,
on-farm market,"Aug 15th, 2014",default-onfarmmarket-4-3.jpg,700843,Tomac Pumpkins and Farm Market,,Pennie Tomac,Tomacfarms@juno.com,989-845-2792,,,,,,,,"19758 S Corunna Road, Chesaning, Michigan 48616",Michigan,Chesaning,19758 S Corunna Road,48616,-84.114169,43.1322360,,
on-farm market,"Aug 18th, 2014",default-onfarmmarket-4-3.jpg,700541,Dutch Farm Market,,Barb Raak,braak@shps.org,269-806-8154,,https://www.facebook.com/pages/Dutch-Farm-Market/270598596340448,,,,,,"6967 109th Avenue, South Haven, Michigan 49090",Michigan,South Haven,6967 109th Avenue,49090,-86.224747,42.4838629,,
on-farm market,"Aug 19th, 2014",default-onfarmmarket-4-3.jpg,700424,Woodland Enterprises Inc.,,,woodlandberries@gmail.com,616-875-8853,www.woodlandberries.com,,,,,,,"10821 Pierce Street, Zeeland, Michigan 49464",Michigan,Zeeland,10821 Pierce Street,49464,-86.048985,42.957257,,
on-farm market,"Aug 21st, 2014",default-onfarmmarket-4-3.jpg,700751,Mitchell Farm,,Glen Mitchell,hollytaxcenter@yahoo.com,248-935-8328,www.mitchellfarm.biz,,,,,,,"3404 Mitchell Road, Holly, Michigan 48442",Michigan,Holly,3404 Mitchell Road,48442,-83.630219,42.849441,,
on-farm market,"Aug 23rd, 2014",default-onfarmmarket-4-3.jpg,700904,Windswept Farm,,Jeanne Weaver,weaver3@tds.net,517-468-2246,,,,,,,,"3649 E Sherwood Rd, Williamston, Michigan 48895",Michigan,Williamston,3649 E Sherwood Rd,48895,-84.226917,42.7171210,,
on-farm market,"Aug 24th, 2014",default-onfarmmarket-4-3.jpg,700916,Brandywine Farm Nursery,,Kimberly Pearson,brandywinefarm@gmail.com,5863377480,brandywinefarmnursery.com,https://www.facebook.com/BrandywineFarmNursery,,,,,http://www.brandywinefarmnursery.blogspot.com/,"5885 Lake George Rd, Dryden, Michigan 48428",Michigan,Dryden,5885 Lake George Rd,48428,-83.181137,42.890544,,
on-farm market,"Aug 25th, 2014",default-onfarmmarket-4-3.jpg,700929,tanstaafl farmstead,,john reuter,tanstaafl_farmstead@yahoo.com,269 7797985,,,,,,,,"39227 fisk lake road, paw apw, Michigan 49079",Michigan,paw apw,39227 fisk lake road,49079,-86.018937,42.2512872,,
on-farm market,"Aug 25th, 2014",default-onfarmmarket-4-3.jpg,700933,Whitfield's Raw Honey,,Bryan Whitfield,bryanaw40@aol.com,248-535-8967,wwww.simplyrawhoney.com,,,,,,,"9235 Windemere Court, Clarkston, Michigan 48348",Michigan,Clarkston,9235 Windemere Court,48348,-83.472444,42.7733080,,
on-farm market,"Aug 26th, 2014",default-onfarmmarket-4-3.jpg,700560,Shangrila Too,,,santucci.louis@gmail.com,231-499-0106,,,,,,,,"12602 Center Road, Traverse City, Michigan 49686",Michigan,Traverse City,12602 Center Road,49686,-85.515246,44.8701943,,
on-farm market,"Aug 26th, 2014",default-onfarmmarket-4-3.jpg,700692,KlineKrest Certified Organic Produce,,Larry Kline,LarryEKlines@gmail.com,616-902-1587,http://www.klinekrestcertifiedorganicproduce.com/,,,,,,,"1067 Somer Road, Lyons, Michigan 48851",Michigan,Lyons,1067 Somer Road,48851,-84.980334,42.972623,,
on-farm market,"Aug 26th, 2014",default-onfarmmarket-4-3.jpg,700953,Clor's Greenhouse,,Tony Clor,agclor@comcast.net,,,,,,,,,"3000 Brown Lane, Highland, Michigan 48357",Michigan,Highland,3000 Brown Lane,48357,-83.662443,42.661046,,
on-farm market,"Aug 26th, 2021",default-onfarmmarket-4-3.jpg,701611,Genuine Roots Farm,,Genuine Roots Farm,jeff.scott58@me.com,734-846-3833,www.GenuineRootsFarm.com,https://www.facebook.com/genuinerootsfarm,,,,,,"10371 Parshall Rd., Fenton, Michigan 48430",Michigan,Fenton,10371 Parshall Rd.,48430,-83.746991,42.693661,,
on-farm market,"Aug 27th, 2014",default-onfarmmarket-4-3.jpg,700964,Homestead Honey Farm,,Joe,,,,https://www.facebook.com/HomesteadHoneyFarm,,,,,,"175 Olsen Rd, Gwinn , Michigan 49841",Michigan,Gwinn,175 Olsen Rd,49841,-87.398745,46.405359,,
on-farm market,"Aug 28th, 2014",default-onfarmmarket-4-3.jpg,700098,New Mission Organics,,Brian Tennis,brian@newmissionorganics.com,616-403-6880,http://www.newmissionorganics.com/,https://www.facebook.com/MI.Hop.Alliance,https://www.twitter.com/michiganhops,,,,,"5790 N. Omena Rise, Omena, Michigan 49674",Michigan,Omena,5790 N. Omena Rise,49674,-85.600037,45.069524,,
on-farm market,"Aug 28th, 2014",default-onfarmmarket-4-3.jpg,700463,The Extraordinary Berry,,Charles McCallum,Theextraordinaryberry@hotmail.com,269-470-4645,Theextraordinaryberry.com,https://www.facebook.com/pages/The-Extraordinary-Berry/228277483856012,,,,,,"3091 Riverside Road, Benton Harbor, Michigan 49022",Michigan,Benton Harbor,3091 Riverside Road,49022,-86.397710,42.167229,,
on-farm market,"Aug 29th, 2014",default-onfarmmarket-4-3.jpg,700175,Battel's Sugar Bush and Heritage Farm,,Sue Stuever Battel,BattelSyrup@gmail.com,989-872-4794,www.battelsyrup.weebly.com,https://www.facebook.com/battelsyrup,,,,,,"7964 Daus Rd., Cass City, Michigan 48726",Michigan,Cass City,7964 Daus Rd.,48726,-83.118298,43.645862,,
on-farm market,"Aug 29th, 2014",default-onfarmmarket-4-3.jpg,700733,Lewis Farm Market & Petting Farm,,Char,info@LewisFarmMarket.com,231-861-5730,http://lewisfarmmarket.com/,https://www.facebook.com/LewisFarmMarket,,,,,http://lewisfarmmarket.com/category/blog/,"4180 W. M-20 (stony Lake Road), New Era, Michigan 49446",Michigan,New Era,4180 W. M-20 (stony Lake Road),49446,-86.388669,43.558496,,
on-farm market,"Aug 2nd, 2014",default-onfarmmarket-4-3.jpg,700583,Vertical Paradise Farms,,Dan Maslach,questions@vpfarms.com,5863508672,www.vpfarms.com,www.facebook.com/vpfarms,,,,,,"7344 Hammond Ave., Caledonia, Michigan 49316",Michigan,Caledonia,7344 Hammond Ave.,49316,-85.575253,42.8309000,,
on-farm market,"Aug 30th, 2014",default-onfarmmarket-4-3.jpg,700994,Pleasant Hill Farm,,Joan Donaldson,sparrow3337@gmail.com,269-5612850,http://www.pleasanthillblueberryfarm.com/,https://www.facebook.com/pages/Pleasant-Hill-Farm/82478554686?ref=hl,,,,,http://www.joandonaldson.com/blog/,"5859 124th Ave., Fennville, Michigan 49408",Michigan,Fennville,5859 124th Ave.,49408,-86.119885,42.5942229,,
on-farm market,"Aug 4th, 2014",default-onfarmmarket-4-3.jpg,700433,Brookwood Fruit Farm,,Charles Bristol,will_bristol@hotmail.com,810-798-8312,www.brookwoodfruitfarm.com,http://www.facebook.com/pages/Brookwood-Fruit-Farm/109942475759366,,,,,,"7845 Bordman Road, Almont, Michigan 48003",Michigan,Almont,7845 Bordman Road,48003,-83.029178,42.890456,,
on-farm market,"Aug 5th, 2014",default-onfarmmarket-4-3.jpg,700804,FlowerEssence of Blue Barn Farm,,Marlene Ann Epley,floweressence@tds.net,517-468-2343,,https://www.facebook.com/FlowerEssenceLlcAndBlueBarnFarmMarket?ref=hl,,,,,,"4295 Moyer Road, Williamston, Michigan 48895",Michigan,Williamston,4295 Moyer Road,48895,-84.200089,42.7082229,,
on-farm market,"Aug 5th, 2014",default-onfarmmarket-4-3.jpg,700810,deBerry Shack,,Dave Van Farowe,deberriesfarms@gmail.com,616-795-5100,,www.facebook.com/deBerryShack,,,,,,"14475 Quincy Street, Holland, Michigan 49424",Michigan,Holland,14475 Quincy Street,49424,-86.139603,42.8411303,,
on-farm market,"Aug 6th, 2014",default-onfarmmarket-4-3.jpg,700574,Riverbend Farms,,Ryan Morgan,riverbend@i2k.com,269-214-8867,greatberries.net,,,,,,,"44 72nd Street, South Haven, Michigan 49090",Michigan,South Haven,44 72nd Street,49090,-86.246094,42.4254424,,
on-farm market,"Dec 16th, 2014",default-onfarmmarket-4-3.jpg,701181,Klackle Orchards,,Natalie Klackle,apples@klackleorchards.net,616-754-8632,www.klackleorchards.com,www.facebook.com/klackleorchards,www.twitter.com/klackleorchards,,,,www.klackleorchards.com/blog/,"11466 W Carson City Rd., Greenville, Michigan 48838",Michigan,Greenville,11466 W Carson City Rd.,48838,-85.297866,43.177077,,
on-farm market,"Feb 12th, 2015",default-onfarmmarket-4-3.jpg,701209,Honor Box Produce by Crawford Farms,,Joe Crawford,joecrawfordonline@gmail.com,989-284-8251,http://www.MichiganFarmFreshProduce.com,https://www.facebook.com/MichiganFarmMarket,,,,,,", Clare, Michigan 48617",Michigan,Clare,,48617,-84.768971,43.851510,,
on-farm market,"Feb 14th, 2016",default-onfarmmarket-4-3.jpg,701317,"Wasem Fruit Farm, LLC",,Bruce Upston,wasem@wasemfruitfarm.com,7344822342,www.wasemfruitfarm.com,www.facebook.com/pages/Wasem-Fruit-Farm/255034514021,,,,,,"6580 Judd Rd, Milan, Michigan 48160",Michigan,Milan,6580 Judd Rd,48160,-83.626685,42.140496,,
on-farm market,"Feb 19th, 2022",default-onfarmmarket-4-3.jpg,701637,Berry Brothers Retail,,Heidi Keister,heidi@walkerbb.com,269-657-3871,https://www.berrybrothersretail.com/,https://www.facebook.com/Berry-Brothers-Retail-105317065091600,,,,,,"37146 30th Street, Paw Paw, Michigan 49079",Michigan,Paw Paw,37146 30th Street,49079,-85.892177,42.214235,,
on-farm market,"Feb 25th, 2015",default-onfarmmarket-4-3.jpg,701217,Wells Orchards,,,wellsorchards@gmail.com,616 453-3927,www.wellsorchards.com,https://www.facebook.com/pages/Wells-Orchards/122028811170560?ref=ts,,,,,,"O-8993 Kenowa Ave SW, Grand Rapids, Michigan 49534",Michigan,Grand Rapids,O-8993 Kenowa Ave SW,49534,-85.783388,42.932177,,
on-farm market,"Feb 5th, 2015",default-onfarmmarket-4-3.jpg,701205,Maia Organics,,Phyllis Shilling,phyllisjshilling@gmail.com,616 255 5919,,,,,,,,", sidney, Michigan",Michigan,sidney,,,-85.193087,43.257295,,
on-farm market,"Feb 8th, 2021",default-onfarmmarket-4-3.jpg,701581,Peace Tree Parks,,Eric Andrews,info@peacetreeparks.org,3132820135,www.PeaceTreeParks.org,https://www.facebook.com/peacetreeparks/,,,,,,"3409 E Vernor, Detroit, Michigan 48207",Michigan,Detroit,3409 E Vernor,48207,-83.102237,42.383037,,
on-farm market,"Jan 1st, 2015",default-onfarmmarket-4-3.jpg,701185,Goodrich Acres,,R. Darlene Drwal,rddrwal@yahoo.com,810 429-2223,,,,,,,,"8416 Gale Rd, Goodrich, Michigan 48438",Michigan,Goodrich,8416 Gale Rd,48438,-83.534492,42.906654,,
on-farm market,"Jan 28th, 2015",default-onfarmmarket-4-3.jpg,701199,Creswick Farms,,Andrea & Nathan Creswick,contactus@creswickfarms.com,616/837-9226,www.CreswickFarms.com,https://www.facebook.com/CreswickFarms,,,,,,"6500 Rollenhagen Rd, Ravenna, Michigan 49451",Michigan,Ravenna,6500 Rollenhagen Rd,49451,-85.994367,43.134669,,
on-farm market,"Jan 30th, 2017",default-onfarmmarket-4-3.jpg,701385,English Orchards & Family Farm,,Jamess English,teacher99_2000@yahoo.com,989-858-0972,,,,,,,,"302 Thumb Lake Rd, Vanderbilt, Michigan 49795",Michigan,Vanderbilt,302 Thumb Lake Rd,49795,-84.680748,45.186933,,
on-farm market,"Jan 31st, 2017",default-onfarmmarket-4-3.jpg,701387,Salad Central,,Mark Schoonover,bearcats7@sbcglobal.net,6163752693,,Salad Central,,,,,,"4763 Baldwin St, Hudsonville, Michigan 49426",Michigan,Hudsonville,4763 Baldwin St,49426,-85.900775,42.907060,,
on-farm market,"Jan 8th, 2020",default-onfarmmarket-4-3.jpg,701497,Frontier Farms,,Laurie Hunter,michiganfrontierfarms@hotmail.com,970-729-6252,michiganfrontierfarms.com,,,,,,,"2073 S M 65, Whittemore, Michigan 48770",Michigan,Whittemore,2073 S M 65,48770,-83.802520,44.216309,,
on-farm market,"Jul 12th, 2015",default-onfarmmarket-4-3.jpg,701283,Beery Farms of Michigan LLC,,Maynard Beery,beeryfarm@aol.com,517-676-4686,,,,,,,,"849 N. Aurelius Road, Mason, Michigan 48854",Michigan,Mason,849 N. Aurelius Road,48854,-84.526718,42.6017140,,
on-farm market,"Jul 26th, 2014",default-onfarmmarket-4-3.jpg,700334,K's Acres - A North Sand Lake Fruit and Berry Farm,,Tom,Hllsdltom@aol.com,517-437-7054,K\'s Acres@facebook.com,https://www.facebook.com/pages/Ks-Acres-Orchard-A-North-Sand-lake-Fruit-and-Berry-farm/147653817831,,,,,,"4680 Fitzpatrick Rd, Hillsdale, Michigan 49242",Michigan,Hillsdale,4680 Fitzpatrick Rd,49242,-84.701342,41.944006,,
on-farm market,"Jul 26th, 2014",default-onfarmmarket-4-3.jpg,700378,Coveyou Scenic Farm Market,,David Coveyou,coveyoufarm@gmail.com,231-348-1278,coveyouscenicfarm.com,https://www.facebook.com/pages/Coveyou-Scenic-Farm-Market/362874771540,,,,,,"4160 US131 South, Petoskey, Michigan 49770",Michigan,Petoskey,4160 US131 South,49770,-84.966729,45.317777,,
on-farm market,"Jul 26th, 2014",default-onfarmmarket-4-3.jpg,700498,Black Star Farms,,Donald Coe,dcoe@blackstarfarms.com,231-944-1297q,www.blackstarfarms.com,,,,,,,"10844 E Revold Road, Suttons Bay, Michigan 49682",Michigan,Suttons Bay,10844 E Revold Road,49682,-85.637741,44.940501,,
on-farm market,"Jul 27th, 2014",default-onfarmmarket-4-3.jpg,700039,Shady Side Farm,,Mike Bronkema,shadysidefarmmichigan@gmail.com,616-786-3827,http://www.shadysidefarm.com,https://www.facebook.com/shadysidefarm,,,,,http://www.shadysidefarm.blogspot.com,"13275 Blair Street, Holland, Michigan 49424",Michigan,Holland,13275 Blair Street,49424,-86.111787,42.892902,,
on-farm market,"Jul 27th, 2014",default-onfarmmarket-4-3.jpg,700064,Phillips Orchards & Cider Mill,,Brian Phillips,brian.phillips@phillipsorchards.com,989-682-4430,www.phillipsorchards.com,https://www.facebook.com/PhillipsOrchards,https://twitter.com/phillipsorchard,,,,,"1174 W Gratiot County Line Rd, Saint Johns, Michigan 48879",Michigan,Saint Johns,1174 W Gratiot County Line Rd,48879,-84.622316,43.117405,,
on-farm market,"Jul 27th, 2014",default-onfarmmarket-4-3.jpg,700088,Origins Hobby Farm,,Kathleen Nestell,Kathy@originshobbyfarm.com,616-717-8651,Www.orriginshobbyfarm.com,https://www.facebook.com/originshobbyfarm,https://www.twitter.com/originshf,,,,www.originshobbyfarm.com/blog.html,"6110 Robertson Rd, Middleville, Michigan 49333",Michigan,Middleville,6110 Robertson Rd,49333,-85.427445,42.7417363,,
on-farm market,"Jul 27th, 2014",default-onfarmmarket-4-3.jpg,700136,Good Land Growers,,Gail Rivera,glg@goodlandgrowers.com,616-947-0038,Http://www.goodlandgrowers.com,https://www.facebook.com/GoodLandGrowers,,,,,,"11901 South Greenville Rd, Greenville, Michigan 48838",Michigan,Greenville,11901 South Greenville Rd,48838,-85.263034,43.1209267,,
on-farm market,"Jul 27th, 2014",default-onfarmmarket-4-3.jpg,700362,Maria & David Huff Farm Products,,Maria Huff,farm_fresh_produced@yahoo.com,2488429252,,https://m.facebook.com/profile.php?id=222802057812310&ref=bookmark,,,,,,"1460 W Wardlow Rd, Highland, Michigan 48357",Michigan,Highland,1460 W Wardlow Rd,48357,-83.635653,42.6555660,,
on-farm market,"Jul 27th, 2014",default-onfarmmarket-4-3.jpg,700364,Evergreen Lane Farm & Creamery,,Catherine Halinski,evergreenlanefarm@gmail.com,269-543-9900,www.evergreenlanefarm.com,www.Facebook.com/EvergreenLaneArtisanCheese,,,,,,"1824 66th St., Fennville, Michigan 49408",Michigan,Fennville,1824 66th St.,49408,-86.189254,42.5511441,,
on-farm market,"Jul 27th, 2014",default-onfarmmarket-4-3.jpg,700455,Adams Farms,,Bill Adams,toquin1@myway.com,269 214 0873,www.facebook.com/Adams.Blueberry.Farms,https://www.facebook.com/Adams.Blueberry.Farms,,,,,,"69676 Cr376 (40th Ave), Hartford, Michigan 49057",Michigan,Hartford,69676 Cr376 (40th Ave),49057,-86.220746,42.257492,,
on-farm market,"Jul 27th, 2014",default-onfarmmarket-4-3.jpg,700599,Peacock Road Family Farm,,Ed and Diana Carpenter,info@peacockrff.com,517-651-9193,www.peacockrff.com,www.facebook.com/peacockroadtreefarm,,,,,,"11854 Peacock Road, Laingsburg, Michigan 48848",Michigan,Laingsburg,11854 Peacock Road,48848,-84.369377,42.844666,,
on-farm market,"Jul 27th, 2014",default-onfarmmarket-4-3.jpg,700718,Ives Organics,,Corey Ives,ivesorganics@gmail.com,2484698347,,www.Facebook.com/IvesOrganics,,,,,,"2060 Bladwin Road, Lapeer, Michigan 48446",Michigan,Lapeer,2060 Bladwin Road,48446,-83.340607,42.997927,,
on-farm market,"Jul 28th, 2014",default-onfarmmarket-4-3.jpg,700003,Witamy Farm,,Xania Payne,benandxania@witamyfarm.com,734-734-0611,www.witamyfarm.com,https://www.facebook.com/witamy.farm,,,,,,"3230 Portage Rd N, Grass Lake, Michigan 49240",Michigan,Grass Lake,3230 Portage Rd N,49240,-84.275871,42.282429,,
on-farm market,"Jul 28th, 2014",default-onfarmmarket-4-3.jpg,700072,Schwalliers Country Basket,,Justin Kolarik,apples@schwalliers.com,616-785-9896,,https://www.facebook.com/pages/Schwalliers-Country-Basket/57481257124,,,,,,"1185 9 Mile Rd. NW, Sparta, Michigan 49345",Michigan,Sparta,1185 9 Mile Rd. NW,49345,-85.697411,43.101815,,
on-farm market,"Jul 28th, 2014",default-onfarmmarket-4-3.jpg,700218,Swallowtail Farm,,Anne Rauscher,swallowtailfarm@gmail.com,517-980-6634,http://www.swallowtailfarm.net/,https://www.facebook.com/pages/Swallowtail-Farm/299185864935?ref_type=bookmark,,,,,http://swallowtailfarm.blogspot.com/,"1633 Hagadorn Rd, Mason, Michigan 48854",Michigan,Mason,1633 Hagadorn Rd,48854,-84.458512,42.6305369,,
on-farm market,"Jul 28th, 2014",default-onfarmmarket-4-3.jpg,700611,Satterlee Small Fruits,,David Satterlee,oliversam@frontier.com,231-861-2755,,,,,,,,"3056 West Buchanan, Shelby, Michigan 49455",Michigan,Shelby,3056 West Buchanan,49455,-86.354240,43.6310020,,
on-farm market,"Jul 28th, 2014",default-onfarmmarket-4-3.jpg,700701,Kastanu Farm,,artur losse,kastanufarm@aol.com,231 264 6055,kastanufarm@aol.com,,,,,,,"4781 Powell Road, Kewadin, Michigan 49648",Michigan,Kewadin,4781 Powell Road,49648,-85.332570,44.961640,,
on-farm market,"Jul 30th, 2014",default-onfarmmarket-4-3.jpg,700000,"Zatkovich Pastures, LLC",,Daniel Zatkovich,dan@zatkovichpastures.com,517-851-4352,http://www.zatkovichpastures.com,https://www.facebook.com/ZatkovichPasturesLLC,,,,,,"17050 Kane Rd, Stockbridge, Michigan 49285",Michigan,Stockbridge,17050 Kane Rd,49285,-84.143136,42.4932460,,
on-farm market,"Jul 30th, 2014",default-onfarmmarket-4-3.jpg,700067,Brass Ring Beef,,David Parks,dparks@parkscompanies.biz,248-765-7844,www.parksshowcattle.com,https://www.facebook.com/brassringbeef,,,,,,"2883 Wilder Road, Metamora, Michigan 48083",Michigan,Metamora,2883 Wilder Road,48083,-83.241356,42.9761288,,
on-farm market,"Jul 30th, 2014",default-onfarmmarket-4-3.jpg,700118,Kaminski Farms Meats,,Linda Kaminski,dlkfarm@sbcglobal.net,269-756-7457,www.kaminskifarmsmeats.com,https://www.facebook.com/KaminskiFarmsMeatsKaminski,,,,,,"16682 Schwark Rd, Three Oaks, Michigan 49128",Michigan,Three Oaks,16682 Schwark Rd,49128,-86.629591,41.8138326,,
on-farm market,"Jul 30th, 2014",default-onfarmmarket-4-3.jpg,700226,Spartan Country Meats,,Christine Miller,spartancountrymeats@gmail.com,517-375-6337,www.spartancountrymeats.com,https://www.facebook.com/pages/Spartan-Country-Meats/213932578620907?sk=timeline&ref=page_internal,https://www.twitter.com/spartancntrymts,,,,,"4039 Dennis Rd., Webberville, Michigan 48892",Michigan,Webberville,4039 Dennis Rd.,48892,-84.201761,42.616054,,
on-farm market,"Jul 30th, 2014",default-onfarmmarket-4-3.jpg,700345,Graham's Organics,,James Graham,grahamsorganics@att.net,989-433-5900,grahamsorganics.com,,,,,,,"3654 E. Weidman Rd., Rosebush, Michigan 48878",Michigan,Rosebush,3654 E. Weidman Rd.,48878,-84.773415,43.683767,,
on-farm market,"Jul 30th, 2014",default-onfarmmarket-4-3.jpg,700556,Michigan Flower Farm,,Renee\' Walter,service@michiganflowerfarm.com,248-390-7266,http://michiganflowerfarm.com/flowers/index.php?main_page=,,,,,,,"22460 Garfield Road, Northville, Michigan 48167",Michigan,Northville,22460 Garfield Road,48167,-83.531816,42.4511380,,
on-farm market,"Jul 30th, 2014",default-onfarmmarket-4-3.jpg,700577,Oceana Winery & Vineyard,,Renae Goralski,Renae@OceanaWinery.com,231-343-0038,www.oceanawinery.com,https://www.facebook.com/pages/Oceana-Winery-Vineyard/180943698619727,,,,,,"4980 South 52nd Avenue, New Era, Michigan 49446",Michigan,New Era,4980 South 52nd Avenue,49446,-86.427501,43.5553953,,
on-farm market,"Jul 30th, 2014",default-onfarmmarket-4-3.jpg,700669,Brenskes Blueberries,,,mbrenske@yahoo.com,989-928-7887 / 989-2,,https://www.facebook.com/pages/Brenskes-Blueberry-Farm/386802954774918?sk=timeline,,,,,,"17505 Roosevelt Rd, Hemlock, Michigan 48626",Michigan,Hemlock,17505 Roosevelt Rd,48626,-84.259970,43.361975,,
on-farm market,"Jul 30th, 2014",default-onfarmmarket-4-3.jpg,700767,Westview Farm,,,gwestview@aol.com,269-668-3603,,,,,,,,"60636 County Road 652, Mattawan, Michigan 49071",Michigan,Mattawan,60636 County Road 652,49071,-85.784927,42.198224,,
on-farm market,"Jul 31st, 2014",default-onfarmmarket-4-3.jpg,700020,"Lavender Hill Farm of Niles, MI LLC",,Martha Wilczynski,info@thelavenderhill.com,269-684-0123,www.thelavenderhill.com,https://www.facebook.com/thelavenderhill,,,,,,"1219 Morris Dr. (lower level, rear), Niles, Michigan 49120",Michigan,Niles,"1219 Morris Dr. (lower level, rear)",49120,-86.301255,41.839746,,
on-farm market,"Jul 31st, 2014",default-onfarmmarket-4-3.jpg,700785,Frank Farms,,Joy Moore,farmgirljoy@hotmail.com,269-461-4125,www.frankfarms.com,https://www.facebook.com/pages/Frank-Farms/321419985624,,,,,,"8249 Deans Hill Road, Berrien Center, Michigan 49102",Michigan,Berrien Center,8249 Deans Hill Road,49102,-86.258689,41.957279,,
on-farm market,"Jul 5th, 2016",default-onfarmmarket-4-3.jpg,701224,Michigan Garlic Farm,,Les & Donna Abel,abelsgarlic@gmail.com,810-923-7604,www.michigangarlicfarm.com,michigan garlic,,,,,,"1048 Sarah Dr., Pinckney, Michigan 48169",Michigan,Pinckney,1048 Sarah Dr.,48169,-83.920852,42.4257150,,
on-farm market,"Jun 15th, 2017",default-onfarmmarket-4-3.jpg,701410,Fruit Acres Farm Market & U-Pick,,Annette Bjorge,fruitacres@iserv.net,269-468-3668,fruitacresfarms.com,https://www.facebook.com/fruitacres/,,,,,,"3452 Friday Rd., Coloma, Michigan 49038",Michigan,Coloma,3452 Friday Rd.,49038,-86.306406,42.1744010,,
on-farm market,"Jun 22nd, 2021",default-onfarmmarket-4-3.jpg,701603,Frontiere Farm House,,Nicole Goetz,frontierefarmhouse@gmail.com,2698306508,frontierefarm.house,facebook.com/frontierefarmhouse,,,,,frontierefarm.house,"11211 22 Mile Rd, Marshall, Michigan 49068",Michigan,Marshall,11211 22 Mile Rd,49068,-84.869149,42.234523,,
on-farm market,"Mar 13th, 2015",default-onfarmmarket-4-3.jpg,700354,Fruit Ridge Hayrides LLC,,Nancy Briggs,fruitridgehayrides@msn.com,616-887-5052,www.fruitridgehayrides.com,https://www.facebook.com/fruitridge.hayrides,,,,,,"11966 Fruit Ridge Ave., Kent City, Michigan 49330",Michigan,Kent City,11966 Fruit Ridge Ave.,49330,-85.769231,43.183267,,
on-farm market,"Mar 19th, 2015",default-onfarmmarket-4-3.jpg,700268,Destiny Farm- FarmStand,,Joni Lickey,Mlickey105@aol.com,248-789-5384,,,,,,,,"13078 Windy Hollow, Brighton Township, Michigan 48380",Michigan,Brighton Township,13078 Windy Hollow,48380,-83.691015,42.533793,,
on-farm market,"Mar 23rd, 2015",default-onfarmmarket-4-3.jpg,700015,Two Sparrows Farm LLC,,Daniel and Whitney Belprez,info@twosparrowsfarm.com,517-214-7447,https://twosparrowsfarm.wordpress.com/,https://www.facebook.com/TwoSparrowsFarm,,,,,,"9436 Peck Lake Rd., Lowell, Michigan 49331",Michigan,Lowell,9436 Peck Lake Rd.,49331,-85.261964,42.900684,,
on-farm market,"Mar 23rd, 2015",default-onfarmmarket-4-3.jpg,700549,Blueberry Lane Farms,,Alicia Cummings,blueberrylanefarms@hotmail.com,810-793-4590,www.blueberrylanefarms.com,Blueberry Lane Farms,,,,,,"13240 Blueberry Lane, Otter Lake, Michigan 48464",Michigan,Otter Lake,13240 Blueberry Lane,48464,-83.470335,43.1983610,,
on-farm market,"Mar 23rd, 2015",default-onfarmmarket-4-3.jpg,700825,Immerfrost Farm,,David Eagleton,immerfrost.farm@gmail.com,9207868088,ImmerfrostFarm.com,http://goo.gl/qlvwg,https://www.twitter.com/ImmerfrostFarm,,,,,"N8536 Pelkey Rd K 3, Stephenson, Michigan 49887",Michigan,Stephenson,N8536 Pelkey Rd K 3,49887,-87.547894,45.421889,,
on-farm market,"Mar 28th, 2015",default-onfarmmarket-4-3.jpg,700774,Green Oak Farmers and Community Market,,Joe Otis,greenoakmarket@gmail.com,313-590-1960,www.facebook.com/GreenOakMarket,www.facebook.com/GreenOakMarket,,,,,,"11299 Grand River Avenue, Brighton, Michigan 48116",Michigan,Brighton,11299 Grand River Avenue,48116,-83.727164,42.5159990,,
on-farm market,"Mar 8th, 2017",default-onfarmmarket-4-3.jpg,701395,Grange Fruit Farm,,Robert Versluis,rbv97@aol.com,616-862-5408,grangefruit.com,Grange Fruit Farm,,,,,,"10724 Grange Ave NE, Rockford, Michigan 49341",Michigan,Rockford,10724 Grange Ave NE,49341,-85.625363,43.159966,,
on-farm market,"May 18th, 2015",default-onfarmmarket-4-3.jpg,701260,Peckham Farms,,David Allen,dallen@peckham.org,5173164102,http://www.peckham.org/Business-Operations/Peckham-Farms.aspx/,https://www.facebook.com/Peckham.Farms,,,,,,"5408 W. Grand River Rd., Lansing, Michigan 48906",Michigan,Lansing,5408 W. Grand River Rd.,48906,-84.628209,42.777257,,
on-farm market,"May 24th, 2016",default-onfarmmarket-4-3.jpg,701338,"Kitipi Farm, llc",,Erin Swystun Kitipi,kitipifarm@gmail.com,269.491.9232,,"Kitipi Farm, llc",,,,,,"130 Hastings Ct, Bangor , Michigan 49013",Michigan,Bangor,130 Hastings Ct,49013,-86.106671,42.321930,,
on-farm market,"May 2nd, 2017",default-onfarmmarket-4-3.jpg,701406,Speaker Lone Oak Orchard,,Darlene Dambacher,speakerorchard@frontier.com,810 387-21210,speakerorchard.com,Speaker orchard,,,,,,"7353 Brockway Rd., Melvin, Michigan 48454",Michigan,Melvin,7353 Brockway Rd.,48454,-82.801607,43.207260,,
on-farm market,"Nov 14th, 2014",default-onfarmmarket-4-3.jpg,701170,L& L Bull,,L&L Bull-  Lynn Bull,applemom7@yahoo.com,616 675-4288,llbull,L&LBull,,,,,,"16530 Hall Rd, Casnovia, Michigan 49318",Michigan,Casnovia,16530 Hall Rd,49318,-85.836698,43.2494138,,
on-farm market,"Nov 19th, 2014",default-onfarmmarket-4-3.jpg,701172,Hanulcik Farm Market,,Carol Hanulcik,hanulcikfarm@gmail.com,616-527-3630,www.farm-grown.com,,,,,,,"1425 N. State Rd. (M-66) at the corner of Dildine, Ionia, Michigan 48846",Michigan,Ionia,1425 N. State Rd. (M-66) at the corner of Dildine,48846,-85.075274,43.008938,,
on-farm market,"Oct 16th, 2014",default-onfarmmarket-4-3.jpg,701142,"Happy Buddha Farm, LLC",,Happy Buddha Farm,braman.marty@gmail.com,616-460-6825,www.happybuddhafarm.com,facebook.com/happybuddhafarm,,,,,,"10423 Vergennes St, Lowell, Michigan 49331",Michigan,Lowell,10423 Vergennes St,49331,-85.410060,42.958307,,
on-farm market,"Oct 18th, 2014",default-onfarmmarket-4-3.jpg,701145,Coon's Berry Farm,,Jerry and Yulia Coon,coonsberryfarm@hotmail.com,989-948-0773,www.coonsberryfarm.com,,,,,,,"2724 N Lewis Rd, Coleman, Michigan 48618",Michigan,Coleman,2724 N Lewis Rd,48618,-84.566845,43.690128,,
on-farm market,"Oct 1st, 2014",default-onfarmmarket-4-3.jpg,700760,Christofferson Farms,,carole christofferson,hattrickred@gmail.com,231-845-5831,,,,,,,,"3441 South Morton Road, Ludington, Michigan 49431",Michigan,Ludington,3441 South Morton Road,49431,-86.358937,43.891499,,
on-farm market,"Sep 10th, 2014",default-onfarmmarket-4-3.jpg,700376,Greener Grass Farms,,Dan Marsh,dan@marshbrothersonline.com,517-425-7049,www.greenergrassfarms.com,,,,,,,"9800 Youngs Rd., Quincy, Michigan 49082",Michigan,Quincy,9800 Youngs Rd.,49082,-84.804553,41.9123800,,
on-farm market,"Sep 11th, 2014",default-onfarmmarket-4-3.jpg,701055,The Blue Barn,,Andrew Smith,ads26andrew@gmail.com,269-781-4523,http://www.thebluebarninmarshall.com/,,,,,,,"16147 US HWY 27 N, Marshall, Michigan 49068",Michigan,Marshall,16147 US HWY 27 N,49068,-84.964657,42.307229,,
on-farm market,"Sep 12th, 2014",default-onfarmmarket-4-3.jpg,701058,S&C Nelson Farm,,Steve or Caton Nelson,nelsons7@msu.edu,9062655684,,,,,,,,"301 Nelson Road, Iron River, Michigan 49935",Michigan,Iron River,301 Nelson Road,49935,-88.533402,46.0944389,,
on-farm market,"Sep 16th, 2014",default-onfarmmarket-4-3.jpg,700635,A.W. Overhiser Orchards,,Allan Overhiser,awo@i2k.com,616-836-3298,www.overhiserorchards.com,www.facebook.com/OverhiserOrchards,,,,,,"6405 109th Avenue, South Haven, Michigan 49090",Michigan,South Haven,6405 109th Avenue,49090,-86.169217,42.483804,,
on-farm market,"Sep 18th, 2014",default-onfarmmarket-4-3.jpg,700609,Orchard Beach Farm,,Philip Muir,orchardbeachfarm@dmcibb.net,517-639-4609,www.farmermaps.com,,,,,,,"130 Orchard Trail, Quincy, Michigan 49082",Michigan,Quincy,130 Orchard Trail,49082,-84.912234,41.890472,,
on-farm market,"Sep 3rd, 2014",default-onfarmmarket-4-3.jpg,701014,BP Farms,,Bill Picken,bpfarmsllc@gmail.com,734-529-2032,,http://www.facebook.com/BPFarmsLLC/,,,,,,"6300 Rea Rd, Dundee, Michigan 48131",Michigan,Dundee,6300 Rea Rd,48131,-83.722228,41.986419,,
on-farm market,"Sep 6th, 2017",default-onfarmmarket-4-3.jpg,701428,Swoish Farms,,Gary Swoish,swoishfarmsllc@yahoo.com,8106884019,,https://www.facebook.com/swoishfarms/,,,,,,"4867 Swoish Road, North Branch, Michigan 48461",Michigan,North Branch,4867 Swoish Road,48461,-83.160217,43.1868314,,
on-farm market,"Sep 9th, 2016",default-onfarmmarket-4-3.jpg,701369,Borderline Farm,,Norm Allen,borderline.farm@hotmail.com,269-506-3012,http://borderline.farm,https://www.facebook.com/BorderlineFarm.MI,,,,,,"71269 Bauman Rd, Sturgis , Michigan 49091",Michigan,Sturgis,71269 Bauman Rd,49091,-85.337939,41.7610830,,
