,type,directory_name,updatetime,listing_image,listing_id,name,listing_desc,tags,mydesc,contact_name,contact_email,contact_phone,website,facebook,twitter,media_instagram,media_pinterest,media_youtube,media_blog,location_address,state,city,street,zip,longitude,latitude,term
0,farmersmarket,farmers market,"Apr 28th, 2021",default-farmersmarket-4-3.jpg,301495,Fondy Farmers Market,,Open: May to June; June to October; November; <br>Available Products: Fresh fruits;Fresh vegetables;Baked goods;Canned or preserved fruits/vegetables;Crafts/woodworking items;Eggs;Honey;Juices/non-alcoholic ciders;Poultry/fowl meat and products;Prepared foods;Soap/body care products;,,Katie Hassemer,khassemer@fondymarket.org,4149398840,www.fondymarket.org,www.facebook.com/fondymarket/,www.twitter.com/fondymarket,,,www.youtube.com/channel/UCVNVRvOp84S6yHDnFn8ef1w,,"2200 W Fond du Lac Ave, Milwaukee, Wisconsin 53206",Wisconsin,Milwaukee,2200 W Fond du Lac Ave,53206,-87.939701,43.061843,
1,farmersmarket,farmers market,"Apr 28th, 2021",default-farmersmarket-4-3.jpg,301496,Milwaukee Winter Farmers Market,,Open: November to March; <br>Available Products: Fresh fruits;Fresh vegetables;Baked goods;Canned or preserved fruits/vegetables;Coffee/tea;Dairy products.;Dry beans;Eggs;Fresh/dried herbs;Grains/flour;Honey;Maple products;Mushrooms;Nuts;Pet food;Poultry/fowl meat and products;Prepared foods;Red/other non-poultry meat and products;Soap/body care products;Wild harvested forest products;,,Katie Hassemer,khassemer@fondymarket.org,4149398840,www.mcwfm.org,www.facebook.com/mcwfm,www.twitter.com/fondymarket,,,www.youtube.com/channel/UCVNVRvOp84S6yHDnFn8ef1w,,"524 S Layton Blvd, Milwaukee, Wisconsin 53215",Wisconsin,Milwaukee,524 S Layton Blvd,53215,-87.944924,43.025865,
2,farmersmarket,farmers market,"Aug 1st, 2020",default-farmersmarket-4-3.jpg,300619,"Antigo Farmers Market, Inc.",,Open: June to September; <br>Available Products: Fresh fruits;Fresh vegetables;Baked goods;Bedding plants;Canned or preserved fruits/vegetables;Crafts/woodworking items;Cut flowers;Dry beans;Eggs;Fresh/dried herbs;Honey;Juices/non-alcoholic ciders;Maple products;Mushrooms;Poultry/fowl meat and products;Red/other non-poultry meat and products;Soap/body care products;Wild harvested forest products;,,Renate Bromberg,bromberg@wisc.edu,7152161846,www.antigomarket.com,"Antigo Farmers Market, Inc",,,,,,"420 Field Street, Antigo, Wisconsin 54409",Wisconsin,Antigo,420 Field Street,54409,-89.149850,45.138703,
3,farmersmarket,farmers market,"Aug 3rd, 2021",default-farmersmarket-4-3.jpg,301587,Algoma Sunday Farmers Market,,Open: July to October; <br>Available Products: Fresh fruits;Fresh vegetables;Baked goods;Canned or preserved fruits/vegetables;Crafts/woodworking items;Dairy products.;Fresh/dried herbs;Grains/flour;Honey;Maple products;Poultry/fowl meat and products;Prepared foods;Red/other non-poultry meat and products;Soap/body care products;,,Casey Buhr,casey@folkvangrfarms.com,920-319-3655,https://visitalgomawi.com/market/,https://www.facebook.com/AlgomaSundayFarmersMarket,,,,,,"Clark St. and Lake St., Algoma , Wisconsin 54201",Wisconsin,Algoma,Clark St. and Lake St.,54201,-87.435983,44.607438,
4,farmersmarket,farmers market,"Dec 29th, 2020",default-farmersmarket-4-3.jpg,301169,Southshore Outdoor Market,,Open: June to November; <br>Available Products: Fresh fruits;Fresh vegetables;Baked goods;Bedding plants;Canned or preserved fruits/vegetables;Crafts/woodworking items;Cut flowers;Fresh/dried herbs;Honey;Prepared foods;Soap/body care products;,,dean south,mancavetractortown@gmail.com,2628802966,,https://www.facebook.com/MondayMorningMarket/,,,,,,"8505 Durand Ave, sturtevant, Wisconsin 53177",Wisconsin,sturtevant,8505 Durand Ave,53177,-87.888847,42.697348,
5,farmersmarket,farmers market,"Feb 10th, 2021",default-farmersmarket-4-3.jpg,300090,Dousman Farmers Market,,Open: May to October; <br>Available Products: Fresh fruits;Fresh vegetables;Baked goods;Bedding plants;Canned or preserved fruits/vegetables;Coffee/tea;Crafts/woodworking items;Cut flowers;Fresh/dried herbs;Honey;Prepared foods;Soap/body care products;Wild harvested forest products;,,Judy Engel,dousmanmarket@gmail.com,262-968-4566,www.dousmanchamber.org/farmers_market.html,https://www.facebook.com/DousmanFarmersMarket,,,,,,"118 S. Main St, Dousman, Wisconsin 53118",Wisconsin,Dousman,118 S. Main St,53118,-88.472514,43.0131210,
6,farmersmarket,farmers market,"Feb 19th, 2021",default-farmersmarket-4-3.jpg,301439,Marinette Artisan & Farm Market,,Open: June to September; <br>Available Products: Fresh fruits;Fresh vegetables;Baked goods;Crafts/woodworking items;Fresh/dried herbs;Honey;Mushrooms;,,Lucy Pier,menomineehdfarmersmarket@gmail.com,9068638718,http://www.menomineefarmersmarket.com/,https://www.facebook.com/MenomineeFarmersMarket,,,,,,"1607 Main Street, Marinette , Wisconsin 54143",Wisconsin,Marinette,1607 Main Street,54143,-87.628231,45.098174,
7,farmersmarket,farmers market,"Feb 26th, 2021",default-farmersmarket-4-3.jpg,301449,Kenosha Public Market,,Open: May to November; October to May; <br>Available Products: Fresh fruits;Fresh vegetables;Baked goods;Canned or preserved fruits/vegetables;Coffee/tea;Crafts/woodworking items;Cut flowers;Dairy products.;Eggs;Fish/seafood;Fresh/dried herbs;Honey;Juices/non-alcoholic ciders;Maple products;Mushrooms;Nuts;Pet food;Poultry/fowl meat and products;Prepared foods;Red/other non-poultry meat and products;Soap/body care products;Tofu/non-animal protein;Wild harvested forest products;,,Laura Belsky,kenoshapublicmarket@gmail.com,2627055722,https://www.KenoshaPublicMarket.com,www.facebook.com/KenoshaPublicMarket,,,,,,"Outdoor Summer Market 625 52nd Street- Indoor Winter Market 625 57th Street, Kenosha, Wisconsin 53140",Wisconsin,Kenosha,625 52nd Street,53140,-87.819902,42.587189,
8,farmersmarket,farmers market,"Feb 9th, 2021",default-farmersmarket-4-3.jpg,301432,Kenosha Public Market - Summer Outdoor,,"Open: May to October; ; <br>Available Products: Poultry/fowl meat and products;Prepared foods;Red/other non-poultry meat and products;Soap/body care products;Tofu/non-animal protein;Wild harvested forest products;Wine, spirits, beer, hard cider;",,Laura Belsky,kenoshapublicmarket@gmail.com,262-705-5722,www.KenoshaPublicMarkets.com,www.facebook.com/KenoshaPublicMarkets,,,,,,"625 52nd Street, Kenosha, Wisconsin 53140",Wisconsin,Kenosha,625 52nd Street,53140,-87.819945,42.587205,
9,farmersmarket,farmers market,"Feb 9th, 2021",default-farmersmarket-4-3.jpg,301433,Kenosha Public Market - Winter Indoor,,"Open: November to April; <br>Available Products: Fresh fruits;Fresh vegetables;Baked goods;Canned or preserved fruits/vegetables;Coffee/tea;Crafts/woodworking items;Cut flowers;Dairy products.;Eggs;Fish/seafood;Fresh/dried herbs;Grains/flour;Honey;Juices/non-alcoholic ciders;Maple products;Mushrooms;Nuts;Pet food;Poultry/fowl meat and products;Prepared foods;Red/other non-poultry meat and products;Soap/body care products;Tofu/non-animal protein;Wild harvested forest products;Wine, spirits, beer, hard cider;",,Laura Belsky,kenoshapublicmarket@gmail.com,262-705-5722,www.KenoshaPublicMarkets.com,www.facebook.com/KenoshaPublicMarkets,,,,,,"625 57th Street, Kenosha, Wisconsin 53140",Wisconsin,Kenosha,625 57th Street,53140,-87.819183,42.584009,
10,farmersmarket,farmers market,"Jan 20th, 2021",default-farmersmarket-4-3.jpg,301381,Jackson Food & Farm Market,,Open: June to October; <br>Available Products: Fresh fruits;Fresh vegetables;Baked goods;Bedding plants;Canned or preserved fruits/vegetables;Crafts/woodworking items;Cut flowers;Dairy products.;Eggs;Fresh/dried herbs;Honey;Maple products;Nursery stock;Poultry/fowl meat and products;Prepared foods;Red/other non-poultry meat and products;Soap/body care products;,,Laurie Lamm McGraw,llamm@lammscape.com,262-677-3010,www.lammscape.com,Lammscapes,Lammscapes,,,Lammscapes,,"2708 Sherman Rd, Jackson, Wisconsin 53037",Wisconsin,Jackson,2708 Sherman Rd,53037,-88.171891,43.309792,
11,farmersmarket,farmers market,"Jan 25th, 2021",default-farmersmarket-4-3.jpg,300009,Appleton Downtown Farm Market,,Open: June to October; November to December; <br>Available Products: Fresh vegetables;Baked goods;Bedding plants;Canned or preserved fruits/vegetables;Crafts/woodworking items;Dairy products.;Eggs;Fish/seafood;Fresh/dried herbs;Grains/flour;Honey;Maple products;Mushrooms;Pet food;Poultry/fowl meat and products;Red/other non-poultry meat and products;Soap/body care products;,,Meghan Warner,meghan@appletondowntown.org,920-954-9112,www.appletondowntown.org,www.facebook.com/downtownappletonfarmmarket,,,,,,"100 College Avenue, Appleton, Wisconsin 54911",Wisconsin,Appleton,100 College Avenue,54911,-88.40703,44.26201,
12,farmersmarket,farmers market,"Jan 25th, 2021",default-farmersmarket-4-3.jpg,300025,Oneida Farmers Market,,Open: June to October; <br>Available Products: Fresh fruits;Fresh vegetables;Baked goods;Bedding plants;Canned or preserved fruits/vegetables;Crafts/woodworking items;Cut flowers;Eggs;Fresh/dried herbs;Honey;Maple products;Nuts;Poultry/fowl meat and products;Prepared foods;Red/other non-poultry meat and products;Soap/body care products;,,Bill Ver Voort,Wvervoor@oneidanation.org,920-819-1933,www.oneidanation.org/ofm,https://www.facebook.com/#!/pages/Oneida-Farmers-Market-Wisconsin/157816204275054,,,,,,"N7332 Water Circle Place, Oneida, Wisconsin 54155",Wisconsin,Oneida,N7332 Water Circle Place,54155,-88.202341,44.503625,
13,farmersmarket,farmers market,"Jan 25th, 2021",default-farmersmarket-4-3.jpg,300111,Rusk County Farmers Market,,Open: June to October; ; <br>Available Products: Poultry/fowl meat and products;Red/other non-poultry meat and products;Soap/body care products;,,Martha Smart,marthas119@gmail.com,715-532-3791,,Rusk County Farmers Market,,,,,,"US Highway 8 & W. 2nd  Street, Ladysmith, Wisconsin 54848",Wisconsin,Ladysmith,US Highway 8 & W. 2nd  Street,54848,-91.099240,45.464998,
14,farmersmarket,farmers market,"Jan 25th, 2021",default-farmersmarket-4-3.jpg,300419,Monroe Farmers Market,,Open: May to October; November to April; <br>Available Products: Fresh vegetables;Baked goods;Canned or preserved fruits/vegetables;Crafts/woodworking items;Eggs;Honey;Maple products;Prepared foods;Red/other non-poultry meat and products;Soap/body care products;,,Rhonda Urban,Monroefarmersmarket@tds.net,608-214-1330,www.mainstreetmonroe.org,Main Street Monroe Farmers Market,,,,,,"10th St and 16th Ave, Monroe, Wisconsin 53566",Wisconsin,Monroe,10th St and 16th Ave,53566,-89.639224,42.601889,
15,farmersmarket,farmers market,"Jan 26th, 2021",default-farmersmarket-4-3.jpg,300255,Chippewa Falls Farmers Market,,Open: June to October; <br>Available Products: Fresh fruits;Fresh vegetables;Baked goods;Canned or preserved fruits/vegetables;Cut flowers;Dairy products.;Eggs;Fresh/dried herbs;Honey;Maple products;Poultry/fowl meat and products;Prepared foods;Red/other non-poultry meat and products;,,Teri Ouimette,teri@cfms.us,715-723-6661,http://www.chippewafallsmainst.org/Farmers_Market.html,,,,,,,"1 S. Bridge Street, Chippewa Falls, Wisconsin 54729",Wisconsin,Chippewa Falls,1 S. Bridge Street,54729,-91.389337,44.934888,
16,farmersmarket,farmers market,"Jan 28th, 2021",default-farmersmarket-4-3.jpg,300294,"Janesville Farmers Market, Inc.",,Open: May to October; <br>Available Products: Fresh fruits;Fresh vegetables;Baked goods;Bedding plants;Canned or preserved fruits/vegetables;Coffee/tea;Crafts/woodworking items;Cut flowers;Dairy products.;Eggs;Fresh/dried herbs;Honey;Juices/non-alcoholic ciders;Maple products;Mushrooms;Nursery stock;Poultry/fowl meat and products;Prepared foods;Red/other non-poultry meat and products;Soap/body care products;,,Emily Arthur,manager@janesvillefarmersmarket.com,(608) 289-9292,http://janesvillefarmersmarket.com/jfm/,https://www.facebook.com/pages/Janesville-Farmers-Market-Inc/212710452079344,https://twitter.com/jnsvlfarmmkt,,,,,"Town Square, Downtown Janesville, Janesville , Wisconsin 53545",Wisconsin,Janesville,"Town Square, Downtown Janesville",53545,-89.023298,42.681669,
17,farmersmarket,farmers market,"Jan 28th, 2021",default-farmersmarket-4-3.jpg,300401,Shorewood Farmers Market,,Open: June to October; <br>Available Products: Fresh fruits;Fresh vegetables;Baked goods;Bedding plants;Canned or preserved fruits/vegetables;Coffee/tea;Cut flowers;Dairy products.;Eggs;Fish/seafood;Fresh/dried herbs;Grains/flour;Honey;Juices/non-alcoholic ciders;Maple products;Mushrooms;Poultry/fowl meat and products;Prepared foods;Red/other non-poultry meat and products;Soap/body care products;Wild harvested forest products;,,Christopher Freund,info@shorewoodfarmersmarket.com,414-502-7164,http://www.shorewoodfarmersmarket.com/,https://www.facebook.com/shorewoodfarmersmarket/,,,,,,"3400 Estabrook Parkway, Shorewood, Wisconsin 53211",Wisconsin,Shorewood,3400 Estabrook Parkway,53211,-87.898448,43.091905,
18,farmersmarket,farmers market,"Jan 29th, 2021",default-farmersmarket-4-3.jpg,300041,Westside Community Market,,Open: April to November; <br>Available Products: Fresh fruits;Fresh vegetables;Baked goods;Bedding plants;Canned or preserved fruits/vegetables;Cut flowers;Dairy products.;Dry beans;Eggs;Fresh/dried herbs;Grains/flour;Honey;Juices/non-alcoholic ciders;Maple products;Mushrooms;Nursery stock;Nuts;Pet food;Poultry/fowl meat and products;Prepared foods;Red/other non-poultry meat and products;Soap/body care products;Wild harvested forest products;,,Benjamin Zimmerman,manager@westsidecommunitymarket.org,608-628-8879,www.westsidecommunitymarket.org,https://www.facebook.com/WestsideCommunityMarket,@WCM_Market,,,,,"750 University Row, Madison, Wisconsin 53705",Wisconsin,Madison,750 University Row,53705,-89.470061,43.076159,
19,farmersmarket,farmers market,"Jan 4th, 2021",default-farmersmarket-4-3.jpg,300679,Baldwin's Main St. Farmers Market,,Open: June to October; <br>Available Products: Fresh fruits;Fresh vegetables;Baked goods;Bedding plants;Canned or preserved fruits/vegetables;Cut flowers;Eggs;Fresh/dried herbs;Honey;Maple products;Mushrooms;Poultry/fowl meat and products;Red/other non-poultry meat and products;Soap/body care products;,,Tracy Carlson,tracy@villageofbaldwin.com,7156843426,https://www.villageofbaldwin.com/community/page/main-st-farmers-market,https://www.facebook.com/BaldwinsMainStFarmersMarket/,,,,,,"Main St. and 6th Ave., Baldwin, Wisconsin 54002",Wisconsin,Baldwin,Main St. and 6th Ave.,54002,-92.370763,44.966999,
20,farmersmarket,farmers market,"Jan 4th, 2021",default-farmersmarket-4-3.jpg,301075,Oak Creek Farmers Market,,"Open: June to October; June to October; June to October; <br>Available Products: Fresh vegetables;Baked goods;Bedding plants;Canned or preserved fruits/vegetables;Coffee/tea;Cut flowers;Dairy products.;Dry beans;Fish/seafood;Fresh/dried herbs;Grains/flour;Honey;Juices/non-alcoholic ciders;Maple products;Mushrooms;Nursery stock;Nuts;Pet food;Poultry/fowl meat and products;Red/other non-poultry meat and products;Soap/body care products;Wild harvested forest products;Wine, spirits, beer, hard cider;",,Dawn Carrillo,dcarrillo@oakcreekwi.org,4143334963,www.visitoakcreek.org,https://www.facebook.com/groups/OakCreekFarmersMarket/,,,,,,"Drexel Town Square, Oak Creek , Wisconsin 53154",Wisconsin,Oak Creek,Drexel Town Square,53154,-87.917781,42.899242,
21,farmersmarket,farmers market,"Jan 8th, 2021",default-farmersmarket-4-3.jpg,300881,Shawano Farmers Market,,Open: June to October; <br>Available Products: Fresh fruits;Fresh vegetables;Baked goods;Bedding plants;Canned or preserved fruits/vegetables;Crafts/woodworking items;Cut flowers;Dairy products.;Eggs;Fish/seafood;Fresh/dried herbs;Honey;Juices/non-alcoholic ciders;Maple products;Mushrooms;Prepared foods;Red/other non-poultry meat and products;Soap/body care products;,,BARBARA MENDOZA,barbara@thefreshproject.org,7155265206,www.thefreshproject.org,https://www.facebook.com/shawanofarmersmarket,https://twitter.com/shawanomarket,,,,,"235 S. Washington Street, Shawano, Wisconsin 54166",Wisconsin,Shawano,235 S. Washington Street,54166,-88.612868,44.777707,
22,farmersmarket,farmers market,"Jul 22nd, 2020",default-farmersmarket-4-3.jpg,301161,Mauston Farmers' Market,,Open: May to October; <br>Available Products: Fresh fruits;Fresh vegetables;Baked goods;Bedding plants;Canned or preserved fruits/vegetables;Crafts/woodworking items;Eggs;Honey;Maple products;Red/other non-poultry meat and products;Soap/body care products;,,Connie Wastlund,maustonfarmersmarket@gmail.com,6088474142,https://www.maustonfarmersmarket.com/,https://www.facebook.com/maustonsfarmersmarket/,,,,,,"220 East State Street, mauston, Wisconsin 53948",Wisconsin,mauston,220 East State Street,53948,-90.082332,43.801304,
23,farmersmarket,farmers market,"Jul 28th, 2020",default-farmersmarket-4-3.jpg,301170,Caledonia Outdoor Market,,Open: June to October; <br>Available Products: Fresh fruits;Fresh vegetables;Baked goods;Bedding plants;Canned or preserved fruits/vegetables;Crafts/woodworking items;Cut flowers;Honey;Maple products;Prepared foods;Soap/body care products;,,dean south,mancavetractortown@gmail.com,2628802966,,https://www.facebook.com/EatLocalRacine/,,,,,,"3920 N Greenbay Rd, Caledonia, Wisconsin 53404",Wisconsin,Caledonia,3920 N Greenbay Rd,53404,-87.822883,42.769605,
24,farmersmarket,farmers market,"Jun 21st, 2022",farmersmarket_301720_14132_20220610034024.png,301720,Cadott Farmer's Market,"The Cadott Farmers Market is dedicated to supporting small family farms, producers and artisans.  We strive to bring diverse offerings to the Market to ensure local, fresh, nutritious foods and artisanal products are available to our community and shoppers weekly.",Open: 06/11/2022 to 10/15/2022; <br>Available Products: Fresh fruits;Fresh vegetables;Baked goods;Canned or preserved fruits/vegetables;Crafts/woodworking items;Cut flowers;Eggs;Fresh/dried herbs;Honey;Maple products;Poultry/fowl meat and products;Prepared foods;Red/other non-poultry meat and products;Soap/body care products;,"The Cadott Farmers Market is dedicated to supporting small family farms, producers and artisans.  ...",Jessica Ryba,cadottfarmersmarket@gmail.com,715-703-3779,www.cadottfarmersmarket.com,https://www.facebook.com/CadottFarmersMarket,,,,,,"Riverview Park, Wisconsin 27, Cadott, WI, USA",Wisconsin,Cadott,Riverview Park,54727,-91.14667530000001,44.9536963,
25,farmersmarket,farmers market,"Jun 22nd, 2020",default-farmersmarket-4-3.jpg,301139,Ridgeway Farmers Market,,Open: May to October; <br>Available Products: Fresh fruits;Fresh vegetables;Baked goods;Bedding plants;Canned or preserved fruits/vegetables;Coffee/tea;Crafts/woodworking items;Cut flowers;Dairy products.;Eggs;Grains/flour;Honey;Maple products;Mushrooms;Pet food;Poultry/fowl meat and products;Prepared foods;Red/other non-poultry meat and products;Soap/body care products;Wild harvested forest products;,,AMBER CHITWOOD,ridgewayfarmersmarket@gmail.com,3198309292,ridgewayfarmersmarket.org,https://www.facebook.com/ridgewayfarmersmarketwi/,,,,,,"299 Hughitt Street, Ridgeway, Wisconsin 53582",Wisconsin,Ridgeway,299 Hughitt Street,53582,-89.993242,42.998521,
26,farmersmarket,farmers market,"Mar 17th, 2022",farmersmarket_5818_11132_20220317184057.png,5818,Kenosha Public Market,"Kenosha Public Market is a year-round Saturday market located in the heart of the Downtown district. Our vendors present a variety of products including local produce, artisan pastries and confections, locally sourced meats, poultry and eggs, fine cheeses, prepared foods & handmade gifts. Order from our online store, KPM2GO, to ensure you get the products you want before they sell out. Place orders during the week and pick up at our Saturday market! 
Our location is in the center of this pedestrian-friendly neighborhood with convenient parking options, world-class museums, an authentic streetcar system, two lighthouses, unique dining, and plenty of shopping options. Kenosha Public Market is proud to be one of the many shopping destinations Downtown. ",,Kenosha Public Market is a year-round Saturday market located in the heart of the Downtown ...,Laura Belsky,kenoshapublicmarket@gmail.com,262-705-5722,https://www.KenoshaPublicMarket.com,https://www.facebook.com/KenoshaPublicMarket,,https://www.instagram.com/kenoshapublicmarket/,,,,"625 52nd Street, Kenosha, WI, USA",Wisconsin,Kenosha,625 52nd Street,53140,-87.820499,42.587876,
27,farmersmarket,farmers market,"Mar 21st, 2021",default-farmersmarket-4-3.jpg,301476,General Store Market,,Open: May to September; <br>Available Products: Fresh fruits;Fresh vegetables;Baked goods;Canned or preserved fruits/vegetables;Coffee/tea;Crafts/woodworking items;Cut flowers;Dairy products.;Eggs;Fresh/dried herbs;Honey;Juices/non-alcoholic ciders;Maple products;Mushrooms;Prepared foods;Soap/body care products;Wild harvested forest products;,,Nikki Peterson,westpinecrafts@hotmail.com,7156377253,,fb.me/generalstoremarket,,,,,,"1327 S. 18th Street, Barron, Wisconsin 54812",Wisconsin,Barron,1327 S. 18th Street,54812,-91.844351,45.402192,
28,farmersmarket,farmers market,"Mar 25th, 2021",default-farmersmarket-4-3.jpg,300309,South Milwaukee Downtown Market,,Open: June to October; <br>Available Products: Fresh fruits;Fresh vegetables;Baked goods;Bedding plants;Canned or preserved fruits/vegetables;Coffee/tea;Crafts/woodworking items;Cut flowers;Dairy products.;Eggs;Fresh/dried herbs;Honey;Juices/non-alcoholic ciders;Nursery stock;Pet food;Poultry/fowl meat and products;Prepared foods;Red/other non-poultry meat and products;Soap/body care products;Wild harvested forest products;,,Tony Bloom,candyman53172@gmail.com,414-499-1568,http://www.smmarket.org,https://www.facebook.com/smdowntownmarket,,,,,,"11th and Milwaukee Avenues, South Milwaukee , Wisconsin 53172",Wisconsin,South Milwaukee,11th and Milwaukee Avenues,53172,-87.862688,42.9107287,
29,farmersmarket,farmers market,"Mar 27th, 2023",default-farmersmarket-4-3.jpg,313447,Abbotsford Farmers' Market,,,,,,715-223-6353,http://www.wifarmersmarkets.org/find-a-farmers-market-display.aspx?MarketId=762,,,,,,,"4th & Spruce St., Ben Franklin Parking Lot, Abbotsford, WI, 54405",Wisconsin,Abbotsford,4th & Spruce St.,54405,-90.31663003858021,44.94581001109714,
30,farmersmarket,farmers market,"Mar 27th, 2023",default-farmersmarket-4-3.jpg,313448,Allenton Farmers' Market,,,,,dominionvalleyfarm@juno.com,262-629-9423,http://allentonwi.com/index.php/sponsored-events/farmers-market/,,,,,,,"Hwy. 33 & Weiss St., Allenton, WI, 53002",Wisconsin,Allenton,Hwy. 33 & Weiss St.,53002,-88.3415099924158,43.42116998667882,
31,farmersmarket,farmers market,"Mar 27th, 2023",default-farmersmarket-4-3.jpg,313449,Alpha - Burnett County Farmers' Markets,,,,,,715-349-5845,,http://www.facebook.com/BurnettCountyFarmersMarket,,,,,,"11631 Wisconsin 70 Grantsburg, WI 56840 Parking lot of Burnett Dairy Cheese Store",Wisconsin,GRANTSBURG,11631 STATE HWY 70,54840,-92.57885973529692,45.7721366259521,
32,farmersmarket,farmers market,"Mar 27th, 2023",default-farmersmarket-4-3.jpg,313450,Appleton Indoor Farmers' Market,,,,,joanna@appletondowntown.org,920-954-9112,http://www.appletondowntown.org/events/event-highlights/farm-market,https://www.facebook.com/downtownappletonfarmmarket,,,,,,"10 E. College Ave., Appleton, WI, 54912",Wisconsin,Appleton,10 E. College Ave.,54912,-88.40576282167679,44.26181963469051,
33,farmersmarket,farmers market,"Mar 27th, 2023",default-farmersmarket-4-3.jpg,313451,Appleton Wednesday Farmers' Market,,,,,djuanna@appletondowntown.org,920-954-9112,http://www.appletondowntown.org/events/event-highlights/farm-market,https://www.facebook.com/downtownappletonfarmmarket,,,,,,"Houdini Plaza, W College Ave, Appleton, WI, 54911",Wisconsin,Appleton,W College Ave,54911,-88.40956063356336,44.26182593038608,
34,farmersmarket,farmers market,"Mar 27th, 2023",default-farmersmarket-4-3.jpg,313452,Arcadia Farmers Market,,,,,,,,http://www.facebook.com/pg/arcadiafarmersmarket,,,,,,"550 Dettloff Drive Arcadia, WI 54612",Wisconsin,ARCADIA,550 DETLOFF DR,54612,-91.47378396665218,44.245745565443066,
35,farmersmarket,farmers market,"Mar 27th, 2023",default-farmersmarket-4-3.jpg,313453,Ashland Area Farmers Market,,,,,,715-373-0639,http://www.ashlandareafarmersmarket.com/,,,,,,,"200 Block of Chapple Ave. Ashland, WI 54806",Wisconsin,ASHLAND,200 CHAPPLE AVE,54806,-90.890530075857,46.5881645743521,
36,farmersmarket,farmers market,"Mar 27th, 2023",default-farmersmarket-4-3.jpg,313454,Balsam Lake Farmers' Market,,,,,DDBEAULIEU@LIVE.COM,715-553-2513,http://www.wifarmersmarkets.org/find-a-farmers-market-display.aspx?MarketId=886,,,,,,,"507 W. Main St., Our Lady of the Lakes Catholic Church, Balsam Lake, WI, 54810",Wisconsin,Balsam Lake,507 W. Main St,54810,-92.45865396885779,45.45332693079271,
37,farmersmarket,farmers market,"Mar 27th, 2023",default-farmersmarket-4-3.jpg,313455,Barker's Island Farmers' Market,,,,,barkersislandfarmersmarket@gmail.com,715-372-8441,,https://www.facebook.com/barkersislandfarmersmarket,,,,,,"US-2 and Marina Dr., Superior, WI, 54880",Wisconsin,Superior,US-2 and Marina Dr.,54880,-92.06838996711578,46.722249992528106,
38,farmersmarket,farmers market,"Mar 27th, 2023",default-farmersmarket-4-3.jpg,313456,Beloit Farmers' Market,,,,,crystal@downtownbeloit.com,608-365-0150,http://downtownbeloit.com/us/farmers-market-2/,https://www.facebook.com/BeloitFarmersMarket,,,,,,"State St. and E. Grand Ave., Beloit, WI, 53511",Wisconsin,Beloit,State St. and E. Grand Ave.,53511,-89.03558999720755,42.49965998926183,
39,farmersmarket,farmers market,"Mar 27th, 2023",default-farmersmarket-4-3.jpg,313457,Berlin Farmers & Artists Market,,,,,,929-290-4019,http://berlinwi.wix.com/market,http://www.facebook.com/Berlin.WI.FarmersMarket,,,,,,"192 E Huron St Nathan Strong Park Berlin, WI 54923 Parking available along E. Park Ave and State St.",Wisconsin,BERLIN,192 E HURON ST,54923,-88.94276741899755,43.9683775558585,
40,farmersmarket,farmers market,"Mar 27th, 2023",default-farmersmarket-4-3.jpg,313458,Black River Falls Downtown Farmers' Market,,,,,,715-284-4454,,https://www.facebook.com/marketdowntownbrf,,,,,,"Fillmore St. and S. 3rd St., Black River Falls, WI, 54615",Wisconsin,Black River Falls,Fillmore St. and S. 3rd St.,54615,-90.85083001798523,44.29415999646028,
41,farmersmarket,farmers market,"Mar 27th, 2023",default-farmersmarket-4-3.jpg,313459,Blackhawk Junction Farmers' Market,,,,,,608-326-2491,http://www.wifarmersmarkets.org/find-a-farmers-market-display.aspx?MarketId=856,,,,,,,"700 E. Blackhawk Ave., Prairie Du Chien, WI, 53821",Wisconsin,Prairie Du Chien,700 E. Blackhawk Ave.,53821,-91.1368730250452,43.051213986729834,
42,farmersmarket,farmers market,"Mar 27th, 2023",default-farmersmarket-4-3.jpg,313460,Bridgeview Plaza Farmers' Market,,,,,Email not found,608-785-9771,https://www.cityoflacrosse.org/index.aspx?NID=1304,,,,,,,"2500 Rose St., La Crosse, WI, 54603",Wisconsin,La Crosse,2500 Rose St.,54603,-91.24351070006219,43.85758168591851,
43,farmersmarket,farmers market,"Mar 27th, 2023",default-farmersmarket-4-3.jpg,313461,Bristol Farmers Market,,,,,,262-237-1132,http://www.freewebs.com/bristolfarmersmarket,,,,,,,"19801 83rd Street Bristol, WI 53104",Wisconsin,BRISTOL,19801 83RD ST,53104,-88.0480758814065,42.55744802049044,
44,farmersmarket,farmers market,"Mar 27th, 2023",default-farmersmarket-4-3.jpg,313462,Brookfield Farmers' Market,,,,,info@brookfieldfarmersmarket.com,262-784-7804,http://www.brookfieldfarmersmarket.com/,https://www.facebook.com/BrookfieldWIFarmersMarket,,,,,,"2000 N. Calhoun Rd., Brookfield, WI, 53005",Wisconsin,Brookfield,2000 N. Calhoun Rd.,53005,-88.12614059381961,43.05650268761708,
45,farmersmarket,farmers market,"Mar 27th, 2023",default-farmersmarket-4-3.jpg,313463,Brown Deer Farmers' Market,,,,,becky@bdtaxman.com,414-354-4117,,https://www.facebook.com/BrownDeerFarmersMarket,,,,,,"6700 W. Brown Deer Rd., Brown Deer, WI, 53223",Wisconsin,Brown Deer,6700 W. Brown Deer Rd.,53223,-87.99338700622012,43.179416997907424,
46,farmersmarket,farmers market,"Mar 27th, 2023",default-farmersmarket-4-3.jpg,313464,Bruce Community Farmers Market,,,,,,715-868-2885,,http://www.facebook.com/BruceCommunityFarmersMarket,,,,,,"600 N Alvey St Bruce, WI 54819 We are located in beautiful outdoor setting at the corner of Hwy 8 and N Alvey Street in Bruce WI. On street parking available on N Alvey",Wisconsin,BRUCE,600 N ALVEY ST,54819,-91.27474090953854,45.45523702393555,
47,farmersmarket,farmers market,"Mar 27th, 2023",default-farmersmarket-4-3.jpg,313465,Burlington Farmers' Market,,,,,burlingtonfrmarket@sbcglobal.net,262-210-6360,http://www.burlingtonwifarmersmarket.com/,https://www.facebook.com/pages/Burlington-Farmers-Market/118492568174137,,,,,,"N. Pine St. and E. Washington St., Burlington, WI, 53105",Wisconsin,Burlington,N. Pine St. and E. Washington St.,53105,-88.2758800258282,42.679220010842755,
48,farmersmarket,farmers market,"Mar 27th, 2023",default-farmersmarket-4-3.jpg,313466,Burnett County Farmers' Market,,,,,armstrong.sga@gmail.com,415-349-5845,,https://www.facebook.com/pages/Burnett-County-Farmers-Markets/250874305027758,,,,,,"23943 WI-35, Siren, WI, 54872",Wisconsin,Siren,23943 WI-35,54872,-92.38117125873482,45.78269401714781,
49,farmersmarket,farmers market,"Mar 27th, 2023",default-farmersmarket-4-3.jpg,313467,Butler Farmers' Market,,,,,Butlerfarmersmarket@yahoo.com,414-840-6602,http://www.buildingabetterbutler.com/farmers--market.html,,,,,,,"127 St. and Hampton Ave., Butler, WI, 53007",Wisconsin,Butler,127 St. and Hampton Ave.,53007,-88.06945001150922,43.104780005805566,
50,farmersmarket,farmers market,"Mar 27th, 2023",default-farmersmarket-4-3.jpg,313468,Cambridge Open Air Market,,,,,office@cambridgewi.com,608-423-3780,http://www.cambridgewi.com/,https://www.facebook.com/pages/Cambridge-Open-Air-Market/256457801041850,,,,,,"100 E. Main St., Cambridge, WI, 53523",Wisconsin,Cambridge,100 E. Main St.,53523,-89.01659170181122,43.00355271349351,
51,farmersmarket,farmers market,"Mar 27th, 2023",default-farmersmarket-4-3.jpg,313469,Cedarburg Farmers' Market,,,,,info@cedarburg.org,262-377-5856,http://www.cedarburg.org/business-details/1872326-cedarburg-farmers-market,,,,,,,"Washington Ave. and Mill St., Cedarburg, WI, 53012",Wisconsin,Cedarburg,Washington Ave. and Mill St.,53012,-87.98689999989556,43.29498998974216,
52,farmersmarket,farmers market,"Mar 27th, 2023",default-farmersmarket-4-3.jpg,313470,Clare Oasis Indoor/Outdoor Farmers Market,,,,,,414-530-0916,http://www.clare-oasis.org,,,,,,,"3211 S Lake Dr Saint Francis, WI 53235",Wisconsin,SAINT FRANCIS,3211 S LAKE DR,53235,-87.86885634963363,42.98535454820462,
53,farmersmarket,farmers market,"Mar 27th, 2023",default-farmersmarket-4-3.jpg,313471,Columbus Downtown Farmers' Market,,,,,blundeen@hughes.net,920-623-5743,,https://www.facebook.com/ColumbuswiFarmersmarket,,,,,,"220 E. James St., Columbus, WI, 53925",Wisconsin,Columbus,220 E. James St.,53925,-89.01598751252331,43.339213232275284,
54,farmersmarket,farmers market,"Mar 27th, 2023",default-farmersmarket-4-3.jpg,313472,Country Lane Farmers Market,,,,,,715-637-5367,,,,,,,,"1642 16th St. Barron , WI 54812",Wisconsin,BARRON,1642 16TH ST,54812,-91.82704552681678,45.44289892126847,
55,farmersmarket,farmers market,"Mar 27th, 2023",default-farmersmarket-4-3.jpg,313473,Cudahy Farmers' Market,,,,,cudahywifm@gmail.com,414-856-5485,http://www.cudahyfarmersmarket.com/,https://www.facebook.com/CudahyFarmersMarket,,,,,,"3500 Library Ave., Cudahy, WI, 53110",Wisconsin,Cudahy,3500 Library Ave.,53110,-87.8622715228598,42.95713244949998,
56,farmersmarket,farmers market,"Mar 27th, 2023",default-farmersmarket-4-3.jpg,313474,De Pere Farmers' Market,,,,,dba@deperewi.org,920-338-0000,http://www.deperechamber.org/farmers-market.php,,,,,,,"144 N. Wisconsin St., De Pere, WI, 54115",Wisconsin,De Pere,144 N. Wisconsin St.,54115,-88.05840098674335,44.44976499977045,
57,farmersmarket,farmers market,"Mar 27th, 2023",default-farmersmarket-4-3.jpg,313475,DeForest Area Farmers' Market,,,,,farmersmarket@vi.deforest.wi.us,608-509-5324,http://www.vi.deforest.wi.us/index.asp?Type=B_BASIC&SEC={38A90127-1135-4F1B-99D2-5AC8EE5AF484},https://www.facebook.com/DeFoFarmersMarket,,,,,,"Jefferson St. and Stevenson St., Firemen's Park, DeForest, WI, 53532",Wisconsin,DeForest,Jefferson St. and Stevenson St.,53532,-89.33895999069277,43.24546999914827,
58,farmersmarket,farmers market,"Mar 27th, 2023",default-farmersmarket-4-3.jpg,313476,Delafield Farmers' Market,,,,,delafieldmarket@gmail.com,,http://www.delafieldfarmersmarket.com/,https://www.facebook.com/pages/Delafield-Farmers-Market/704933319590700,,,,,,"Main St. and Dopkins St., Delafield, WI, 53018",Wisconsin,Delafield,Main St. and Dopkins St.,53018,-88.40571998078643,43.06084999025839,
59,farmersmarket,farmers market,"Mar 27th, 2023",default-farmersmarket-4-3.jpg,313477,Delavan Fresh Market,,,,,,262-374-4221,,,,,,,,"104 Walworth Ave Delavan, WI 53115",Wisconsin,DELAVAN,104 W WALWORTH AVE,53115,-88.65062302038586,42.63302054995332,
60,farmersmarket,farmers market,"Mar 27th, 2023",default-farmersmarket-4-3.jpg,313478,Dodgeville Farmers Market,,,,,,,,http://www.facebook.com/dodgevillefarmersmarket,,,,,,"327 North Iowa Street Dodgeville, WI 53533 Located downtown Dodgeville in the Methodist Church parking lot. Parking available off of East Chapel and Union Streets.",Wisconsin,DODGEVILLE,327 N IOWA ST,53533,-90.13025644521034,42.9620239892296,
61,farmersmarket,farmers market,"Mar 27th, 2023",default-farmersmarket-4-3.jpg,313479,Dousman Area Farmers Market,,,,,,,http://dousmanchamber.org/farmers_market.html,http://www.facebook.com/dousmanmarket.dousman,,,,,,"118 S Main Dousman, WI 53118 Dousman Village Hall 118 S. Main St. Dousman,Wi Across from the fire station",Wisconsin,DOUSMAN,118 S MAIN ST,53118,-88.47285682660336,43.01253420975908,
62,farmersmarket,farmers market,"Mar 27th, 2023",default-farmersmarket-4-3.jpg,313480,Downtown Appleton Farmers' Market,,,,,traci@appletondowntown.org,920-954-9112,http://www.appletondowntown.org/events/event-highlights/farm-market,https://www.facebook.com/downtownappletonfarmmarket,,,,,,"116 N. Appleton St., Appleton, WI, 54911",Wisconsin,Appleton,116 N. Appleton St.,54911,-88.4072512277854,44.26233188585941,
63,farmersmarket,farmers market,"Mar 27th, 2023",default-farmersmarket-4-3.jpg,313481,Downtown Fond du Lac Farmers Market,,,,,,920-322-2006,http://www.downtownfdl.com,http://www.facebook.com/downtownfdl,,,,,,"30 S. Portland Street Fond du Lac, WI 54935",Wisconsin,FOND DU LAC,30 S PORTLAND ST,54935,-88.44583086203122,43.77789857401882,
64,farmersmarket,farmers market,"Mar 27th, 2023",default-farmersmarket-4-3.jpg,313482,Downtown Racine Farmers' Market,,,,,mears_produce@yahoo.com,262-886-6197,,https://www.facebook.com/RacineFarmersMarkets,,,,,,"State St. and Erie St., Racine, WI, 53402",Wisconsin,Racine,State St. and Erie St.,53402,-87.78706000549116,42.73161998145824,
65,farmersmarket,farmers market,"Mar 27th, 2023",default-farmersmarket-4-3.jpg,313483,Downtown West Bend Farmers' Market,,,,,kellie@downtownwestbend.com,262-338-3909,http://www.downtownwestbend.com/farmers--market.html,https://www.facebook.com/WestBendFarmersMarket,,,,,,"Main St. and 6th Ave., West Bend, WI, 53095",Wisconsin,West Bend,Main St. and 6th Ave.,53095,-88.18355000958944,43.425289985456175,
66,farmersmarket,farmers market,"Mar 27th, 2023",default-farmersmarket-4-3.jpg,313484,Eagle River Farmers' Market,,,,,errp@nnex.net,715-477-0645,http://www.eaglerivermainstreet.org/farmers-market/,https://www.facebook.com/pages/Eagle-River-Farmers-Market/422548697797272,,,,,,"418 W. Pine St., Eagle River, WI, 54521",Wisconsin,Eagle River,418 W. Pine St.,54521,-89.25798513957764,45.91418805319783,
67,farmersmarket,farmers market,"Mar 27th, 2023",default-farmersmarket-4-3.jpg,313485,East Side Green Market,,,,,eastsidegreenmarket@gmail.com,414-502-9489,http://www.theeastside.org/happenings/east-side-market,https://www.facebook.com/ESGMarket,,,,,,"E. North Ave. and N. Cramer St., Milwaukee, WI, 53202",Wisconsin,Milwaukee,E. North Ave. and N. Cramer St.,53202,-87.88679995941315,43.060129984775614,
68,farmersmarket,farmers market,"Mar 27th, 2023",default-farmersmarket-4-3.jpg,313486,East Town Market,,,,,info@easttown.com,414-271-1416,http://www.easttown.com/events/east-town-market/,https://www.facebook.com/EastTownMarket,,,,,,"825 N. Jefferson St., Cathedral Square Park, Milwaukee, WI, 53202",Wisconsin,Milwaukee,825 N. Jefferson St.,53202,-87.90556863070171,43.04163247596966,
69,farmersmarket,farmers market,"Mar 27th, 2023",default-farmersmarket-4-3.jpg,313487,East Troy Farmers' Market,,,,,vanessa@easttroywi.org,262-642-3770,http://www.easttroy.org,https://www.facebook.com/EastTroyFarmersMarket,,,,,,"2881 Main St., East Troy Village Square, East Troy, WI, 53120",Wisconsin,East Troy,2881 Main St.,53120,-88.40510058575917,42.784840390276564,
70,farmersmarket,farmers market,"Mar 27th, 2023",default-farmersmarket-4-3.jpg,313488,Eastside Farmers' Market,,,,,garyk@wil-mar.org,608-251-0884,http://www.wil-mar.org/eastside-farmers-market/,,,,,,,"953 Jenifer St., Madison, WI, 53703",Wisconsin,Madison,953 Jenifer St.,53703,-89.36786197135231,43.079500902410594,
71,farmersmarket,farmers market,"Mar 27th, 2023",default-farmersmarket-4-3.jpg,313489,Eau Claire Downtown Farmers' Market,,,,,Email not found,715-834-5697,http://www.ecdowntownfarmersmarket.com/,https://www.facebook.com/EauClaireDowntownFarmersMarket,,,,,,"300 Riverfront Ter., Eau Claire, WI, 54701",Wisconsin,Eau Claire,300 Riverfront Ter.,54701,-91.50437133048119,44.81561503801178,
72,farmersmarket,farmers market,"Mar 27th, 2023",default-farmersmarket-4-3.jpg,313490,Eau Claire Farmers' Market,,,,,farmermarketec@gmail.com,715-497-5207,http://www.eauclairefarmersmarket.com/,https://www.facebook.com/EauClaireFarmersMarketOakwoodMall,,,,,,"3310 E. Hamilton Ave., Eau Claire, WI, 54701",Wisconsin,Eau Claire,3310 E. Hamilton Ave.,54701,-91.46035042089096,44.78620894618757,
73,farmersmarket,farmers market,"Mar 27th, 2023",default-farmersmarket-4-3.jpg,313491,Elk Mound Area Farmers' Market,,,,,julie@elkmound.org,715-879-5011,,,,,,,,"220 E. Menomonie St., East of the Village Hall, Elk Mound, WI, 54739",Wisconsin,Elk Mound,220 E. Menomonie St.,54739,-91.69291439072745,44.87377737569037,
74,farmersmarket,farmers market,"Mar 27th, 2023",default-farmersmarket-4-3.jpg,313492,Elkhart Lake Farmers' and Artisans' Market,,,,,farmersmarket@elkhartlake.com,877-355-3554,http://www.elkhartlake.com/chamber-of-commerce/farmers-market/,,,,,,,"41 E. Rhine St., Elkhart Lake, WI, 53020",Wisconsin,Elkhart Lake,41 E. Rhine St.,53020,-88.02006349877615,43.833350105989815,
75,farmersmarket,farmers market,"Mar 27th, 2023",default-farmersmarket-4-3.jpg,313493,Elver Park Farmers' Market,,,,,,,http://www.madwest.org/farmers-market.html,http://www.facebook.com/elverparkfarmersmarket/,,,,,,"1250 McKenna Blvd. Madison, WI 53719 http://www.cityofmadison.com/parks/find-a-park/park.cfm?id=1172",Wisconsin,MADISON,1250 MCKENNA BLVD,53719,-89.50498495943863,43.0410130919547,
76,farmersmarket,farmers market,"Mar 27th, 2023",default-farmersmarket-4-3.jpg,313494,Enderis Park Farmers Market,,,,,,,http://www.enderisparkfarmersmarket.com,http://www.facebook.com/enderisparkfarmersmarket,,,,,,"2965 N 72nd St Milwaukee, WI 53210 The Enderis Park Farmers Market is located at Enderis Playfield in Milwaukee, between Chambers and Locust to the north and south and 70th and 72nd to the east and we",Wisconsin,MILWAUKEE,2965 N 72ND ST,53210,-88.00236848464846,43.07283572915841,
77,farmersmarket,farmers market,"Mar 27th, 2023",default-farmersmarket-4-3.jpg,313495,Evansville Farmers' Market,,,,,info@evansvillefarmersmarket.com,608-728-8208,http://www.evansvillefarmersmarket.com/,https://www.facebook.com/evansvillefarmersmarket,,,,,,"Church St. and Maple St., Evansville, WI, 53536",Wisconsin,Evansville,Church St. and Maple St.,53536,-89.29809997291215,42.77907999361821,
78,farmersmarket,farmers market,"Mar 27th, 2023",default-farmersmarket-4-3.jpg,313496,Farmers' Market on Broadway,,,,,Events@OnBroadway.org,920-437-2531,http://www.onbroadway.org/farmersmarket,https://www.facebook.com/farmersmarketonbroadway,,,,,,"139 N. Broadway, Green Bay, WI, 54303",Wisconsin,Green Bay,139 N. Broadway,54303,-88.02138250433569,44.517083540077266,
79,farmersmarket,farmers market,"Mar 27th, 2023",default-farmersmarket-4-3.jpg,313497,Ferryville Market in the Park,,,,,info@ferryville.com,608-734-3400,http://www.ferryville.com/Market.html,,,,,,,"Sugar Creek Park, Ferryville, WI, 54628",Wisconsin,Ferryville,Sugar Creek Park,54628,-90.99767707400738,43.37608356202223,
80,farmersmarket,farmers market,"Mar 27th, 2023",default-farmersmarket-4-3.jpg,313498,Festival Foods Darboy Farmers' Market,,,,,ktolvstad@festfoods.com,920-968-2203,,,,,,,,"W3195 Van Roy Rd., Festival Foods Parking Lot, Appleton, WI, 54915",Wisconsin,Appleton,W3195 Van Roy Rd.,54915,-88.34874175754103,44.25732344075727,
81,farmersmarket,farmers market,"Mar 27th, 2023",default-farmersmarket-4-3.jpg,313499,Festival Foods Eau Claire Farmers' Market,,,,,ktolvstad@festfoods.com,715-838-1000,,,,,,,,"3007 Mall Dr., Festival Foods Parking Lot, Eau Claire, WI, 54701",Wisconsin,Eau Claire,3007 Mall Dr.,54701,-91.46154763716149,44.79261999731948,
82,farmersmarket,farmers market,"Mar 27th, 2023",default-farmersmarket-4-3.jpg,313500,Festival Foods Marshfield Farmers' Market,,,,,ktolvstad@festfoods.com,715-384-8866,,,,,,,,"1613 N. Central Ave., Festival Foods Parking Lot, Marshfield, WI, 54449",Wisconsin,Marshfield,1613 N. Central Ave.,54449,-90.16345333633771,44.68122062051616,
83,farmersmarket,farmers market,"Mar 27th, 2023",default-farmersmarket-4-3.jpg,313501,Festival Foods Neenah Farmers' Market,,,,,ktolvstad@festfoods.com,920-967-3300,,,,,,,,"647 N. Green Bay Rd., Festival Foods Parking Lot, Neenah, WI, 54956",Wisconsin,Neenah,647 N. Green Bay Rd.,54956,-88.48370613376768,44.200867132746744,
84,farmersmarket,farmers market,"Mar 27th, 2023",default-farmersmarket-4-3.jpg,313502,Festival Foods Northland Farmers' Market,,,,,ktolvstad@festfoods.com,920-968-2212,,,,,,,,"1200 W. Northland Ave., Festival Foods Parking Lot, Appleton, WI, 54914",Wisconsin,Appleton,1200 W. Northland Ave,54914,-88.4243996391763,44.287424616417425,
85,farmersmarket,farmers market,"Mar 27th, 2023",default-farmersmarket-4-3.jpg,313503,Festival Foods Oshkosh Farmers' Market,,,,,ktolvstad@festfoods.com,920-966-3378,,,,,,,,"2415 Westowne Ave., Festival Foods Parking Lot, Oshkosh, WI, 54904",Wisconsin,Oshkosh,2415 Westowne Ave.,54904,-88.5913207661452,44.02975397964852,
86,farmersmarket,farmers market,"Mar 27th, 2023",default-farmersmarket-4-3.jpg,313504,Festival Foods Sheboygan Farmers' Market,,,,,ktolvstad@festfoods.com,920-694-6260,,,,,,,,"595 S. Taylor Dr., Festival Foods Parking Lot, Sheboygan, WI, 53081",Wisconsin,Sheboygan,595 S. Taylor Dr.,53081,-87.74900299725839,43.751009167534924,
87,farmersmarket,farmers market,"Mar 27th, 2023",default-farmersmarket-4-3.jpg,313505,Festival Foods Suamico Farmers' Market,,,,,ktolvstad@festfoods.com,920-965-0042,,,,,,,,"2348 Lineville Rd., Festival Foods Parking Lot, Green Bay, WI, 54313",Wisconsin,Green Bay,2348 Lineville Rd.,54313,-88.07492699850114,44.59222198212157,
88,farmersmarket,farmers market,"Mar 27th, 2023",default-farmersmarket-4-3.jpg,313506,Fish Creek Settlement Shops Farm Market,,,,,,920-868-3788,http://visitfishcreek.com/where-to-eat-and-drink/wineriesorchardsfarm-markets/settlement-shops/,,,,,,,"9106 Hwy. 42, Fish Creek, WI, 54212",Wisconsin,Fish Creek,9106 Hwy. 42,54212,-87.24540651758096,45.112816067758274,
89,farmersmarket,farmers market,"Mar 27th, 2023",default-farmersmarket-4-3.jpg,313507,Fitchburg Center Farmers' Market,,,,,steven.leverentz@fitchburgcenter.com,608-277-2606,https://fitchburgmarket.wordpress.com/,https://www.facebook.com/pages/Fitchburg-Center-Farmers-Market/75356486094,,,,,,"5511 E. Cheryl Pkwy., Agora Pavilion, Fitchburg, WI, 53711",Wisconsin,Fitchburg,5511 E. Cheryl Pkwy.,53711,-89.42348043267188,43.004984580683534,
90,farmersmarket,farmers market,"Mar 27th, 2023",default-farmersmarket-4-3.jpg,313508,Fort Atkinson Farmers' Market,,,,,farmersmarket@fortchamber.com,920-563-3210,http://fortfarmersmarket.com/,https://www.facebook.com/pages/Fort-Farmers-Market/154733917925205,,,,,,"1 S. Water St. W., Fort Atkinson, WI, 53538",Wisconsin,Fort Atkinson,1 S. Water St. W.,53538,-88.83711183265275,42.92739168753194,
91,farmersmarket,farmers market,"Mar 27th, 2023",default-farmersmarket-4-3.jpg,313509,Fort HealthCare Farmer's Market,,,,,,,,,,,,,,"611 Sherman Ave E Fort Atkinson, WI 53538",Wisconsin,FORT ATKINSON,611 SHERMAN AVE E,53538,-88.82856184720742,42.92998165156335,
92,farmersmarket,farmers market,"Mar 27th, 2023",default-farmersmarket-4-3.jpg,313510,Fox Point Farmers' Market,,,,,mj8049@wi.rr.com,414-352-0555,,https://www.facebook.com/pages/Fox-Point-Farmers-Market/110633372368778,,,,,,"7300 N. Lombardy Rd., Fox Point, WI, 53217",Wisconsin,Fox Point,7300 N. Lombardy Rd.,53217,-87.90596585473186,43.15059491864566,
93,farmersmarket,farmers market,"Mar 27th, 2023",default-farmersmarket-4-3.jpg,313511,Future Neenah Farmers Market,,,,,,920-722-1920,http://www.neenah.org,http://www.facebook.com/pages/Future-Neenah-Farmers-Market,,,,,,"210 E. Wisconsin Ave. Neenah, WI 54956",Wisconsin,NEENAH,210 E SCONSIN AVE,54956,-88.45940361534325,44.18539814485699,
94,farmersmarket,farmers market,"Mar 27th, 2023",default-farmersmarket-4-3.jpg,313512,Garden District Farmers' Market,,,,,market@milwaukeegdna.com,414-379-2450,http://www.gardendistrictfarmersmarket.com/,https://www.facebook.com/GardenDistrictFarmersMarket,,,,,,"6th and Howard, Milwaukee, WI, 53207",Wisconsin,Milwaukee,6th and Howard,53207,-87.91937999796093,42.97376997907355,
95,farmersmarket,farmers market,"Mar 27th, 2023",default-farmersmarket-4-3.jpg,313513,Germantown Farmers' Market,,,,,executivedirector@germantownchamber.org,262-250-4710,http://www.village.germantown.wi.us/index.aspx?NID=373,,,,,,,"Mequon Rd. and Squire Dr., Life Church Parking Lot, Germantown, WI, 53022",Wisconsin,Germantown,Mequon Rd. and Squire Dr.,53022,-88.1129199863006,43.22101998758549,
96,farmersmarket,farmers market,"Mar 27th, 2023",default-farmersmarket-4-3.jpg,313514,Grantsburg - Burnett County Farmers' Markets,,,,,,715-349-5845,,http://www.facebook.com/pages/Burnett-County-Farmers-Markets/250874305027758,,,,,,"316 South Brad Street Grantsburg, WI 54840 Village Offices & Library parking lot",Wisconsin,GRANTSBURG,316 S BRAD ST,54840,-92.68070801480594,45.77731261736911,
97,farmersmarket,farmers market,"Mar 27th, 2023",default-farmersmarket-4-3.jpg,313515,Great Lakes Farmers' Market,,,,,farmersmarket@milaegers.com,262-639-2040,http://www.milaegers.com/Farmers%20Market.htm,https://www.facebook.com/greatlakesmarket,,,,,,"4838 Douglas Ave., Racine, WI, 53402",Wisconsin,Racine,4838 Douglas Ave.,53402,-87.80756400563828,42.781424753058054,
98,farmersmarket,farmers market,"Mar 27th, 2023",default-farmersmarket-4-3.jpg,313516,Green Bay Farmers' Market,,,,,brehanna@downtowngreenbay.com,920-437-5972,http://www.downtowngreenbay.com/events/saturdayfarmersmarket,,,,,,,"S. Washington St. and Stuart St., Green Bay, WI, 54301",Wisconsin,Green Bay,S. Washington St. and Stuart St.,54301,-88.01765999198783,44.51203000941874,
99,farmersmarket,farmers market,"Mar 27th, 2023",default-farmersmarket-4-3.jpg,313517,Green Bay Farmers Market On Broadway,,,,,,920-437-2531,http://www.onbroadway.org/farmersmarket,,,,,,,"200 N Broadway Green Bay, WI 54303",Wisconsin,GREEN BAY,200 N BROADWAY,54303,-88.0206458877755,44.518154416563,
100,farmersmarket,farmers market,"Mar 27th, 2023",default-farmersmarket-4-3.jpg,313518,Greendale Open Market,,,,,,414-423-2790,http://gpr.greendale.k12.wi.us/open-market.html,https://www.facebook.com/pages/Greendale-Park-and-Recreation/279381508751046,,,,,,"Broad St. and Schoolway, Greendale, WI, 53129",Wisconsin,Greendale,Broad St. and Schoolway,53129,-87.996050020678,42.940599980270775,
101,farmersmarket,farmers market,"Mar 27th, 2023",default-farmersmarket-4-3.jpg,313519,Greenfield Farmers Market,,,,,,414-329-5275,http://www.greenfieldwifarmersmarket.com,http://www.facebook.com/greenfieldwifarmersmarket,,,,,,"5151 W Layton Avenue Greenfield, WI 53220 Konkel Park, parking available.",Wisconsin,GREENFIELD,5151 W LAYTON AVE,53220,-87.97911145449477,42.959393307945646,
102,farmersmarket,farmers market,"Mar 27th, 2023",default-farmersmarket-4-3.jpg,313520,Greenway Station Farmers' Market,,,,,ckautzky@greenwayshopping.com,608-824-9111,http://greenwayshopping.com/events/farmers-market/,,,,,,,"1650 Deming Way, TGI Friday's parking lot, Middleton, WI, 53562",Wisconsin,Middleton,1650 Deming Way,53562,-89.52358298863406,43.09549400373477,
103,farmersmarket,farmers market,"Mar 27th, 2023",default-farmersmarket-4-3.jpg,313521,Grow It Forward Farmers Market,,,,,,920-645-9467,http://www.grow-it-forward.org,http://www.facebook.com/growitforward.wi/,,,,,,"1501 Marshall Street Manitowoc, WI 54220",Wisconsin,MANITOWOC,1501 MARSHALL ST,54220,-87.66769819033074,44.087204863086946,
104,farmersmarket,farmers market,"Mar 27th, 2023",default-farmersmarket-4-3.jpg,313522,Hartland Farmers' Market,,,,,mikeg@villageofhartland.com,262-227-9287,http://www.villageofhartland.com,,,,,,,"Cottonwood Ave. and Pawling Ave., Hartland, WI, 53029",Wisconsin,Hartland,Cottonwood Ave. and Pawling Ave.,53029,-88.34845004060699,43.10043000760507,
105,farmersmarket,farmers market,"Mar 27th, 2023",default-farmersmarket-4-3.jpg,313523,Hayward Farmers' Market,,,,,FutilityFarms@hotmail.com,715-550-5720,,https://www.facebook.com/HaywardFarmersMarketWI,,,,,,"15886W US 63, Hayward, WI, 54843",Wisconsin,Hayward,15886W US 63,54843,-91.48411119566032,46.013305459137314,
106,farmersmarket,farmers market,"Mar 27th, 2023",default-farmersmarket-4-3.jpg,313524,Hillsboro Farmers' Market,,,,,clerk@hillsborowi.com,608-489-2521,http://www.hillsborowi.com/,,,,,,,"731 Water Ave., Hillsboro, WI, 54634",Wisconsin,Hillsboro,731 Water Ave.,54634,-90.3405548935923,43.65015244465003,
107,farmersmarket,farmers market,"Mar 27th, 2023",default-farmersmarket-4-3.jpg,313525,Hmong Mutual Assistance Association Farmers' Market,,,,,,608-781-5744,,,,,,,,"1815 Ward Ave., La Crosse, WI, 54601",Wisconsin,La Crosse,1815 Ward Ave.,54601,-91.22869061543247,43.78334792155134,
108,farmersmarket,farmers market,"Mar 27th, 2023",default-farmersmarket-4-3.jpg,313526,Jackson Park Farmers' Market,,,,,JPFarmersMarket@yahoo.com,414-687-0938,http://jacksonpark.us/farmers-market/,https://www.facebook.com/JPFarmersMarket,,,,,,"3500 W. Forest Home Ave., Milwaukee, WI, 53215",Wisconsin,Milwaukee,3500 W. Forest Home Ave.,53215,-87.9586514674382,42.99457408586316,
109,farmersmarket,farmers market,"Mar 27th, 2023",default-farmersmarket-4-3.jpg,313527,Jefferson Farmers' Market,,,,,rita@jeffersonwis.com,920-674-7720,http://www.jeffersonwis.com/,https://www.facebook.com/pages/Jefferson-Farmers-Market/186054341555070,,,,,,"105 S. Center Ave., Jefferson, WI, 53549",Wisconsin,Jefferson,105 S. Center Ave.,53549,-88.8058736530911,43.00519516269342,
110,farmersmarket,farmers market,"Mar 27th, 2023",default-farmersmarket-4-3.jpg,313528,Kaukauna Farmers' Market,,,,,farmersmarket@kaukauna-wi.org,920-766-6311,http://www.cityofkaukauna.com/departments/farmers-market,https://www.facebook.com/pages/Downtown-Kaukauna-Farmer-Market/157106097678954,,,,,,"WI-55 and E. 2nd St., Kaukauna, WI, 54130",Wisconsin,Kaukauna,WI-55 and E. 2nd St.,54130,-88.26827209999999,44.28873260000006,
111,farmersmarket,farmers market,"Mar 27th, 2023",default-farmersmarket-4-3.jpg,313529,Kenosha Farmers' Market - Baker Park,,,,,,262-605-6700,,,,,,,,"66th St. and Sheridan Rd., Kenosha, WI, 53143",Wisconsin,Kenosha,66th St. and Sheridan Rd.,53143,-87.8222700337983,42.57439002048895,
112,farmersmarket,farmers market,"Mar 27th, 2023",default-farmersmarket-4-3.jpg,313530,Kenosha Farmers' Market - Columbus Park,,,,,,262-605-6700,,,,,,,,"22nd Ave. and 54th St., Kenosha, WI, 53140",Wisconsin,Kenosha,22nd Ave. and 54th St.,53140,-87.83571997090975,42.586119991068784,
113,farmersmarket,farmers market,"Mar 27th, 2023",default-farmersmarket-4-3.jpg,313531,Kenosha Farmers' Market - Lincoln Park,,,,,,262-605-6700,,,,,,,,"18th Ave. and 70th St., Kenosha, WI, 53143",Wisconsin,Kenosha,18th Ave. and 70th St.,53143,-87.83068001634939,42.56973001759951,
114,farmersmarket,farmers market,"Mar 27th, 2023",default-farmersmarket-4-3.jpg,313532,Kenosha Farmers' Market - Pennoyer Park,,,,,,262-605-6700,,,,,,,,"35th St. and 7th Ave., Kenosha, WI, 53140",Wisconsin,Kenosha,35th St. and 7th Ave.,53140,-87.82045996180757,42.606300009696895,
115,farmersmarket,farmers market,"Mar 27th, 2023",default-farmersmarket-4-3.jpg,313533,Kenosha Harbor Market,,,,,Ray@KenoshaCommonMarkets.com,262-914-1252,http://kenoshaharbormarket.com/,https://www.facebook.com/KenoshaHarborMarket,,,,,,"2nd Ave. and 55th St., Kenosha, WI, 53140",Wisconsin,Kenosha,2nd Ave. and 55th St.,53140,-87.8138573489958,42.58647642054775,
116,farmersmarket,farmers market,"Mar 27th, 2023",default-farmersmarket-4-3.jpg,313534,Kewaskum Farm Market,,,,,,920-539-4878,,,,,,,,"1538 Fond du Lac Ave., American Legion Post, parking lot, Kewaskum, WI, 53040",Wisconsin,Kewaskum,1538 Fond du Lac Ave.,53040,-88.2307739390181,43.52354357202507,
117,farmersmarket,farmers market,"Mar 27th, 2023",default-farmersmarket-4-3.jpg,313535,Kewaunee County Farmers' Market,,,,,ruralenterprisenetwork@gmail.com,920-366-5029,http://www.kewcofarmersmarket.com/,,,,,,,"N6975 WI-42, Algoma, WI, 54201",Wisconsin,Algoma,N6975 WI-42,54201,-87.45318541763339,44.5753587042209,
118,farmersmarket,farmers market,"Mar 27th, 2023",default-farmersmarket-4-3.jpg,313536,Kiel Farmers' Market,,,,,,920-795-4550,,,,,,,,"Fremont St. and 4th St., Kiel, WI, 53042",Wisconsin,Kiel,Fremont St. and 4th St.,53042,-88.03429002316403,43.912439995404526,
119,farmersmarket,farmers market,"Mar 27th, 2023",default-farmersmarket-4-3.jpg,313537,Kronenwetter Farmers Market,,,,,,,,,,,,,,"2390 Terrebonne Drive Kronenwetter, WI 54455",Wisconsin,KRONENWETTER,2390 TERREBONNE DR,54455,-89.62428378279432,44.85348369675221,
120,farmersmarket,farmers market,"Mar 27th, 2023",default-farmersmarket-4-3.jpg,313538,Lake Geneva Farmers' Market,,,,,market@horticulturalhall.com,262-745-9341,https://www.facebook.com/LGFarmersMarket,,,,,,,"330 Broad St., Lake Geneva, WI, 53147",Wisconsin,Lake Geneva,330 Broad St.,53147,-88.43532536205707,42.59319487697956,
121,farmersmarket,farmers market,"Mar 27th, 2023",default-farmersmarket-4-3.jpg,313539,Lodi Valley Farmers' Market,,,,,gail@shopstop.net,608-643-8017,,https://www.facebook.com/pages/Lodi-Valley-Farmers-Market/117827188294375,,,,,,"902 N. Main St., Village Green, Lodi, WI, 53555",Wisconsin,Lodi,902 N. Main St.,53555,-89.53541135513173,43.321752536503624,
122,farmersmarket,farmers market,"Mar 27th, 2023",default-farmersmarket-4-3.jpg,313540,Lomira Farmers Market,,,,,,920-960-8732,http://facebook.com/lomirafarmersmarket,http://www.facebook.com/LomiraFarmersMarket,,,,,,"150 E Main St Lomira, WI 53048 Located right off of HWY 41, about a block north of McDonald's in Lomira.",Wisconsin,LOMIRA,150 MAIN ST,53048,-88.43482898203865,43.591640464099655,
123,farmersmarket,farmers market,"Mar 27th, 2023",default-farmersmarket-4-3.jpg,313541,Luxemburg Farmer's Market,,,,,,920-845-5448,http://www.luxemburgusa.com/business/farmersmarket/,,,,,,,"100 Center Dr Luxemburg, WI 54217",Wisconsin,LUXEMBURG,100 CENTER DR,54217,-87.70674398709552,44.54524179230226,
124,farmersmarket,farmers market,"Mar 27th, 2023",default-farmersmarket-4-3.jpg,313542,Madeline Island Farmers' Market,,,,,info@angelacresfarm.net,715-765-4298,http://madelineisland.chambermaster.com/list/member/madeline-island-farmer-s-market-160,,,,,,,"Main St. at Le Seur, Across the street from the ferry office, La Pointe, WI, 54850",Wisconsin,La Pointe,Main St. at Le Seur,54850,-90.78814000393643,46.77947001847414,
125,farmersmarket,farmers market,"Mar 27th, 2023",default-farmersmarket-4-3.jpg,313543,Main Street Marshfield Downtown Farmers Market,,,,,,715-387-3299,http://www.mainstreetmarshfield.com,,,,,,,"139 South Central Avenue Marshfield, WI 54449",Wisconsin,MARSHFIELD,139 S CENTRAL AVE,54449,-90.17391978956462,44.666259124462904,
126,farmersmarket,farmers market,"Mar 27th, 2023",default-farmersmarket-4-3.jpg,313544,Main Street Marshfield Farmers' Market,,,,,info@mainstreetmarshfield.com,715-387-3299,http://mainstreetmarshfield.com/,https://www.facebook.com/Mainstreetmarshfield,,,,,,"641 S. Central Ave., Marshfield, WI, 54449",Wisconsin,Marshfield,641 S. Central Ave.,54449,-90.17694338881226,44.661947213017406,
127,farmersmarket,farmers market,"Mar 27th, 2023",default-farmersmarket-4-3.jpg,313545,Manitowoc Farmers' Market,,,,,lmueller@manitowoc.org,920-686-6930,,http://www.manitowoc.org/,,,,,,"Quay St. and 8th St., Manitowoc, WI, 54220",Wisconsin,Manitowoc,Quay St. and 8th St.,54220,-87.65775003827072,44.091189989862585,
128,farmersmarket,farmers market,"Mar 27th, 2023",default-farmersmarket-4-3.jpg,313546,Manitowoc Festival Foods Market,,,,,GFREY@FESTFOODS.COM,920-645-6880,,,,,,,,"2151 S. 42nd St., Manitowoc, WI, 54220",Wisconsin,Manitowoc,2151 S. 42nd St.,54220,-87.69959874459234,44.089407016872265,
129,farmersmarket,farmers market,"Mar 27th, 2023",default-farmersmarket-4-3.jpg,313547,Marketplace Thursdays,,,,,ExecDir@wausauevents.org,715-297-9531,http://www.wausauevents.org/marketplace-thursdays.html,,,,,,,"316 Scott St., 400 BLOCK, Wausau, WI, 54403",Wisconsin,Wausau,"316 Scott St., 400 BLOCK",54403,-89.62754782444166,44.96062032044264,
130,farmersmarket,farmers market,"Mar 27th, 2023",default-farmersmarket-4-3.jpg,313548,McFarland Farmers Market,,,,,,608-873-9443,,,,,,,,"5709 US Highway 51 McFarland, WI 53589",Wisconsin,MCFARLAND,5709 US HWY 51,53558,-89.30022615542146,43.01860807448778,
131,farmersmarket,farmers market,"Mar 27th, 2023",default-farmersmarket-4-3.jpg,313549,Menasha Farm Fresh Market,,,,,,920-967-3644,,http://www.facebook.com/menashafarmfreshmarket,,,,,,"140 Main Street (terrace in front of the Marina) Menasha, WI 54952 You can park on Main St. and step out of your car and right into the market!",Wisconsin,MENASHA,140 MAIN ST,54952,-88.45039764537165,44.200409354169686,
132,farmersmarket,farmers market,"Mar 27th, 2023",default-farmersmarket-4-3.jpg,313550,Menomonee Falls Farmers' Market,,,,,vcmenfalls@wi.rr.com,262-251-8797,http://www.menomoneefallsdowntown.com/,,,,,,,"Main St. and Appleton St., Menomonee Falls, WI, 53051",Wisconsin,Menomonee Falls,Main St. and Appleton St.,53051,-88.11728000087537,43.17886002044139,
133,farmersmarket,farmers market,"Mar 27th, 2023",default-farmersmarket-4-3.jpg,313551,Merrill Area Farmers' Market,,,,,kzelinski@merrillchamber.com,715-536-9474,,https://www.facebook.com/MerrillAreaFarmersMarket,,,,,,"600 Center Ave., Merrill, WI, 54452",Wisconsin,Merrill,600 Center Ave.,54452,-89.68313334881682,45.17570940711454,
134,farmersmarket,farmers market,"Mar 27th, 2023",default-farmersmarket-4-3.jpg,313552,Milwaukee County Winter Farmers' Market,,,,,deb@mcwfm.org,262-893-5978,http://www.mcwfm.org/,,,,,,,"524 S. Layton Blvd., Mitchell Park Domes, Milwaukee, WI, 53215",Wisconsin,Milwaukee,524 S. Layton Blvd,53215,-87.94776142565907,43.02680068916735,
135,farmersmarket,farmers market,"Mar 27th, 2023",default-farmersmarket-4-3.jpg,313553,Milwaukee Public Market,,,,,,414-336-1111,http://www.milwaukeepublicmarket.org,,,,,,,"400 N. Water Street Milwaukee, WI 53202",Wisconsin,MILWAUKEE,400 N WATER ST,53202,-87.90875138221925,43.03499632792372,
136,farmersmarket,farmers market,"Mar 27th, 2023",default-farmersmarket-4-3.jpg,313554,Milwaukee Riverwest Gardeners' Market,,,,,info@riverwestmarket.com,414-265-7278,https://riverwestmarket.wordpress.com/,https://www.facebook.com/RiverwestMarket,,,,,,"821 E. Locust St., Garden Park, Milwaukee, WI, 53212",Wisconsin,Milwaukee,821 E. Locust St.,53212,-87.9012271615249,43.07110560209092,
137,farmersmarket,farmers market,"Mar 27th, 2023",default-farmersmarket-4-3.jpg,313555,Mineral Point Farmers' Market,,,,,info@mineralpoint.com,608-987-2097,http://www.mineralpointmarket.com/,https://www.facebook.com/pages/Mineral-Point-Market/208185289219556,,,,,,"Madison St. and Ridge St., Watertower Park, Mineral Point, WI, 53565",Wisconsin,Mineral Point,Madison St. and Ridge St.,53565,-90.18727377096853,42.86315217400842,
138,farmersmarket,farmers market,"Mar 27th, 2023",default-farmersmarket-4-3.jpg,313556,Monroe Farmers' Market on the Square,,,,,monroemainstreet@tds.net,608-214-1330,,https://www.facebook.com/monroewifarmersmarket,,,,,,"1717 10th St., Monroe, WI, 53566",Wisconsin,Monroe,1717 10th St.,53566,-89.63845510871622,42.60211668483396,
139,farmersmarket,farmers market,"Mar 27th, 2023",default-farmersmarket-4-3.jpg,313557,Mount Horeb Farmers' Market,,,,,mthorebfarmersmarket@gmail.com,608-437-5914,http://www.mthorebfarmersmarket.com/,https://www.facebook.com/pages/Mount-Horeb-Farmers-Market/116716985027651,,,,,,"315 E. Main St., Mount Horeb, WI, 53572",Wisconsin,Mount Horeb,315 E. Main St.,53572,-89.73633699911139,43.008658803941124,
140,farmersmarket,farmers market,"Mar 27th, 2023",default-farmersmarket-4-3.jpg,313558,Mt. Horeb Farmers Market,,,,,,,,,,,,,,"401 East Main Street Mt. Horeb, WI 53572",Wisconsin,MOUNT HOREB,401 E MAIN ST,53572,-89.73478456762815,43.008665742980156,
141,farmersmarket,farmers market,"Mar 27th, 2023",default-farmersmarket-4-3.jpg,313559,Mukwonago Area Farmers' Market,,,,,assistant@mukwonagochamber.org,262-363-7758,http://www.mukwonagochamber.org,,,,,,,"933 N. Rochester St., Field Park, Mukwonago, WI, 53149",Wisconsin,Mukwonago,933 N. Rochester St.,53149,-88.33838798494003,42.87274998280813,
142,farmersmarket,farmers market,"Mar 27th, 2023",default-farmersmarket-4-3.jpg,313560,Muskego Green Market,,,,,muskegogreenmarket@gmail.com,414-520-7071,,https://www.facebook.com/MuskegoGreenMarket,,,,,,"S73W16663 Janesville Rd., Muskego Public Library, Muskego, WI, 53150",Wisconsin,Muskego,S73W16663 Janesville Rd.,53150,-88.12188924540962,42.91162894181805,
143,farmersmarket,farmers market,"Mar 27th, 2023",default-farmersmarket-4-3.jpg,313561,New Berlin Farmers' Market,,,,,office@newberlinchamber.org,262-786-5280,http://www.newberlinchamber.org/farmers-market,https://www.facebook.com/pages/New-Berlin-Farmers-Market/140839852645248,,,,,,"16300 W. National Ave., New Berlin, WI, 53146",Wisconsin,New Berlin,16300 W. National Ave.,53146,-88.11634484340952,42.970887015147035,
144,farmersmarket,farmers market,"Mar 27th, 2023",default-farmersmarket-4-3.jpg,313562,New Holstein Farmers' Market,,,,,NH_EBERT@YAHOO.COM,920-464-0323,,,,,,,,"2245 Calumet Dr., Tractor Supply Parking Lot, New Holstein, WI, 53061",Wisconsin,New Holstein,2245 Calumet Dr,53061,-88.10183164527882,43.95229898365314,
145,farmersmarket,farmers market,"Mar 27th, 2023",default-farmersmarket-4-3.jpg,313563,New Richmond Farmers' Market,,,,,info@NRHeritageCenter.org,715-246-3276,http://nrheritagecenter.org/calendar.htm,https://www.facebook.com/pages/New-Richmond-Heritage-Center/170936509610807,,,,,,"1100 Heritage Dr., New Richmond, WI, 54017",Wisconsin,New Richmond,1100 Heritage Dr.,54017,-92.53621651462822,45.10903734056424,
146,farmersmarket,farmers market,"Mar 27th, 2023",default-farmersmarket-4-3.jpg,313564,Northwind Perennial Farm Market,,,,,,262-248-8229,http://www.northwindperennialfarm.com,,,,,,,"7047 Hospital Road Burlington, WI 53105",Wisconsin,BURLINGTON,7047 HOSPITAL RD,53105,-88.4081309194157,42.65465878886808,
147,farmersmarket,farmers market,"Mar 27th, 2023",default-farmersmarket-4-3.jpg,313565,Oconomowoc Chamber Farmers Market,,,,,,262-567-2666,http://oconomowoc.org,,,,,,,"210 E.. Pleasant Street Oconomowoc, WI 53066",Wisconsin,OCONOMOWOC,210 E PLEASANT AVE,53066,-88.49600494285428,43.11120960701459,
148,farmersmarket,farmers market,"Mar 27th, 2023",default-farmersmarket-4-3.jpg,313566,Oconomowoc Farmers' Market,,,,,joellen@oconomowoc.org,262-567-2666,http://www.oconomowoc.org/events/summer-farmers-market/,,,,,,,"175 E. Wisconsin Ave., Oconomowoc, WI, 53066",Wisconsin,Oconomowoc,175 E. Wisconsin Ave.,53066,-88.49722262871474,43.11054487488656,
149,farmersmarket,farmers market,"Mar 27th, 2023",default-farmersmarket-4-3.jpg,313567,Oconomowoc Mid-Week Marketplace,,,,,joellen@oconomowoc.org,262-567-2666,http://www.oconomowoc.org/events/midweek-marketplace/,,,,,,,"Main St. & Wisconsin Ave., Village Green, Oconomowoc, WI, 53066",Wisconsin,Oconomowoc,Main St. & Wisconsin Ave.,53066,-88.49945002631259,43.111399991024,
150,farmersmarket,farmers market,"Mar 27th, 2023",default-farmersmarket-4-3.jpg,313568,Omro Thursday Night Market,,,,,dracine@omro-wi.com,920-685-7005x22,http://www.futureomro.org/thursday-night-market.html,https://www.facebook.com/pages/Omro-Thursday-Night-Market/113528408690777,,,,,,"Scott Park, Omro, WI, 54963",Wisconsin,Omro,Scott Park,54963,-88.7454302058591,44.033353394480194,
151,farmersmarket,farmers market,"Mar 27th, 2023",default-farmersmarket-4-3.jpg,313569,Oregon Farmers Market,,,,,,,,,,,,,,"787 N. Main St. Oregon, WI 53575",Wisconsin,OREGON,787 N MAIN ST,53575,-89.3833934685597,42.937634654362874,
152,farmersmarket,farmers market,"Mar 27th, 2023",default-farmersmarket-4-3.jpg,313570,Oshkosh Farmers Market,,,,,,920-509-1830,http://www.OSFMI.com,http://www.facebook.com/OshkoshFamersMarkets,,,,,,"108 W New York Ave - Merrill Middle School, Multi-Purpose Room Oshkosh, WI 54901 Merrill Middle School, Multi-Purpose Room, Door 23",Wisconsin,OSHKOSH,108 W NEW YORK AVE,54901,-88.53933763708295,44.03215482751355,
153,farmersmarket,farmers market,"Mar 27th, 2023",default-farmersmarket-4-3.jpg,313571,Oshkosh Farmers' Market in the Park,,,,,DLKBLeatherman@sbcglobal.net,920-252-2533,http://www.osfmi.com/,https://www.facebook.com/pages/Oshkosh-Saturday-Farmers-Market-Inc/178755502224704,,,,,,"South Park Ave. & Georgia St., Oshkosh, WI, 54902",Wisconsin,Oshkosh,South Park Ave. & Georgia St.,54902,-88.55749001193675,44.005310015755384,
154,farmersmarket,farmers market,"Mar 27th, 2023",default-farmersmarket-4-3.jpg,313572,Oshkosh Winter Farmers' Market,,,,,DLKBLeatherman@sbcglobal.net,920-252-2533,http://www.osfmi.com/,https://www.facebook.com/pages/Oshkosh-Saturday-Farmers-Market-Inc/178755502224704,,,,,,"108 W. New York Ave., Merrill Middle School, Oshkosh, WI, 54901",Wisconsin,Oshkosh,108 W. New York Ave.,54901,-88.53933763708295,44.03215482751355,
155,farmersmarket,farmers market,"Mar 27th, 2023",default-farmersmarket-4-3.jpg,313573,Park Falls Farmers' Market,,,,,parkfallsfarmersmarket@gmail.com,715-762-7457,,https://www.facebook.com/pages/Park-Falls-Farmers-Market/845928862102132,,,,,,"1185 S. 4th Ave., Park Falls, WI, 54552",Wisconsin,Park Falls,1185 S. 4th Ave.,54552,-90.45103405448745,45.92051573671555,
156,farmersmarket,farmers market,"Mar 27th, 2023",default-farmersmarket-4-3.jpg,313574,Peach Street Farmers' Market,,,,,carrie.engelbright@mstc.edu,715-422-5624,,https://www.facebook.com/PeachSt.FarmersMarket,,,,,,"2031 Peach St., Wisconsin Rapids, WI, 54494",Wisconsin,Wisconsin Rapids,2031 Peach St.,54494,-89.80123703824414,44.388246985333154,
157,farmersmarket,farmers market,"Mar 27th, 2023",default-farmersmarket-4-3.jpg,313575,Phillips Farmers' Market,,,,,tourism@co.price.wi.us,715-339-6516,http://co.price.wi.us/801/Phillips-Farmers-Market,,,,,,,"Maple St. and S. Avon Ave., Phillips, WI, 54555",Wisconsin,Phillips,Maple St. and S. Avon Ave.,54555,-90.3959299672376,45.68742001694042,
158,farmersmarket,farmers market,"Mar 27th, 2023",default-farmersmarket-4-3.jpg,313576,Port Washington Farmers' Market,,,,,director@gmail.com,262-268-1132,http://www.visitportwashington.com/events/,,,,,,,"Main St. and Franklin St., Port Washington, WI, 53074",Wisconsin,Port Washington,Main St. and Franklin St.,53074,-87.86928999604159,43.38850998477474,
159,farmersmarket,farmers market,"Mar 27th, 2023",default-farmersmarket-4-3.jpg,313577,Port Washington Winter Farmers' Market,,,,,portwinter@portfish.org,414-202-7840,http://portfish.org/winter-farmers-market/,https://www.facebook.com/portwashingtonwinterfarmersmarket,,,,,,"131 N. Webster St., Port Washington, WI, 53074",Wisconsin,Port Washington,131 N. Webster St.,53074,-87.87579416703478,43.389881890562734,
160,farmersmarket,farmers market,"Mar 27th, 2023",default-farmersmarket-4-3.jpg,313578,Portage Farmers' Market,,,,,pacc@portagewi.com,608-617-9232,http://business.portagewi.com/events/,,,,,,,"Cook St. and Wisconsin St., Portage, WI, 53901",Wisconsin,Portage,Cook St. and Wisconsin St.,53901,-89.46133996800582,43.539419990749764,
161,farmersmarket,farmers market,"Mar 27th, 2023",default-farmersmarket-4-3.jpg,313579,Poynette Area Farmers' Market,,,,,poyfrmkt@hotmail.com,920-992-3742,,https://www.facebook.com/pages/Poynette-Area-Farmers-Market/125612187478803,,,,,,"106 S. Main St., Poynette, WI, 53955",Wisconsin,Poynette,106 S. Main St.,53955,-89.40274933112413,43.39120749473151,
162,farmersmarket,farmers market,"Mar 27th, 2023",default-farmersmarket-4-3.jpg,313580,Princeton Farm to Fork Farmers' Market,,,,,chamber@princetonwi.com,920-960-5481,http://www.princetonwi.com/,,,,,,,"400 S. Fulton St., Princeton, WI, 54968",Wisconsin,Princeton,400 S. Fulton St.,54968,-89.12287554725567,43.84718387654501,
163,farmersmarket,farmers market,"Mar 27th, 2023",default-farmersmarket-4-3.jpg,313581,"Racine County Indoor Outdoor Farmers Market, LLC",,,,,,262-914-0560,http://rciofm.com,,,,,,,"1614 South Street racine, WI 53402",Wisconsin,RACINE,1614 SOUTH ST,53402,-87.80141490691594,42.759129464837606,
164,farmersmarket,farmers market,"Mar 27th, 2023",default-farmersmarket-4-3.jpg,313582,Racine Farmers' Market,,,,,hfannin@wi.rr.com,262-886-3284,,https://www.facebook.com/RacineFarmersMarkets,,,,,,"1015 4 Mile Rd., St Andrew Lutheran Church, Racine, WI, 53402",Wisconsin,Racine,1015 4 Mile Rd.,53402,-87.79225896475477,42.78388399760419,
165,farmersmarket,farmers market,"Mar 27th, 2023",default-farmersmarket-4-3.jpg,313583,Reedsburg Area Medical Center Farmers' Market,,,,,PPETERSON@RAMCHEALTH.ORG,,http://www.reedsburg.org/pages/FarmersMarket1,,,,,,,"222 N. Park St., City Park, Reedsburg, WI, 53959",Wisconsin,Reedsburg,222 N. Park St.,53959,-90.00659627933511,43.53307491708362,
166,farmersmarket,farmers market,"Mar 27th, 2023",default-farmersmarket-4-3.jpg,313584,Rice Lake Farmers' Market,,,,,barbv@chibardun.net,715-357-3060,,https://www.facebook.com/RiceLakeFarmersMarket,,,,,,"2601 S. Main St., Gordy's County Market Parking Lot, Rice Lake, WI, 54868",Wisconsin,Rice Lake,2601 S. Main St.,54868,-91.73342195885881,45.47367100858767,
167,farmersmarket,farmers market,"Mar 27th, 2023",default-farmersmarket-4-3.jpg,313585,Richland Area Farmers' Market,,,,,Swansonpc@mwt.net,608-627-1799,http://www.richlandareafarmersmarket.org/,https://www.facebook.com/pages/RICHLAND-AREA-FARMERS-MARKET/10150099096045319,,,,,,"181 W. Seminary St., Richland County Courthouse, Richland Center, WI, 53581",Wisconsin,Richland Center,181 W. Seminary St.,53581,-90.38637031294888,43.33464850784629,
168,farmersmarket,farmers market,"Mar 27th, 2023",default-farmersmarket-4-3.jpg,313586,River Falls Farmers Market,,,,,,715-220-6308,,http://www.facebook.com/pages/River-Falls-Farmers-Market/104782026231449,,,,,,"1121 S Main St at Dick's Fresh Market River Falls, WI 54022 The market is located at Dick's Fresh Market, on Highway 29 across from Hunt Arena.",Wisconsin,RIVER FALLS,1121 S MAIN ST,54022,-92.62933978865269,44.84621373110885,
169,farmersmarket,farmers market,"Mar 27th, 2023",default-farmersmarket-4-3.jpg,313587,Rock County Farmers' Market,,,,,coltagent52@gmail.com,608-449-4900,http://www.rockcountyfarmersmarket.com/,,,,,,,"5013 Hwy. 11 W., Janesville, WI, 53548",Wisconsin,Janesville,5013 Hwy. 11 W.,53548,-89.09891540073225,42.67802717243938,
170,farmersmarket,farmers market,"Mar 27th, 2023",default-farmersmarket-4-3.jpg,313588,Rome Farmers Market,,,,,,,,http://www.facebook.com/romefarmersmarket,,,,,,"251 State Hwy 13 (Alpine Business Park) Rome, WI 54457 Just south of Alpine (Co. Hwy D) on Hwy 13. Watch for our banner at the business park entrance-- we are right in the middle of the tree-lined par",Wisconsin,NEKOOSA,251 STATE HWY 13,54457,-89.8082445444099,44.20610434928896,
171,farmersmarket,farmers market,"Mar 27th, 2023",default-farmersmarket-4-3.jpg,313589,Roosevelt Farmers Market,,,,,,920-379-9063,http://RooseveltPTO.net,,,,,,,"910 N Sawyer St oshkosh, WI 54902",Wisconsin,OSHKOSH,910 N SAWYER ST,54902,-88.5671276268294,44.02888843367028,
172,farmersmarket,farmers market,"Mar 27th, 2023",default-farmersmarket-4-3.jpg,313590,Sheboygan Farmers' Market,,,,,scio.judy@gmail.com,920-457-7272x11,http://sheboygancountyinterfaith.org/farmers-market.html,,,,,,,"Corner of 8th St. and Erie Ave., Fountain Park, Sheboygan, WI, 53081",Wisconsin,Sheboygan,Corner of 8th St. and Erie Ave.,53081,-87.71293003471239,43.75633999880233,
173,farmersmarket,farmers market,"Mar 27th, 2023",default-farmersmarket-4-3.jpg,313591,Sheboygan Winter Farmers' Market,,,,,scio.judy@gmail.com,920-457-7272x111,http://sheboygancountyinterfaith.org/farmers-market.html,,,,,,,"310 Bluff Ave., First Congregational Church U.C.C., Sheboygan, WI, 53081",Wisconsin,Sheboygan,310 Bluff Ave.,53081,-87.70482111822322,43.766515232928576,
174,farmersmarket,farmers market,"Mar 27th, 2023",default-farmersmarket-4-3.jpg,313592,Siren - Burnett County Farmers' Markets,,,,,,715-349-5845,,http://www.facebook.com/pages/Burnett-County-Farmers-Markets/250874305027758,,,,,,"23985 WI-35 Siren, WI 54872 Tesora Restaurant parking lot",Wisconsin,SIREN,23985 STATE HWY 35,54872,-92.38100744820484,45.78407560315461,
175,farmersmarket,farmers market,"Mar 27th, 2023",default-farmersmarket-4-3.jpg,313593,Somerset Farmers Market & Craft,,,,,,651-329-6042,,,,,,,,"520 Main Street Somerset , WI 54025",Wisconsin,SOMERSET,520 MAIN ST,54025,-92.68371549133187,45.123127199598315,
176,farmersmarket,farmers market,"Mar 27th, 2023",default-farmersmarket-4-3.jpg,313594,South Madison Community Market,,,,,,,,,,,,,,"2300 S. Park St. Madison, WI 53713",Wisconsin,MADISON,2300 S PARK ST,53713,-89.39402902322506,43.041085716717575,
177,farmersmarket,farmers market,"Mar 27th, 2023",default-farmersmarket-4-3.jpg,313595,South Madison Farmers' Market,,,,,info@growingpowermadison.org,,http://southmadisonfarmersmarket.com/,https://www.facebook.com/SouthMadisonFarmersMarket,,,,,,"202 S. Park St., Madison, WI, 53715",Wisconsin,Madison,202 S. Park St.,53715,-89.40077377885831,43.06550938620332,
178,farmersmarket,farmers market,"Mar 27th, 2023",default-farmersmarket-4-3.jpg,313596,South Shore Farmers Market,,,,,,,http://southshorefarmersmarket.wordpress.com/,,,,,,,"2900 South Shore Drive Milwaukee, WI 53207",Wisconsin,MILWAUKEE,2900 S SHORE DR,53207,-87.88042246131498,42.992976983864,
179,farmersmarket,farmers market,"Mar 27th, 2023",default-farmersmarket-4-3.jpg,313597,Southern Price County Farmers' Market,,,,,,715-474-6713,http://www.pricecountywi.net/802/Southern-Price-County-Farmers-Market,,,,,,,"W9149 US Hwy. 8, Catawba Farm Supply / C-Store, Catawba, WI, 54515",Wisconsin,Catawba,W9149 US Hwy. 8,54515,-90.52715115826524,45.5364582433085,
180,farmersmarket,farmers market,"Mar 27th, 2023",default-farmersmarket-4-3.jpg,313598,Spring Valley Farmers' Market,,,,,kathyapple9@netscape.net,715-722-4541,http://www.piercecountywi.com,,,,,,,"W2555 State Rd. 29 , Team Oil Travel Center, Spring Valley, WI, 54767",Wisconsin,Spring Valley,W2555 State Rd. 29,54767,-92.26369896367915,44.830705694615055,
181,farmersmarket,farmers market,"Mar 27th, 2023",default-farmersmarket-4-3.jpg,313599,St. Andrew Farmers Market,,,,,,262-515-6322,http://www.standrewracine.com/,http://www.facebook.com/StAndrewFarmersMarket,,,,,,"1015 4 Mile Rd Racine, WI 53402",Wisconsin,RACINE,1015 FOUR MILE RD,53402,-87.7917257023648,42.7845000690092,
182,farmersmarket,farmers market,"Mar 27th, 2023",default-farmersmarket-4-3.jpg,313600,St. Croix Falls Farmers Market,,,,,,651-366-0679,,,,,,,,"210 N. Washington Street St. Croix Falls, WI 54024",Wisconsin,SAINT CROIX FALLS,210 N WASHINGTON ST,54024,-92.64482571468817,45.412733143203695,
183,farmersmarket,farmers market,"Mar 27th, 2023",default-farmersmarket-4-3.jpg,313601,St. John's Farmers' Market,,,,,,262-872-0278,http://www.stjohnsmarket.org,,,,,,,"701 N. Lake Ave Twin Lakes, WI 53181",Wisconsin,TWIN LAKES,701 N LAKE AVE,53181,-88.24655894520527,42.53835113734729,
184,farmersmarket,farmers market,"Mar 27th, 2023",default-farmersmarket-4-3.jpg,313602,Star Prairie Farmers' Market,,,,,,612-616-2546,,https://www.facebook.com/StarPrairieFarmersMarket,,,,,,"270 Main St., Village Public Parking Lot, Star Prairie, WI, 54026",Wisconsin,Star Prairie,270 Main St.,54026,-92.53099435670147,45.19660299198593,
185,farmersmarket,farmers market,"Mar 27th, 2023",default-farmersmarket-4-3.jpg,313603,Stevens Point Farmers' Market,,,,,Daniel@DanielMielke.com,715-344-4104,http://www.stevenspointfarmersmarket.org/,,,,,,,"2nd St. and Main St., Stevens Point, WI, 54481",Wisconsin,Stevens Point,2nd St. and Main St.,54481,-89.585700002306,44.52324998309987,
186,farmersmarket,farmers market,"Mar 27th, 2023",default-farmersmarket-4-3.jpg,313604,Stoughton Community Farmers' Market,,,,,,608-213-2307,,https://www.facebook.com/stoughtoncommunityfarmersmarket,,,,,,"207 S. Forrest St., Stoughton, WI, 53589",Wisconsin,Stoughton,207 S. Forrest St.,53589,-89.21913009918438,42.91717537523195,
187,farmersmarket,farmers market,"Mar 27th, 2023",default-farmersmarket-4-3.jpg,313605,Stoughton Farmers Market,,,,,,,,,,,,,,"1050 W. Main St., Stoughton Plaza Stoughton, WI 53589",Wisconsin,STOUGHTON,1050 W MAIN ST,53589,-89.23342517418394,42.91676052850209,
188,farmersmarket,farmers market,"Mar 27th, 2023",default-farmersmarket-4-3.jpg,313606,Sturgeon Bay Farm and Craft Market,,,,,jlenius@sturgeonbaywi.org,920-746-2914,http://www.sturgeonbaywi.org,,,,,,,"421 Michigan St., Sturgeon Bay, WI, 54235",Wisconsin,Sturgeon Bay,421 Michigan St.,54235,-87.37478518772411,44.83494498995714,
189,farmersmarket,farmers market,"Mar 27th, 2023",default-farmersmarket-4-3.jpg,313607,Sturtevant Farmer's Market,,,,,,262-260-8224,,,,,,,,"8505 Durand Ave Sturtevant, WI 53177",Wisconsin,STURTEVANT,8505 DURAND AVE,53177,-87.88686071822971,42.697829650365584,
190,farmersmarket,farmers market,"Mar 27th, 2023",default-farmersmarket-4-3.jpg,313608,Sun Prairie Farmers' Market,,,,,spfm300@yahoo.com,608-332-3843,http://www.sunprairiefarmersmarket.com/,https://www.facebook.com/SunPrairieFarmersMarket,,,,,,"301 Blankenheim Ln., Colonial Club Cremer Auditorium, Sun Prairie, WI, 53590",Wisconsin,Sun Prairie,301 Blankenheim Ln,53590,-89.20619050523548,43.18308683677053,
191,farmersmarket,farmers market,"Mar 27th, 2023",default-farmersmarket-4-3.jpg,313609,Superior Downtown Farmers' Market,,,,,,715-372-8441,,http://www.facebook.com/SuperiorDowntownFarmers'Market,,,,,,"1215 Banks Ave. Superior, WI 54880 Due to road construction, the Superior Downtown Farmers' Market has moved from the public library to the 1200 block of Banks Ave. There is ample, free, accessible p",Wisconsin,SUPERIOR,1215 BANKS AVE,54880,-92.10545277542286,46.724041020150025,
192,farmersmarket,farmers market,"Mar 27th, 2023",default-farmersmarket-4-3.jpg,313610,Superior Farmers' Market,,,,,info@superiorbid.com,,http://www.superiorbid.com/,https://www.facebook.com/Superior-Downtown-Farmers-Market-168331959891730,,,,,,"1530 Tower Ave., North parking lot of the Superior Public Library, Superior, WI, 54880",Wisconsin,Superior,1530 Tower Ave.,54880,-92.1038988187891,46.72021922964581,
193,farmersmarket,farmers market,"Mar 27th, 2023",default-farmersmarket-4-3.jpg,313611,Sustain Greenville Farmers' Market,,,,,,,http://www.sustaingreenville.org/5.html,https://www.facebook.com/Sustain.Greenville.Farmers.Market,,,,,,"Hwy. 76 and Parkview , sight of old Greenville Florist, Greenville, WI, 54942",Wisconsin,Greenville,Hwy. 76 and Parkview,54942,-88.53649996618577,44.30266000065146,
194,farmersmarket,farmers market,"Mar 27th, 2023",default-farmersmarket-4-3.jpg,313612,The Beaver Dam Farmers' Market,,,,,,920-887-8879,http://beaverdamchamber.com/farmersmarket,http://www.facebook.com/groups/2350698585151954,,,,,,"204 S Center Street Beaver Dam, WI 53916 DOWNTOWN BEAVER DAM ON THE CORNER OF CENTER STREET AND RYAN CANTAFIO BLVD. Across from The Watermark at 209 S. Center St.",Wisconsin,BEAVER DAM,204 S CENTER ST,53916,-88.83932849984089,43.45531426815047,
195,farmersmarket,farmers market,"Mar 27th, 2023",default-farmersmarket-4-3.jpg,313613,Thiensville Farmers' Market,,,,,ThiensvilleFM@gmail.com,262-242-3720,,https://www.facebook.com/ThiensvilleVillageMarket,,,,,,"250 Elm St., Thiensville, WI, 53092",Wisconsin,Thiensville,250 Elm St.,53092,-87.9794041454229,43.23215735539192,
196,farmersmarket,farmers market,"Mar 27th, 2023",default-farmersmarket-4-3.jpg,313614,Tomahawk Main Street Farmers Market,,,,,director@tomahawkmainstreet.org,715-453-1090,http://www.tomahawkmainstreet.org,,,,,,,"W. Wisconsin Ave. and N. 3rd St., Tomahawk, WI, 54487",Wisconsin,Tomahawk,W. Wisconsin Ave. and N. 3rd St.,54487,-89.73216051667089,45.470969313066284,
197,farmersmarket,farmers market,"Mar 27th, 2023",default-farmersmarket-4-3.jpg,313615,Tuesday Eastside Farmers' Market,,,,,,608-251-6776,http://willystreet.coop/ESFM,,,,,,,"953 Jenifer St. Madison, WI 53703",Wisconsin,MADISON,953 JENIFER ST,53703,-89.36786197135231,43.079500902410594,
198,farmersmarket,farmers market,"Mar 27th, 2023",default-farmersmarket-4-3.jpg,313616,Turner's Corners Hwy 12 Growers Farmers Market,,,,,,,,,,,,,,"413 Hwy 12 Baraboo, WI 53913",Wisconsin,BARABOO,413 12TH ST,53913,-89.73685462634852,43.478511631082256,
199,farmersmarket,farmers market,"Mar 27th, 2023",default-farmersmarket-4-3.jpg,313617,Two Rivers Farmers' & Crafters' Market,,,,,office@tworiversmainstreet.com,920-794-1482,http://tworiversmainstreet.com/market/,,,,,,,"18th St. and W. Park St., West Central Park, Two Rivers, WI, 54241",Wisconsin,Two Rivers,18th St. and W. Park St.,54241,-87.568819973417,44.149679999868226,
200,farmersmarket,farmers market,"Mar 27th, 2023",default-farmersmarket-4-3.jpg,313618,Union Grove Farmers' Market,,,,,ugchamber@att.net,262-878-4606,http://www.uniongrove.net/tidbits-2/union-grove-farmers-market,https://www.facebook.com/UnionGroveFarmersMarket,,,,,,"Main St. at 10th Ave., Village Square Park , Union Grove, WI, 53182",Wisconsin,Union Grove,Main St. at 10th Ave.,53182,-88.05186997542711,42.68798999613523,
201,farmersmarket,farmers market,"Mar 27th, 2023",default-farmersmarket-4-3.jpg,313619,Upper Northwoods Farmers Market,,,,,,715-943-2349,http://www.livingfaithchurchwi.org,,,,,,,"1237 Hwy 40 Exeland, WI 54835",Wisconsin,EXELAND,1237 STATE HWY 40,54835,-91.21488218072085,45.67994082659369,
202,farmersmarket,farmers market,"Mar 27th, 2023",default-farmersmarket-4-3.jpg,313620,Verona Downtown Farmers Market,,,,,,608-845-5777,http://www.veronadowntownfarmersmarket.com,http://www.facebook.com/VeronaDowntownFarmersMarket,,,,,,"101 W. Railroad St. Verona, WI 53593 Off Street Parking available on Railroad St. Street parking available on Main Street",Wisconsin,VERONA,101 W RAILROAD ST,53593,-89.53357799834048,42.98788338787159,
203,farmersmarket,farmers market,"Mar 27th, 2023",default-farmersmarket-4-3.jpg,313621,Verona Farmers' Market,,,,,Email not found,608-558-5566,http://veronafarmersmarket.weebly.com,,,,,,,"Hometown Junction Park, Verona, WI, 53593",Wisconsin,Verona,Hometown Junction Park,53593,-89.52095550862231,42.99453271552116,
204,farmersmarket,farmers market,"Mar 27th, 2023",default-farmersmarket-4-3.jpg,313622,VIllage Shopping Center Friday Farmers Market,,,,,,608-788-7555,http://thevillagelacrosse.com,,,,,,,"2418 State Road La Crosse, WI 54601",Wisconsin,LA CROSSE,2418 STATE RD,54601,-91.21944171899219,43.79656298245156,
205,farmersmarket,farmers market,"Mar 27th, 2023",default-farmersmarket-4-3.jpg,313623,Viroqua Farmers Market,,,,,,608-637-2575,,http://www.facebook.com/pages/Viroqua-Farmers-Market/186991791158,,,,,,"116 S Rock Ave Viroqua, WI 54665",Wisconsin,VIROQUA,116 S ROCK AVE,54665,-90.890581836706,43.55598985318978,
206,farmersmarket,farmers market,"Mar 27th, 2023",default-farmersmarket-4-3.jpg,313624,Viroqua Public Market,,,,,,608-637-1912,http://ViroquaPublicMarket.com,,,,,,,"215 South Main Street Viroqua, WI 54665",Wisconsin,VIROQUA,215 S MAIN ST,54665,-90.88932137583062,43.555073108563604,
207,farmersmarket,farmers market,"Mar 27th, 2023",default-farmersmarket-4-3.jpg,313625,VirtuMarket Waterloo Producer's Market,,,,,,608-332-6434,,http://www.facebook.com/VirtuMarket.net,,,,,,"100 Block South Monroe St Waterloo, WI 53594 Market is held in the cul-de-sac at the end of the 100 block of South Monroe Street, downtown Waterloo",Wisconsin,WATERLOO,100 S MONROE ST,53594,-88.99042783970454,43.18305928210442,
208,farmersmarket,farmers market,"Mar 27th, 2023",default-farmersmarket-4-3.jpg,313626,Vliet Street Green Market,,,,,,414-933-5589,,http://www.facebook.com/pages/Vliet-Street-Community-Green-Market/105377359498120,,,,,,"4420 W. Vliet Stteet Milwaukee, WI 53208",Wisconsin,MILWAUKEE,4420 W VLIET ST,53208,-87.96953708711973,43.04880369276548,
209,farmersmarket,farmers market,"Mar 27th, 2023",default-farmersmarket-4-3.jpg,313627,Wagners Market,,,,,,920-984-4068,,http://www.facebook.com/WagnersMarket,,,,,,"310 N Main Street Black Creek, WI 54106",Wisconsin,BLACK CREEK,310 N MAIN ST,54106,-88.45081226481534,44.476612780106485,
210,farmersmarket,farmers market,"Mar 27th, 2023",default-farmersmarket-4-3.jpg,313628,Walker Square Farmers' Market,,,,,ason.cleereman@gmail.com,414-276-3345,http://walkersquare.org/farmers-market/,,,,,,,"1021 S. 9th St., Walker Square Park, Milwaukee, WI, 53204",Wisconsin,Milwaukee,1021 S. 9th St.,53204,-87.92254365470073,43.020868969673906,
211,farmersmarket,farmers market,"Mar 27th, 2023",default-farmersmarket-4-3.jpg,313629,Washburn Farmers' Market,,,,,washburnfarmersmarket@gmail.com,715-373-0241,http://washburnfarmersmar.wix.com/washburnfarmmarket,https://www.facebook.com/WashburnFarmersMarket,,,,,,"509 W. Bayfield St., Washburn, WI, 54891",Wisconsin,Washburn,509 W. Bayfield St.,54891,-90.90079051251793,46.670535128873674,
212,farmersmarket,farmers market,"Mar 27th, 2023",default-farmersmarket-4-3.jpg,313630,Watertown Farmers' Market,,,,,info@watertownchamber.com,920-261-6320,http://www.watertownchamber.com/,https://www.facebook.com/watertownfarmersmarket,,,,,,"Riverside Park, Watertown, WI, 53094",Wisconsin,Watertown,Riverside Park,53094,-88.67265637048828,43.16029563465998,
213,farmersmarket,farmers market,"Mar 27th, 2023",default-farmersmarket-4-3.jpg,313631,Watson Street Farmers' Market,,,,,craig@riponmainst.com,920-748-7466,http://www.riponmainst.com,,,,,,,"Watson St. and Seward St., Village Green, Ripon, WI, 54971",Wisconsin,Ripon,Watson St. and Seward St.,54971,-88.83880998419542,43.84296998560566,
214,farmersmarket,farmers market,"Mar 27th, 2023",default-farmersmarket-4-3.jpg,313632,Waukesha Farmers' Market,,,,,info@waukeshafarmersmarket.com,262-547-2354,http://www.waukeshafarmersmarket.com/,https://www.facebook.com/FarmersMarketWaukesha,,,,,,"279 Riverfront Plz., Waukesha, WI, 53186",Wisconsin,Waukesha,279 Riverfront Plz.,53186,-88.23139570700285,43.01251569080636,
215,farmersmarket,farmers market,"Mar 27th, 2023",default-farmersmarket-4-3.jpg,313633,Waupun Area Farmers' Market,,,,,info@waupunchamber.com,920-324-3491,http://www.waupunchamber.com/,,,,,,,"510 E. Spring St., Tanner Park, Waupun, WI, 53963",Wisconsin,Waupun,510 E. Spring St.,53963,-88.72394178007,43.64062110310762,
216,farmersmarket,farmers market,"Mar 27th, 2023",default-farmersmarket-4-3.jpg,313634,Wednesday Farmers Market,,,,,,262-673-7002,http://www.hartfordchamber.org,,,,,,,"100 Park Ave Hartford, WI 53027 Jack Russell Memorial Library lot.",Wisconsin,HARTFORD,100 PARK AVE,53027,-88.37749275484245,43.318479906315254,
217,farmersmarket,farmers market,"Mar 27th, 2023",default-farmersmarket-4-3.jpg,313635,West Racine Farmers Market,,,,,,262-886-6197,,,,,,,,"3100 Washington Ave Racine, WI 53406",Wisconsin,RACINE,3100 WASHINGTON AVE,53405,-87.81628470034454,42.71871287400214,
218,farmersmarket,farmers market,"Mar 27th, 2023",default-farmersmarket-4-3.jpg,313636,West Salem Farmers' Market,,,,,info@westsalemwi.com,608-786-1858,,,,,,,,"Jefferson St. E. and Mill St. S., West Salem, WI, 54669",Wisconsin,West Salem,Jefferson St. E. and Mill St. S.,54669,-91.07986996466288,43.8943699951723,
219,farmersmarket,farmers market,"Mar 27th, 2023",default-farmersmarket-4-3.jpg,313637,Westown Farmers' Market,,,,,events@westown.org,414-276-6696,http://www.westown.org/neighborhood-events/westown-farmers-market/,https://www.facebook.com/WestownFarmersMarket,,,,,,"W. Michigan St. and N. 3rd St., Zeidler Union Square, Milwaukee, WI, 53203",Wisconsin,Milwaukee,W. Michigan St. and N. 3rd St.,53203,-87.91456995900468,43.03740999802827,
220,farmersmarket,farmers market,"Mar 27th, 2023",default-farmersmarket-4-3.jpg,313638,Winter Viroqua Farmers' Market,,,,,info@ViroquaPublicMarket.com,608-637-1912,http://www.viroquapublicmarket.com,https://www.facebook.com/ViroquaPublicMarket,,,,,,"215 S. Main St., Viroqua, WI, 54665",Wisconsin,Viroqua,215 S. Main St.,54665,-90.88932072296515,43.555055108129736,
221,farmersmarket,farmers market,"Mar 9th, 2021",default-farmersmarket-4-3.jpg,301451,Northside Farmers' Market,,Open: May to October; October; <br>Available Products: Fresh vegetables;Baked goods;Canned or preserved fruits/vegetables;Coffee/tea;Crafts/woodworking items;Cut flowers;Dairy products.;Eggs;Fish/seafood;Honey;Maple products;Mushrooms;Poultry/fowl meat and products;Prepared foods;Red/other non-poultry meat and products;Soap/body care products;,,Sabrina & Matt,manager.nfm@gmail.com,6085158843,northsidefarmersmarket.org,madNFM,madNFM,,,,,"2901 N. Sherman Ave., Madison, Wisconsin 53704",Wisconsin,Madison,2901 N. Sherman Ave.,53704,-89.362808,43.128145,
222,farmersmarket,farmers market,"May 23rd, 2022",farmersmarket_301727_14150_20220523154425.png,301727,Downtown Beloit Farmers' Market - Summer,"Our outdoor market starts the first Saturday in May and ends the last Saturday in October. Our indoor market starts the first Saturday in November and ends the last Saturday in April. Our current hours of operation are 9 am to noon, rain or shine. See less
An award-winning community tradition!
Live music at Gantry Park!
Shop in a wonderful open-air market in the heart of historic Downtown Beloit. Chat with local vendors and get the scoop on next week’s harvest and offerings!
We gladly accept SNAP and WIC benefits. Stop at the Information Booth for more information or to purchase your tokens.",Open: 05/07/2022 to 10/29/2022; 11/05/2022 to 04/29/2023; <br>Available Products: Fresh fruits;Fresh vegetables;Baked goods;Bedding plants;Canned or preserved fruits/vegetables;Coffee/tea;Crafts/woodworking items;Cut flowers;Dairy products.;Dry beans;Eggs;Fish/seafood;Fresh/dried herbs;Grains/flour;Honey;Juices/non-alcoholic ciders;Maple products;Mushrooms;Nursery stock (trees);Nuts;Pet food;Poultry/fowl meat and products;Prepared foods;Red/other non-poultry meat and products;Soap/body care products;Tofu/non-animal protein;Wild harvested forest products;,Our outdoor market starts the first Saturday in May and ends the last Saturday in ...,Shauna El-Amin,shauna@downtownbeloit.com,6083650150,http://downtownbeloit.com/us/farmers-market-2/,https://www.facebook.com/BeloitFarmersMarket,,https://www.instagram.com/Beloit_Farmers_Market/?fbclid=IwAR3jtz8RGLWSYddO3cbMIzik2EwHgO49opVNyaqqgUSoq6xtGQ-06q-tDO8,,,,"345 E Grand Ave, Beloit, WI, USA",Wisconsin,Beloit,345 East Grand Avenue,53511,-89.0357147,42.5000366,
223,farmersmarket,farmers market,"May 29th, 2021",default-farmersmarket-4-3.jpg,301515,Tosa Farmers Market,,Open: June to October; <br>Available Products: Fresh fruits;Fresh vegetables;Baked goods;Bedding plants;Canned or preserved fruits/vegetables;Coffee/tea;Crafts/woodworking items;Cut flowers;Dairy products.;Dry beans;Fresh/dried herbs;Grains/flour;Honey;Maple products;Mushrooms;Poultry/fowl meat and products;Prepared foods;Red/other non-poultry meat and products;Soap/body care products;Wild harvested forest products;,,Elliott Gengembre,elliott@tosafarmersmarket.com,414-301-2526,https://www.tosafarmersmarket.com,https://www.facebook.com/TosaFarmersMarket,,,,,,"7720 Harwood Ave, Wauwatosa, Wisconsin 53213",Wisconsin,Wauwatosa,7720 Harwood Ave,53213,-88.008791,43.048733,
224,farmersmarket,farmers market,"Sep 10th, 2020",default-farmersmarket-4-3.jpg,300189,Mosinee Farm Market,,Open: June to October; <br>Available Products: Fresh fruits;Fresh vegetables;Baked goods;Bedding plants;Canned or preserved fruits/vegetables;Coffee/tea;Crafts/woodworking items;Cut flowers;Dairy products.;Eggs;Fresh/dried herbs;Honey;Maple products;Mushrooms;Nursery stock;Poultry/fowl meat and products;Soap/body care products;,,Terra Plaisance,macoc@mtc.net,715-693-4330,www.mosineechamber.org,https://www.facebook.com/profile.php?id=1671726160,,,,,,"1101 Main Street, City, Wisconsin 54455",Wisconsin,City,1101 Main Street,54455,-89.708626,44.797421,
225,farmersmarket,farmers market,"Sep 17th, 2020",default-farmersmarket-4-3.jpg,301339,Westside Community Market,,Open: April to November; <br>Available Products: Fresh fruits;Fresh vegetables;Baked goods;Bedding plants;Canned or preserved fruits/vegetables;Cut flowers;Dairy products.;Dry beans;Eggs;Fresh/dried herbs;Grains/flour;Honey;Juices/non-alcoholic ciders;Maple products;Mushrooms;Nursery stock;Nuts;Pet food;Poultry/fowl meat and products;Red/other non-poultry meat and products;Wild harvested forest products;,,Ben Zimmerman,manager.wcm@gmail.com,6086288879,www.westsidecommunitymarket.org,www.facebook.com/WestsideCommunityMarket,@WCM_Market,,,,,"750 University Row, Madison, Wisconsin 53705",Wisconsin,Madison,750 University Row,53705,-89.470022,43.076385,
226,onfarmmarket,on-farm market,"Apr 14th, 2022",onfarmmarket_700899_13144_20220414121248.png,700899,Skelly's Farm Market,"Skelly\'s Farm Market is open from June-Oct with homegrown strawberries in June, sweet corn, melons, tomatoes, and other summer produce in July-Aug, Skelly\'s Sunflower Experience in late July lasting two weeks, and lots of fall fun including pumpkins, two awesome corn mazes, Choose-Your-Farm-Adventure wagons rides, and more. Plus, during all of our seasons visit our bakery with homemade donuts and more, our huge gift shop selling rustic decor, and our fantastic free playground.

Plus, visit our 8 remote roadside stands for produce in July-Aug, an see us at the Saturday Janesville Farmers Market.",,"Skelly\'s Farm Market is open from June-Oct with homegrown strawberries in June, sweet corn, melons, ...",,,608-757-1200,www.skellysfarmmarket.com,www.facebook.com/skellysfarmmarket,https://twitter.com/skellysfarm,https://instagram.com/skellysfarm,https://www.pinterest.com/skellysfarm,,,"2713 Hayner Road, Janesville, Wisconsin 53548",Wisconsin,Janesville,2713 Hayner Road,53548,-89.080485,42.641113,
227,onfarmmarket,on-farm market,"Apr 17th, 2019",default-onfarmmarket-4-3.jpg,701478,Valhalla Hills LLC,,,,Geoff Briggs,valhallahillsfarm@gmail.com,608-322-7550,,,,,,,,"74 County Road F, Blanchardville, Wisconsin 53516",Wisconsin,Blanchardville,74 County Road F,53516,-89.865292,42.817160,
228,onfarmmarket,on-farm market,"Apr 22nd, 2015",default-onfarmmarket-4-3.jpg,700979,Scotch and Soda Acres,,,,greg,gregsz2001@yahoo.com,715-302-2311,,,,,,,,"4958 thomas hill rd, edgar, Wisconsin 54426",Wisconsin,edgar,4958 thomas hill rd,54426,-89.949112,44.920106,
229,onfarmmarket,on-farm market,"Apr 4th, 2016",default-onfarmmarket-4-3.jpg,701323,Schott Farm,,,,Labecca Schott,labecca.johnson@me.com,507-495-4352,http://schottfarm.com/,,,,,,,"711 Railroad Avenue, Viroqua, Wisconsin 54665",Wisconsin,Viroqua,711 Railroad Avenue,54665,-90.878455,43.5619804,
230,onfarmmarket,on-farm market,"Aug 13th, 2014",default-onfarmmarket-4-3.jpg,700737,Elegant Farmer,,,,,info@elegantfarmer.com,262-363-6770,,,,,,,,"1545 Main Street, Mukwonago, Wisconsin 53149",Wisconsin,Mukwonago,1545 Main Street,53149,-88.3444,42.841521,
231,onfarmmarket,on-farm market,"Aug 24th, 2014",default-onfarmmarket-4-3.jpg,700909,Field to Fork Farm and Market,,,,Peter Bakke,fieldtoforkfarms@wi.rr.com,2625248263,www.fieldtoforkfarms.com,https://www.facebook.com/pages/Field-To-Fork-Farms/444165995616374?ref=hl,,,,,,"1500 S Springdale Road, Waukesha, Wisconsin 53186",Wisconsin,Waukesha,1500 S Springdale Road,53186,-88.185068,43.0159300,
232,onfarmmarket,on-farm market,"Aug 25th, 2014",default-onfarmmarket-4-3.jpg,700932,"Rushing Waters Fisheries, LLC",,,,Peter J. Fritsch,peterf@rushingwaters.net,262-495-2089,www.rushingwaters.net,,,,,,,"N301 County Rd. H / PO Box H, Palmyra, Wisconsin 53156",Wisconsin,Palmyra,N301 County Rd. H / PO Box H,53156,-88.609618,42.854952,
233,onfarmmarket,on-farm market,"Aug 26th, 2014",default-onfarmmarket-4-3.jpg,700304,Sassy Cow Creamery,,,,Kara Kasten,info@sassycowcreamery.com,608-837-7766,www.sassycowcreamery.com,https://www.facebook.com/pages/Sassy-Cow-Creamery/53518889031,,,,,,"W4192 Bristol Rd, Columbus, Wisconsin 53925",Wisconsin,Columbus,W4192 Bristol Rd,53925,-89.211417,43.282549,
234,onfarmmarket,on-farm market,"Aug 26th, 2014",default-onfarmmarket-4-3.jpg,700547,Blue Ridge Growers Orchard Nursery,,,,Jill Barthen Berke,blueridge@baldwin-telecom.net,715 425 8289,www.facebook.com/WIFarmFreshAtlas,https://www.facebook.com/WIFarmFreshAtlas,,,,,,"246 Carlson Lane, River Falls, Wisconsin 54022",Wisconsin,River Falls,246 Carlson Lane,54022,-92.709957,44.895888,
235,onfarmmarket,on-farm market,"Aug 26th, 2014",default-onfarmmarket-4-3.jpg,700615,Oakridge Farms,,,,Jodi Schultz,oakridgeberries@gmail.com,920-725-1541,http://oakridgeberries.com/,https://www.facebook.com/pages/Oakridge-Farms/80596262554,https://twitter.com/oakridgeberries,,,,http://oakridgeberries.com/blog,"125 County Road CB, Neenah, Wisconsin 54956",Wisconsin,Neenah,125 County Road CB,54956,-88.504904,44.179237,
236,onfarmmarket,on-farm market,"Aug 26th, 2014",default-onfarmmarket-4-3.jpg,700943,The Gardens @ Michael Fields,,,,Christine Welcher,thegardens@michaelfields.org,262-642-3303 ext 127,www.michaelfields.org,www.facebook.com/MichaelFieldsAgriculturalInstitute,twitter.com/MichaelFieldsAg,,,,,"W2493 Cty Rd ES, East Troy, Wisconsin 53120",Wisconsin,East Troy,W2493 Cty Rd ES,53120,-88.424892,42.7825894,
237,onfarmmarket,on-farm market,"Aug 28th, 2014",default-onfarmmarket-4-3.jpg,700109,Lotis Alpacas,,,,Lori Dvorak,lotis12@g2a.net,715-325-5605,www.lotisalpacas.com,https://www.facebook.com/lotisalpacas?ref=ts&fref=ts,,,,,,"704 Hillcrest Avenue, Nekoosa, Wisconsin 54457",Wisconsin,Nekoosa,704 Hillcrest Avenue,54457,-89.853047,44.2665210,
238,onfarmmarket,on-farm market,"Aug 28th, 2014",default-onfarmmarket-4-3.jpg,700973,Blue Gentian Farm,,,,Darryle Powers,darryle@frontiernet.net,715-781-8169,,,https://www.twitter.com/bgfarmboy,,,,,"1990 Hwy 46, New Richmond, Wisconsin 54017",Wisconsin,New Richmond,1990 Hwy 46,54017,-92.384113,45.1486124,
239,onfarmmarket,on-farm market,"Aug 28th, 2014",default-onfarmmarket-4-3.jpg,700977,Adoni Arces Family Farm LLC,,,,Adoni Acres Family Farm,bmoschel@mwt.net,608-452-2930,,,,,,,,"S387 Korthals Ln. , Chaseburg, Wisconsin 45621",Wisconsin,Chaseburg,S387 Korthals Ln.,45621,-91.110271,43.7134959,
240,onfarmmarket,on-farm market,"Aug 29th, 2014",default-onfarmmarket-4-3.jpg,700982,Sternitzky Specialty Foods LLC / DBA The Maple Dude,,,,Tim,tim@themapledude.com,7155713329,www.themapledude.com,https://www.facebook.com/pages/The-Maple-Dude/582639041784552,https://www.twitter.com/themapledude.com,,,,,"W1417 US HWY 10, Granton, Wisconsin 54436",Wisconsin,Granton,W1417 US HWY 10,54436,-90.383979,44.582582,
241,onfarmmarket,on-farm market,"Aug 31st, 2014",default-onfarmmarket-4-3.jpg,700675,Maple Ridge Orchard,,,,Domingo Rodriguez,mapleridgeorchard@me.com,608-654-5151,www.mapleridgeorchard.com,https://www.facebook.com/pages/Maple-Ridge-Orchard/346451842039608,,,,,,"6675 Maple Ave, Cashton, Wisconsin 54619",Wisconsin,Cashton,6675 Maple Ave,54619,-90.859717,43.7993250,
242,onfarmmarket,on-farm market,"Aug 31st, 2014",default-onfarmmarket-4-3.jpg,700997,Sweet Wisconsin Honey Farm,,,,Shawn & Kerrie Bahr,Bahrtrap@centurytel.net,608-635-3876,,,,,,,,"N4249 HWY 51, Poynette, Wisconsin 53955",Wisconsin,Poynette,N4249 HWY 51,53955,-89.402007,43.426767,
243,onfarmmarket,on-farm market,"Aug 4th, 2014",default-onfarmmarket-4-3.jpg,700627,Apple Valley Orchard LLC,,,,Bev Van ELzen,bev@applevalleyllc.com,920-336-0667,AppleValleyLLC.com,https://www.facebook.com/pages/Apple-Valley-Orchard/117313941615608,,,,,,"1670 Mar-El Road, DePere, Wisconsin 54115",Wisconsin,DePere,1670 Mar-El Road,54115,-88.092893,44.378637,
244,onfarmmarket,on-farm market,"Aug 6th, 2020",default-onfarmmarket-4-3.jpg,701545,Observatory Hill Farm LLC,,,,Cindy and Mark Mackenzie,shepherd@observatoryhillfarm.com,608-424-1581,http://observatoryhillfarm.com/,,,,,,,"1017 Observatory Hill Rd., Belleville, Wisconsin 53508",Wisconsin,Belleville,1017 Observatory Hill Rd.,53508,-89.559045,42.909700,
245,onfarmmarket,on-farm market,"Aug 9th, 2014",default-onfarmmarket-4-3.jpg,700211,Out to Pasture Beef,,,,Vic and Mary Price,theprices@outtopasturebeef.com,715-877-3129,www.outtopasturebeef.com,,,,,,,"E13240 E Hillsdale Dr, Fall Creek, Wisconsin 54742",Wisconsin,Fall Creek,E13240 E Hillsdale Dr,54742,-91.261903,44.690853,
246,onfarmmarket,on-farm market,"Dec 17th, 2015",default-onfarmmarket-4-3.jpg,701308,Behnkes Grass Fed Beef & Pasture Pork,,,,Dale Behnke,info@behnkefarms.com,920-829-5196,,https://www.facebook.com/Behnkes-Grass-Fed-Beef-And-Pasture-Pork-250614411763880/?fref=ts&ref=br_tf,,,,,,"4420 Behnke rd, lena , Wisconsin 54139",Wisconsin,lena,4420 Behnke rd,54139,-87.980007,44.999195,
247,onfarmmarket,on-farm market,"Dec 1st, 2014",default-onfarmmarket-4-3.jpg,700297,West Star Organics,,,,Randy Kohn,information@weststarorganics.com,608-347-4346,www.weststarfarm.com,https://www.facebook.com/pages/West-Star-Organics/77210898093?ref=hl,https://twitter.com/WestStarFarm,,,,,"2555 West Star Rd, Cottage Grove, Wisconsin 53527",Wisconsin,Cottage Grove,2555 West Star Rd,53527,-89.202571,43.013389,
248,onfarmmarket,on-farm market,"Dec 1st, 2016",default-onfarmmarket-4-3.jpg,701376,Timber Coulee Outfitters,,,,Charles Burke,cburke@nwtf.net,6086343886,,,,,,,,"E7624 County Road P, Westby, Wisconsin 54667",Wisconsin,Westby,E7624 County Road P,54667,-90.870672,43.707198,
249,onfarmmarket,on-farm market,"Dec 28th, 2015",default-onfarmmarket-4-3.jpg,701309,Sugar Hill Sugar Bush LLC,,,,Arlo Schlund,syrup@sugarhillsugarbush.com,715-842-1017,www.sugarhillsugarbush.com,www.facebook.com/Sugarhillsugarbush,,,,,,"10108 Sugar Hill Lane, Wausau , Wisconsin 54403",Wisconsin,Wausau,10108 Sugar Hill Lane,54403,-89.496442,44.982007,
250,onfarmmarket,on-farm market,"Feb 17th, 2015",default-onfarmmarket-4-3.jpg,701210,Borner Farm Project,,,,Diane Webster,bornerfarmproject@gmail.com,651-235-4906,bornerfarmproject.com,Borner Farm Project,,,,,,"1266 Walnut St, Prescott , Wisconsin 54021",Wisconsin,Prescott,1266 Walnut St,54021,-92.789672,44.751793,
251,onfarmmarket,on-farm market,"Jan 19th, 2022",default-onfarmmarket-4-3.jpg,701629,Backyard Acres at Flying Tractor Farm,,,,Miranda Hottenroth,mylocalfamilyfarmer@gmail.com,9202434200,www.backyardacres.com,https://www.facebook.com/BackyardAcres101,,,,,,"5324 Whitefish Bay Rd, Sturgeon Bay, Wisconsin 54235",Wisconsin,Sturgeon Bay,5324 Whitefish Bay Rd,54235,-87.323842,44.907745,
252,onfarmmarket,on-farm market,"Jul 10th, 2021",default-onfarmmarket-4-3.jpg,701605,Holly Hill Ranch,,,,Eleanor Mocker,Hollyhillranch@yahoo.com,715-412-0477,,,,,,,,", Almond , Wisconsin 54909",Wisconsin,Almond,,54909,-89.339866,44.331018,
253,onfarmmarket,on-farm market,"Jul 12th, 2016",default-onfarmmarket-4-3.jpg,701354,Meyer's Farm Market,,,,Bryan Meyer,info@meyersfarmmarket.com,608-754-0247,www.meyersfarmmarket.com,www.facebook.com/meyersfarmmarket,,,,,,"1329 E M-H Townline Road, Milton , Wisconsin 53563",Wisconsin,Milton,1329 E M-H Townline Road,53563,-89.007693,42.7604481,
254,onfarmmarket,on-farm market,"Jul 1st, 2020",default-onfarmmarket-4-3.jpg,701533,Spring Creek Meats,,,,Hannah Clark,springcreekmeatsandmore@gmail.com,715-214-5220,https://www.springcreekmeats.com/,https://m.facebook.com/SpringCreekMeats/?tsid=0.7024591669409054&source=result,,,,,https://www.springcreekmeats.com/blog,"21010 County Highway R, Jim Falls, Wisconsin 54748",Wisconsin,Jim Falls,21010 County Highway R,54748,-91.253864,45.135569,
255,onfarmmarket,on-farm market,"Jul 26th, 2014",default-onfarmmarket-4-3.jpg,700013,"Under A Rock Farm, LLC",,,,Farmer Chris,farmerchris@underarockfarm.com,608-639-0069,www.underarockfarm.com,https://www.facebook.com/UnderARockFarm,https://www.twitter.com/underarockfarm,,,,,"E14214 County Road D, La Farge, Wisconsin 54639",Wisconsin,La Farge,E14214 County Road D,54639,-90.545937,43.561362,
256,onfarmmarket,on-farm market,"Jul 26th, 2014",default-onfarmmarket-4-3.jpg,700089,Old Homestead Orchard,,,,Carolyn Drought,info@oldhomesteadorchard.com,262-895-6747,,https://www.facebook.com/orchardstore,,,,,,"7814 Raynor Ave, Franksville, Wisconsin 53126",Wisconsin,Franksville,7814 Raynor Ave,53126,-88.070998,42.828252,
257,onfarmmarket,on-farm market,"Jul 26th, 2014",default-onfarmmarket-4-3.jpg,700099,"Meuer Farm, LLC",,,,David Meuer,meuerfarm@gmail.com,920-418-2676,www.meuerfarm.com,"https://www.facebook.com/MeuerFarm,LLC",,,,,,"N2564  Highway 151, Chilton, Wisconsin 53014",Wisconsin,Chilton,N2564  Highway 151,53014,-88.304602,43.981162,
258,onfarmmarket,on-farm market,"Jul 26th, 2014",default-onfarmmarket-4-3.jpg,700342,Wick Place Candles and Farm,,,,Cheryl Miracle,gumbyhorn@gmail.com,414-708-4057,wickplacefarm.com,,,,,,,"1907 43RD ST, CALEDONIA, Wisconsin 53108",Wisconsin,CALEDONIA,1907 43RD ST,53108,-87.972992,42.8112760,
259,onfarmmarket,on-farm market,"Jul 26th, 2014",default-onfarmmarket-4-3.jpg,700365,Armstrong Apples LLC,,,,Lisa Klein,eklein523@aol.com,920-477-3007,Armstrongapples.com,https://www.facebook.com/pages/Armstrong-Apples-Orchard-and-Winery/103621803066115,,,,,,"W853 County Road B, Campbellsport, Wisconsin 53010",Wisconsin,Campbellsport,W853 County Road B,53010,-88.199707,43.707108,
260,onfarmmarket,on-farm market,"Jul 26th, 2014",default-onfarmmarket-4-3.jpg,700450,Turners Fresh Market & Greenhouse,,,,Tara Turner,turners@turnersfreshmarket.com,715-258-3355,www.turnersfreshmarket.com,,,,,,,"E208 State Highway 54, Waupaca, Wisconsin 54981",Wisconsin,Waupaca,E208 State Highway 54,54981,-89.184127,44.352231,
261,onfarmmarket,on-farm market,"Jul 26th, 2014",default-onfarmmarket-4-3.jpg,700679,Macs Berry Farm,,,,Brian McIlquham,mac555_98@yahoo.com,715-568-5526,,https://www.facebook.com/pages/Macs-Berry-Farm-Bloomer-Wisconsin/128131573868102,,,,,,"10439 130th Avenue, Bloomer, Wisconsin 54724",Wisconsin,Bloomer,10439 130th Avenue,54724,-91.462292,45.025737,
262,onfarmmarket,on-farm market,"Jul 26th, 2014",default-onfarmmarket-4-3.jpg,700769,Grampa Glenns Organic Strawberries Glennenn Farm,,,,Nenn Stuve,gstuve@centurytel.net,715-964-8663,www.grampaglennsorganicstrawberries.com,https://www.facebook.com/GrampaGlennsCertifiedOrganicStrawberries,,,,,,"W11280 County Road B, Humbird, Wisconsin 54746",Wisconsin,Humbird,W11280 County Road B,54746,-90.884823,44.528060,
263,onfarmmarket,on-farm market,"Jul 27th, 2014",default-onfarmmarket-4-3.jpg,700155,Copper Kettle Farm LLC,,,,Greg Kosmeder,info@copperKfarm.com,262-538-1189,http://www.copperkfarm.com,https://www.facebook.com/CopperKettleFarm,https://www.twitter.com/copperkfarm,,,,,"5576 County Road Q, Colgate, Wisconsin 53017",Wisconsin,Colgate,5576 County Road Q,53017,-88.313434,43.1930480,
264,onfarmmarket,on-farm market,"Jul 27th, 2014",default-onfarmmarket-4-3.jpg,700244,Porter's Patch,,,,Troy Porter,porterspatch@hotmail.com,715-758-8162,www.PortersPatch.com,https://www.facebook.com/porterspatch.navarino?fref=ts,Porters Patch,,,,,"W4314 State Hwy 156, Bonduel, Wisconsin 54107",Wisconsin,Bonduel,W4314 State Hwy 156,54107,-88.457553,44.6115636,
265,onfarmmarket,on-farm market,"Jul 27th, 2014",default-onfarmmarket-4-3.jpg,700247,Pinnacle Pastures,,,,Cody Fulwider,pinnaclepastures@gmail.com,920-539-0789,"pinnaclepastures,com",https://www.facebook.com/pinnacle.pastures?fref=ts,,,,,,"W11780 County Road KK, Ripon, Wisconsin 54971",Wisconsin,Ripon,W11780 County Road KK,54971,-88.749112,43.807534,
266,onfarmmarket,on-farm market,"Jul 27th, 2014",default-onfarmmarket-4-3.jpg,700336,Highland Valley Farm Inc.,,,,The Dale Family,highlandvalleyfarm@gmail.com,715-779-5446,http://www.bayfieldblues.com/index.html,https://www.facebook.com/pages/Highland-Valley-Farm/117845948235187,,,,,,"87080 Valley Rd, Bayfield, Wisconsin 54814",Wisconsin,Bayfield,87080 Valley Rd,54814,-90.867633,46.832896,
267,onfarmmarket,on-farm market,"Jul 27th, 2014",default-onfarmmarket-4-3.jpg,700353,Appleberry Farm LLC,,,,David Wildes,fun@theappleberryfarm.com,608-798-2780,theappleberryfarm.com,upickappleberryfarm.com,,,,,,"8079 Maurer Road, Cross Plains, Wisconsin 53528",Wisconsin,Cross Plains,8079 Maurer Road,53528,-89.615938,43.0421176,
268,onfarmmarket,on-farm market,"Jul 27th, 2014",default-onfarmmarket-4-3.jpg,700418,Altenburg's Country Gardens LLC,,,,Harold Altenburg,altenburgs@tznet.com,715-421-2943,http://www.altenburgsfarm.com/,https://www.facebook.com/altenburgsfarm,,,,,,"7020 Plover Rd (Hwy. 54 E), Wisconsin Rapids, Wisconsin 54494",Wisconsin,Wisconsin Rapids,7020 Plover Rd (Hwy. 54 E),54494,-89.738168,44.419143,
269,onfarmmarket,on-farm market,"Jul 27th, 2014",default-onfarmmarket-4-3.jpg,700456,Toms Raspberries,,,,tom sawyer,tomsawyer300@yahoo.com,608-370-2024,sites.google.com/site/tomsraspberries/,https://www.facebook.com/pages/Toms-Raspberries/597930213559027,,,,,,"W13702 highway 60, Prairie Du Sac, Wisconsin 53578",Wisconsin,Prairie Du Sac,W13702 highway 60,53578,-89.680302,43.307907,
270,onfarmmarket,on-farm market,"Jul 27th, 2014",default-onfarmmarket-4-3.jpg,700550,Blueberry Haven LLC,,,,RAMONA JARVAIS,blueberryhaven@frontiernet.net,715-823-4091,BLUEBERRYHAVEN.NET,,,,,,,"W9967 County  Road XX, Bear Creek, Wisconsin 54922",Wisconsin,Bear Creek,W9967 County  Road XX,54922,-88.690996,44.5884040,
271,onfarmmarket,on-farm market,"Jul 27th, 2014",default-onfarmmarket-4-3.jpg,700644,Heritage Orchard LLC,,,,Vern Gasch,appleannie4@hotmail.com,920-849-2158,www.heritageorchard.net,,,,,,,"N 2963 Lakeshore Dr, Chilton, Wisconsin 53014",Wisconsin,Chilton,N 2963 Lakeshore Dr,53014,-88.311825,43.995193,
272,onfarmmarket,on-farm market,"Jul 27th, 2014",default-onfarmmarket-4-3.jpg,700763,Harried U-Pick-Umm Farm LLC.,,,,matt,harriedupickummfarm@gmail.com,(608) 774-2936,www.facebook.com/pages/Harried-U-Pick-Umm-Farm/142386852440308,,,,,,,"173 County Road N, Edgerton, Wisconsin 53534",Wisconsin,Edgerton,173 County Road N,53534,-89.140436,42.861329,
273,onfarmmarket,on-farm market,"Jul 28th, 2014",default-onfarmmarket-4-3.jpg,700406,Bashaw Valley Farm & Greenhouse,,,,Steve Degner,bashawvalley@gmail.com,715-468-2591,bashawvalley@gmail.com,,,,,,,"W7402 Fox Trail Rd., Shell Lake, Wisconsin 54871",Wisconsin,Shell Lake,W7402 Fox Trail Rd.,54871,-91.913566,45.764247,
274,onfarmmarket,on-farm market,"Jul 30th, 2014",default-onfarmmarket-4-3.jpg,700198,Windy Fleece Farm,,,,Steve Elliott & Anna Landmark,windyfleecefarm@gmail.com,608-862-3834,www.windyfleecefarm.com,www.facebook.com/windyfleecefarm,,,,,,"W1237 Brooklyn Albany Rd, Albany, Wisconsin 53502",Wisconsin,Albany,W1237 Brooklyn Albany Rd,53502,-89.425043,42.769865,
275,onfarmmarket,on-farm market,"Jul 31st, 2014",default-onfarmmarket-4-3.jpg,700215,Bull Brook Keep,,,,Sylvia Burgos Toftness,sylvia@bullbrookkeep.com,651-238-8525,http://www.bullbrookkeep.com,http://www.facebook.com/BullBrookKeep,twitter.com/BronxToBarn,,,,http://www.bronxtobarn.com,"765 50th Avenue, Clear Lake, Wisconsin 54005",Wisconsin,Clear Lake,765 50th Avenue,54005,-92.320228,45.2822048,
276,onfarmmarket,on-farm market,"Jul 31st, 2014",default-onfarmmarket-4-3.jpg,700361,Good Earth Farms,,,,Michael Hansen,farmer@goodearthfarms.com,715-652-3520,www.goodearthfarms.com,https://www.facebook.com/pages/Good-Earth-Farms/176806359091394,,,,,,"10431 Mayflower Road, Milladore, Wisconsin 54454",Wisconsin,Milladore,10431 Mayflower Road,54454,-89.908833,44.6255150,
277,onfarmmarket,on-farm market,"Jul 31st, 2014",default-onfarmmarket-4-3.jpg,700370,Dorothy's Grange LLC,,,,April Prusia,dorothys.grange@gmail.com,608-444-1102,dorothysgrange.com,,,,,,,"W8707 Sawmill Rd, Blanchardville, Wisconsin 53516",Wisconsin,Blanchardville,W8707 Sawmill Rd,53516,-89.791541,42.7899850,
278,onfarmmarket,on-farm market,"Jul 31st, 2015",default-onfarmmarket-4-3.jpg,701290,Kipp Farms and Country Market LLC,,,,Christine Kipp,kippfarms@yahoo.com,262-510-6581,www.kippfarms.com,https://www.facebook.com/pages/Kipp-Farms-Country-Market-LLC/274280116083169?fref=ts,,,,,,"w329s5402 county rd E, North Prairie, Wisconsin 53153",Wisconsin,North Prairie,w329s5402 county rd E,53153,-88.404992,42.945864,
279,onfarmmarket,on-farm market,"Jun 4th, 2022",onfarmmarket_700736_13299_20220604133541.png,700736,Glenna Farms Country Store & Sugarhouse,,"Open: May to December<br>Available Products: Fresh vegetables;Canned or preserved fruits/vegetables;Coffee/tea;Crafts/woodworking items;Dairy products.;Maple products;Wine, spirits, beer, hard cider;",,Rick Glenna,info@glennafarms.com,800-310-5050,http://glennafarms.com/,https://www.facebook.com/pages/Glenna-Farms/52322147733?ref=hl,https://twitter.com/GlennaFarms1,,,,,"1333 - 120th Street, Amery, Wisconsin 54001",Wisconsin,Amery,1333 - 120th Street,54001,-92.408597,45.397467,
280,onfarmmarket,on-farm market,"Mar 19th, 2015",default-onfarmmarket-4-3.jpg,701113,Holyland Berries Farm,,,,Kris Wells,holylandberries@yahoo.com,414-313-4023,,https://www.facebook.com/HolylandBerries,,,,,,"N9488 Rte G, St. Cloud, Wisconsin 53079",Wisconsin,St. Cloud,N9488 Rte G,53079,-88.205826,43.8853530,
281,onfarmmarket,on-farm market,"Mar 23rd, 2015",default-onfarmmarket-4-3.jpg,700445,Pike Hole Family Farm,,,,Valerie Burke,val@pikeholefarm.com,715-554-1034,www.pikeholefarm.com,Brad Burke,,,,,,"359 130th Street, Amery, Wisconsin 54001",Wisconsin,Amery,359 130th Street,54001,-92.427783,45.259556,
282,onfarmmarket,on-farm market,"Mar 24th, 2015",default-onfarmmarket-4-3.jpg,701229,Busy Barns Adventure Farm LLC,,,,Mary & Gary Telfer,info@busybarnsfarm.com,920-691-6742,https://www.busybarnsfarm.com,https://www.facebook.com/busybarnsfarm,https://twitter.com/busybarnsfarm,,,,,"W7675 US Hwy 12, Fort Atkinson, Wisconsin 53538",Wisconsin,Fort Atkinson,W7675 US Hwy 12,53538,-88.912620,42.968651,
283,onfarmmarket,on-farm market,"Nov 29th, 2015",default-onfarmmarket-4-3.jpg,701306,"Star Orchard, LLC",,,,Darrell Haen,starorchardllc@gmail.com,920-759-9294,http://www.starorchard.com/,http://www.facebook.com/starorchardllc,,,,,,"253 County Road CE, Kaukauna, Wisconsin 54130",Wisconsin,Kaukauna,253 County Road CE,54130,-88.188747,44.2494042,
284,onfarmmarket,on-farm market,"Oct 1st, 2014",default-onfarmmarket-4-3.jpg,701114,Golden Hills Buffalo Farm,,,,Noel Filla,goldenhillsbuffalo@gmail.com,7155972517,,,,,,,,"N44867 County Road E, Osseo, Wisconsin 54758",Wisconsin,Osseo,N44867 County Road E,54758,-91.251407,44.4903959,
285,onfarmmarket,on-farm market,"Oct 2nd, 2020",default-onfarmmarket-4-3.jpg,701560,Rockin Highlands,,,,Greg & Irina Reynolds,RockinHighlands@GMail.com,608-341-7577,https://RockinHighlands.com/,,,,,,,"3088 Survey Road, Dodgeville, Wisconsin 53533",Wisconsin,Dodgeville,3088 Survey Road,53533,-90.173814,42.965061,
286,onfarmmarket,on-farm market,"Sep 10th, 2014",default-onfarmmarket-4-3.jpg,701050,Futility Farms LLC,,,,Beverly Thompson,FutilityFarms@hotmail.com,715-550-5720,http://www.futilityfarms.com/,Futility Farms,,,,,,"N5100 Webster Lane, Gilman, Wisconsin 54433",Wisconsin,Gilman,N5100 Webster Lane,54433,-90.795837,45.216076,
287,onfarmmarket,on-farm market,"Sep 10th, 2014",default-onfarmmarket-4-3.jpg,701052,"Cowsmo, Inc.",,,,John Rosenow,jrosenow@mwt.net,608-626-2571,www.cowsmocompost.com,,,,,,,"S1843 County Road U, Cochrane, Wisconsin 54622",Wisconsin,Cochrane,S1843 County Road U,54622,-91.683419,44.328264,
288,onfarmmarket,on-farm market,"Sep 12th, 2014",default-onfarmmarket-4-3.jpg,701064,Northfork Ranch,,,,Patty Dujardin,northforkranch@centurytel.net,715-634-3252,,,,,,,,"15455 W Kadlec Road, Hayward, Wisconsin 54843",Wisconsin,Hayward,15455 W Kadlec Road,54843,-91.467657,45.983106,
289,onfarmmarket,on-farm market,"Sep 14th, 2016",default-onfarmmarket-4-3.jpg,701371,The Garlic Underground,,,,glenn borucki,gborucki@wi.rr.com,4145502341,http:/www.thegarlicunderground.com,https://www.facebook.com/garlicug,,,,,,"w383n9009 mill st, Oconomowoc , Wisconsin 53066",Wisconsin,Oconomowoc,w383n9009 mill st,53066,-88.505108,43.1831070,
290,onfarmmarket,on-farm market,"Sep 16th, 2014",default-onfarmmarket-4-3.jpg,700195,Yorkshire Rose Farm,,,,Carole Pine,yorkshirerosefarm@gmail.com,608-469-0790,,,,,,,,"W5416 King Road, Rio, Wisconsin 53960",Wisconsin,Rio,W5416 King Road,53960,-89.271833,43.3996300,
291,onfarmmarket,on-farm market,"Sep 16th, 2014",default-onfarmmarket-4-3.jpg,700309,Offbeat Acres,,,,Erin Egan,info@offbeatacres.com,608-219-6369,www.offbeatacres.com,https://www.facebook.com/OffbeatAcresAlpacas,https://twitter.com/OffbeatAcres,,,,,"5453 Pierceville Road, Cottage Grove, Wisconsin 53527",Wisconsin,Cottage Grove,5453 Pierceville Road,53527,-89.154417,43.1471750,
292,onfarmmarket,on-farm market,"Sep 17th, 2014",default-onfarmmarket-4-3.jpg,701081,Englewood Grass-Fed Beef,,,,Kristi Agnew,englewoodgrassfedbeef@gmail.com,920-382-4469,,https://www.facebook.com/pages/Englewood-Grass-fed-Beef/102825246458689,,,,,,"W1414 County Rd. Z, Fall River, Wisconsin 53932",Wisconsin,Fall River,W1414 County Rd. Z,53932,-89.068339,43.428831,
293,onfarmmarket,on-farm market,"Sep 18th, 2014",default-onfarmmarket-4-3.jpg,701087,Deep Rooted,,,,Tiffany Cade,info@deeprootedgreenhouses.com,608-386-6177,http://www.deeprootedorganics.com/,https://www.facebook.com/DeepRootedWestby,,,,,http://deeprootedfarm.blogspot.com/,"E8975 E. Ridge Road, Westby, Wisconsin 54667",Wisconsin,Westby,E8975 E. Ridge Road,54667,-90.805682,43.653914,
294,onfarmmarket,on-farm market,"Sep 21st, 2014",default-onfarmmarket-4-3.jpg,701090,"Seibel's Organic Meats, LLC",,,,Chuck Seibel,seibelsorganic@gmail.com,715-568-2587,https://sites.google.com/site/seibelsorganic/,https://www.facebook.com/pages/Seibels-Organic-Meats-LLC/102229873169639,,,,,,"10494 157th ave, Bloomer, Wisconsin 54724",Wisconsin,Bloomer,10494 157th ave,54724,-91.461033,45.0691110,
295,onfarmmarket,on-farm market,"Sep 23rd, 2014",default-onfarmmarket-4-3.jpg,701080,Pittsview Farm Elk,,,,,info@pittsviewfarmelk.com,,http://pittsviewfarmelk.com/,https://www.facebook.com/pittsvillefarmelk,,,,,,"4891 state hwy. 80, Pittsville, Wisconsin",Wisconsin,Pittsville,4891 state hwy. 80,,-90.125247,44.4239469,
296,onfarmmarket,on-farm market,"Sep 3rd, 2014",default-onfarmmarket-4-3.jpg,701012,ElevenM Ranch,,,,Sandy Mahoney,elevenmranch@gmail.com,715-787-3529,elevenmranch.com,https://www.facebook.com/elevenmranch,,,,,,"W12426 Paiser Ln, Leopolis, Wisconsin 54948",Wisconsin,Leopolis,W12426 Paiser Ln,54948,-88.873415,44.778915,
297,onfarmmarket,on-farm market,"Sep 4th, 2014",default-onfarmmarket-4-3.jpg,701019,Golden Bear Farm,,,,Golden Bear Farm,goldenbearfarm@gmail.com,9203330005,www.goldenbearfarm.com,Golden Bear Farm,,,,,,"15115 Lax Chapel Rd., Kiel, Wisconsin 53042",Wisconsin,Kiel,15115 Lax Chapel Rd.,53042,-87.981956,43.914557,
