Type,ModifyDate,Image,ListingID,Name,Description,ContactName,ContactEmail,ContactPhone,Website,Facebook,Twitter,Instagram,Pinterest,Youtube,Blog,Address,State,City,Street,Zip,Longitude,Latitude,Dates,Products
farmers market,"Apr 14th, 2022",farmersmarket_301373_11150_20220414134308.png,301373,Huntley Farmers Market,,BARBARA READ,BREAD@HUNTLEY.IL.US,847-515-5262,www.huntley.il.us,https://www.facebook.com/huntleyfarmersmarket,,,,VILLAGE OF HUNTLEY,,"11712 Coral Street, Huntley, Illinois 60142",Illinois,Huntley,11712 Coral Street,60142,-88.424435,42.168577,May to October,"Fresh fruits, Fresh vegetables, Baked goods, Bedding plants, Canned or preserved fruits/vegetables, Coffee/tea, Crafts/woodworking items, Cut flowers, Dairy products., Eggs, Fresh/dried herbs, Honey, Mushrooms, Poultry/fowl meat and products, Prepared foods, Red/other non-poultry meat and products, Soap/body care products"
farmers market,"Apr 15th, 2022",farmersmarket_301181_11274_20220415184400.png,301181,Downtown Bloomington Farmers Market,"Our market is managed by the City of Bloomington's Economic & Community Development Department. Everything you buy from our farmers, artists, and prepared food artisans is produced by them. There is a variety of organic and chemical-free produce. It's all fresh, original, and guaranteed to come from your own community.",Catherine Dunlap,cdunlap@cityblm.org,309-434-2295,http://downtownbloomington.org,https://www.facebook.com/BLMFarmersMarket/,,https://www.instagram.com/bloomingtonmarket/,,,,"200 N. Main, Bloomington, Illinois 61701",Illinois,Bloomington,200 N. Main,61701,-88.994107,40.480014,May to October,"Fresh fruits, Fresh vegetables, Baked goods, Bedding plants, Canned or preserved fruits/vegetables, Coffee/tea, Crafts/woodworking items, Cut flowers, Eggs, Fresh/dried herbs, Grains/flour, Honey, Maple products, Poultry/fowl meat and products, Red/other non-poultry meat and products, Soap/body care products"
farmers market,"Apr 18th, 2022",farmersmarket_300001_12262_20220419000346.png,300001,Riverside Farmers' Market,,Amy Jacksic,riverside-farmers-market@googlegroups.com,708-655-8408,http://justeatlocal.wordpress.com/,https://www.facebook.com/Riverside.Farmers.Mkt,,,,,,"10 Pine Ave., Riverside, Illinois 60546",Illinois,Riverside,10 Pine Ave.,60546,-87.820102,41.8277856,June to October,"Fresh fruits, Fresh vegetables, Baked goods, Bedding plants, Canned or preserved fruits/vegetables, Coffee/tea, Cut flowers, Eggs, Fish/seafood, Fresh/dried herbs, Honey, Maple products, Nursery stock, Poultry/fowl meat and products, Prepared foods, Red/other non-poultry meat and products, Soap/body care products"
farmers market,"Apr 20th, 2022",farmersmarket_301715_14111_20220420164358.png,301715,Galesburg Farmers' Market,"The Galesburg Farmers' Market is your one-stop-shop for all the local goods you need, from fresh fruits and veggies, meats and eggs, honey, baked goods and prepared foods, handmade crafts and jewelry, and so much more. Find us in downtown Galesburg near the corner of Simmons and Seminary every Saturday from 8-12, May through October.",Kathy Bennett,kathjobennett@gmail.com,309-368-4030,www.galesburgfarmersmarket.com,https://www.facebook.com/GalesburgFarmersMarket,,,,,,"362 East Simmons Street, Galesburg, IL, USA",Illinois,Galesburg,362 East Simmons Street,61401,-90.36534309999999,40.9463203,,
farmers market,"Apr 3rd, 2023",default-farmersmarket-4-3.jpg,300853,Downtown Elgin Farmers Market,,Sarah Michaels ,smichaels@downtownelgin.com,847-488-1456,https://www.downtownelgin.com/farmers-market/,https://www.facebook.com/DowntownElginFarmersMarket,https://twitter.com/ElginFarmersMkt,https://www.instagram.com/downtownelginfarmersmarket/,,,,"S. Spring Ave, Elgin , Illinois 60120",Illinois,Elgin,S. Spring Ave,60120,-88.282543,42.036328,June to October,"Fresh fruits, Fresh vegetables, Baked goods, Canned or preserved fruits/vegetables, Coffee/tea, Crafts/woodworking items, Cut flowers, Eggs, Honey, Mushrooms, Poultry/fowl meat and products, Prepared foods, Red/other non-poultry meat and products, Soap/body care products, Wild harvested forest products"
farmers market,"Aug 22nd, 2020",default-farmersmarket-4-3.jpg,301304,Rockford Midtown Market,,Brian Ohme,Rockfordmidtownmarket@gmail.com,779-770-8768,http://rockfordmidtownmarket.com,https://www.facebook.com/RockfordMidtownMarket,https://twitter.com/marketmidtown,,,,,"503 Seventh Street, Rockford, Illinois 61104",Illinois,Rockford,503 Seventh Street,61104,-89.080980,42.262526,August to October,"Fresh fruits, Fresh vegetables, Baked goods, Bedding plants, Canned or preserved fruits/vegetables, Coffee/tea, Crafts/woodworking items, Cut flowers, Eggs, Fresh/dried herbs, Grains/flour, Honey, Nuts, Pet food, Prepared foods, Soap/body care products, Wild harvested forest products"
farmers market,"Aug 24th, 2021",default-farmersmarket-4-3.jpg,301591,4 Veggies & 3 Fruits Farmers Market,,Jamaal Applewhite,balancedhealth2017@gmail.com,5157185468,,,,,,,,"140 W 62nd Street, Chicago , Illinois 60621",Illinois,Chicago,140 W 62nd Street,60621,-87.629595,41.781896,Year-round,"Coffee/tea, Crafts/woodworking items, Fresh/dried herbs, Honey, Nuts, Red/other non-poultry meat and products, Soap/body care products"
farmers market,"Aug 25th, 2021",default-farmersmarket-4-3.jpg,301592,Open Air Farmers Market+ At The Dole Mansion,,Linda Wozniak,lwozniak@thedole.org,815-307-4787,www.farmersmarketatthedole.org,www.facebook.com/FarmersMarketatTheDole,,,,,,"401 Country Club Road, Crystal Lake, Illinois 60014",Illinois,Crystal Lake,401 Country Club Road,60014,-88.335331,42.232554,June to October,"Fresh fruits, Fresh vegetables, Baked goods, Bedding plants, Canned or preserved fruits/vegetables, Crafts/woodworking items, Cut flowers, Dairy products., Eggs, Fish/seafood, Fresh/dried herbs, Grains/flour, Honey, Mushrooms, Nuts, Pet food, Poultry/fowl meat and products, Prepared foods, Red/other non-poultry meat and products, Soap/body care products, Wild harvested forest products"
farmers market,"Aug 31st, 2021",default-farmersmarket-4-3.jpg,301593,Humpday Farmers Market,,Karen Jensen-Britton,karen@fwsoil.org,618-370-3287,http://www.carbondalemarket.com/,https://www.facebook.com/communityfarmersmarket,,,,,,"1237 E Main St, Carbondale, Illinois 62901",Illinois,Carbondale,1237 E Main St,62901,-89.193194,37.730073,December to March,"Fresh fruits, Fresh vegetables, Baked goods, Bedding plants, Canned or preserved fruits/vegetables, Coffee/tea, Crafts/woodworking items, Cut flowers, Eggs, Fish/seafood, Fresh/dried herbs, Honey, Mushrooms, Nuts, Pet food, Poultry/fowl meat and products, Red/other non-poultry meat and products, Soap/body care products, Wild harvested forest products"
farmers market,"Aug 31st, 2021",default-farmersmarket-4-3.jpg,301594,Humpday Farmers Market,,Sonja Lallemand,sonjalallemand@gmail.com,618-203-6657,https://humpdayfarmersmarket.com/,https://www.facebook.com/Humpday-Farmers-Market-101574485558655,,,,,,"2421 W Main St, Carbondale, Illinois 62901",Illinois,Carbondale,2421 W Main St,62901,-89.247353,37.731906,April to October,"Fresh fruits, Fresh vegetables, Baked goods, Bedding plants, Canned or preserved fruits/vegetables, Crafts/woodworking items, Cut flowers, Eggs, Fresh/dried herbs, Honey, Soap/body care products, Wild harvested forest products"
farmers market,"Dec 14th, 2021",default-farmersmarket-4-3.jpg,301621,LEAF Food Hub,,Elizabeth DeRuntz,leaffoodhub@gmail.com,6189241290,www.leaffoodhub.com,https://www.facebook.com/LEAFFoodHub,,,,,,"9535 US Hwy 51 N, Cobden, Illinois 62920",Illinois,Cobden,9535 US Hwy 51 N,62920,-89.254353,37.533392,Year-round,"Fresh fruits, Fresh vegetables, Baked goods, Bedding plants, Canned or preserved fruits/vegetables, Coffee/tea, Cut flowers, Dairy products., Eggs, Fresh/dried herbs, Grains/flour, Honey, Mushrooms, Nuts, Poultry/fowl meat and products, Red/other non-poultry meat and products, Soap/body care products"
farmers market,"Feb 10th, 2022",default-farmersmarket-4-3.jpg,301653,Oswego Country Market,,Cori Veverka,cveverka@oswegolandpd.org,6305541010,https://www.oswegolandparkdistrict.org/programs-events/special-events/oswego-country-market/,https://www.facebook.com/OswegoCountryMarket,,,,,,"15 Main Street, Oswego, Illinois 60543",Illinois,Oswego,15 Main Street,60543,-88.351584,41.684774,June to September,"Fresh fruits, Fresh vegetables, Baked goods, Bedding plants, Canned or preserved fruits/vegetables, Crafts/woodworking items, Cut flowers, Dairy products., Eggs, Fish/seafood, Honey, Juices/non-alcoholic ciders, Mushrooms, Nuts, Pet food, Poultry/fowl meat and products, Prepared foods, Red/other non-poultry meat and products, Soap/body care products"
farmers market,"Feb 17th, 2021",default-farmersmarket-4-3.jpg,301437,Old Capitol Farmers Market,,Kayla Graven,market@downtownspringfield.org,217-544-1723,https://www.downtownspringfield.org/old-capitol-farmers-market/,https://www.facebook.com/OldCapitolFarmersMarket,,,,,,"4th and Adams, Springfield , Illinois 62701",Illinois,Springfield,4th and Adams,62701,-89.650662,39.800581,May to October,"Fresh fruits, Fresh vegetables, Baked goods, Bedding plants, Canned or preserved fruits/vegetables, Coffee/tea, Crafts/woodworking items, Cut flowers, Eggs, Fish/seafood, Fresh/dried herbs, Grains/flour, Honey, Nuts, Pet food, Poultry/fowl meat and products, Prepared foods, Red/other non-poultry meat and products, Soap/body care products"
farmers market,"Feb 1st, 2022",default-farmersmarket-4-3.jpg,301643,Lanark Farmers Market,,Lee Reese,LanarkFarmersMarket@gmail.com,8152754395,https://lanarkfarmersmarket.com/,https://www.facebook.com/LanarkFarmersMarket/,https://twitter.com/lanark_market,,,,,"101 N Broad St, Lanark, Illinois 61046",Illinois,Lanark,101 N Broad St,61046,-89.832636,42.102271,May to October,"Fresh fruits, Fresh vegetables, Baked goods, Bedding plants, Canned or preserved fruits/vegetables, Crafts/woodworking items, Dairy products., Honey, Maple products, Prepared foods, Soap/body care products"
farmers market,"Feb 23rd, 2022",default-farmersmarket-4-3.jpg,301664,Navarro Farm,,Damion Navarro,hello@navarrofarm.org,8152702010,https://www.navarrofarm.org/,https://www.facebook.com/navarrofarm.org/,,,,,,"22155 S.104th Ave., Frankfort, Illinois 60423",Illinois,Frankfort,22155 S.104th Ave.,60423,-87.867562,41.488007,June to October,"Fresh fruits, Fresh vegetables, Cut flowers, Eggs, Honey, Soap/body care products"
farmers market,"Feb 9th, 2021",default-farmersmarket-4-3.jpg,300108,Northbrook Farmers Market,,Dale Duda,Dudamann@Comcast.net,847-272-6359,www.NorthbrookFarmersMarket.org,https://www.facebook.com/pages/Northbrook-Farmers-Market/145228398876527,,,,,,"Cherry Lane and Meadow Road, Northbrook, Illinois 60062",Illinois,Northbrook,Cherry Lane and Meadow Road,60062,-87.828657,42.1314024,June to October,"Fresh fruits, Fresh vegetables, Baked goods, Bedding plants, Canned or preserved fruits/vegetables, Cut flowers, Dairy products., Eggs, Fresh/dried herbs, Honey, Poultry/fowl meat and products, Red/other non-poultry meat and products, Soap/body care products"
farmers market,"Jan 10th, 2022",default-farmersmarket-4-3.jpg,301629,The LMH Market,,Jamie Jones,jones.jamie@mhsil.com,217-605-5008,memorial.health/The-LMH-Market,https://www.facebook.com/thelmhmarket/photos/?ref=page_internal,,,,,,"1408 Short Eleventh St, Lincoln, Illinois 62656",Illinois,Lincoln,1408 Short Eleventh St,62656,-89.385624,40.154175,May to September,"Fresh fruits, Fresh vegetables, Baked goods, Canned or preserved fruits/vegetables, Coffee/tea, Cut flowers, Dairy products., Eggs, Fresh/dried herbs, Honey, Juices/non-alcoholic ciders, Maple products, Nuts, Pet food, Poultry/fowl meat and products, Prepared foods, Soap/body care products"
farmers market,"Jan 13th, 2021",default-farmersmarket-4-3.jpg,300342,DeKalb Farmers' Market,,Virginia Filicetti,virginia.filicetti@dekalb.org,815-756-6306,www.dekalb.org/farmersmarket,https://www.facebook.com/dekalbfarmersmarket,,,,,,"2nd and Locust Streets, DeKalb, Illinois 60115",Illinois,DeKalb,2nd and Locust Streets,60115,-88.752032,41.931127,June to September,"Fresh fruits, Fresh vegetables, Baked goods, Bedding plants, Canned or preserved fruits/vegetables, Coffee/tea, Crafts/woodworking items, Cut flowers, Fresh/dried herbs, Grains/flour, Honey, Juices/non-alcoholic ciders, Nursery stock, Nuts, Prepared foods, Soap/body care products, Wild harvested forest products, Wine, spirits, beer, hard cider"
farmers market,"Jan 17th, 2022",default-farmersmarket-4-3.jpg,301631,Garfield Park Neighborhood Market - Indoor Season,,Angela Taylor,angela@gpcommunitycouncil.org,773-948-8989,https://www.gpcommunitycouncil.org/programs/neighborhood-market,https://www.facebook.com/gpccouncil/,https://twitter.com/gpccouncil,,,https://www.youtube.com/channel/UCSwgrWklA_60UeQUWWQ8Csg/,,"135 N Kedzie Ave., Chicago, Illinois 60612",Illinois,Chicago,135 N Kedzie Ave.,60612,-87.705713,41.883908,April to May,"Fresh fruits, Fresh vegetables, Baked goods, Canned or preserved fruits/vegetables, Crafts/woodworking items, Fresh/dried herbs, Honey, Juices/non-alcoholic ciders, Nuts, Prepared foods, Soap/body care products"
farmers market,"Jan 25th, 2021",default-farmersmarket-4-3.jpg,301391,Vine Street Market at O'Fallon Station,,Sarah Burton,sburton@ofallon.org,6182064379,https://ofallonstation.com/vine-street-market/,@vinestreetmarketofallon,,,,,,"212 E 1st Street, O'Fallon, Illinois 62269",Illinois,O'Fallon,212 E 1st Street,62269,-89.908925,38.591615,February,"Fresh fruits, Fresh vegetables, Baked goods, Bedding plants, Canned or preserved fruits/vegetables, Coffee/tea, Crafts/woodworking items, Cut flowers, Dairy products., Eggs, Fresh/dried herbs, Grains/flour, Honey, Juices/non-alcoholic ciders, Nursery stock, Pet food, Poultry/fowl meat and products, Prepared foods, Red/other non-poultry meat and products, Soap/body care products, Wine, spirits, beer, hard cider"
farmers market,"Jan 26th, 2021",default-farmersmarket-4-3.jpg,300187,Mount Carroll Farmers Market,,Stephanie Samuels,info@mtcarrollil.org,,,https://www.facebook.com/MountCarrollFarmersMarket,,,,,,"116 E Market Street, Mount Carroll , Illinois 61053",Illinois,Mount Carroll,116 E Market Street,61053,-89.978008,42.101295,May to October,"Fresh fruits, Fresh vegetables, Baked goods, Bedding plants, Canned or preserved fruits/vegetables, Crafts/woodworking items, Cut flowers, Eggs, Fresh/dried herbs, Honey, Nuts, Prepared foods, Red/other non-poultry meat and products, Soap/body care products"
farmers market,"Jan 26th, 2021",default-farmersmarket-4-3.jpg,301406,Woodstock Farmers Market - Winter,,Keith Johnson,woodstockfarmersmarketil@gmail.com,815-338-5164,www.woodstockfarmersmarket.org,https://www.facebook.com/woodstockfarmersmarket,@woodstockfarmmk,,,,,"11900 Country Club Rd., Woodstock, Illinois 60098",Illinois,Woodstock,11900 Country Club Rd.,60098,-88.435654,42.310266,October to April,"Fresh fruits, Fresh vegetables, Baked goods, Canned or preserved fruits/vegetables, Crafts/woodworking items, Dairy products., Dry beans, Eggs, Fresh/dried herbs, Honey, Juices/non-alcoholic ciders, Mushrooms, Pet food, Poultry/fowl meat and products, Red/other non-poultry meat and products, Soap/body care products"
farmers market,"Jan 27th, 2021",default-farmersmarket-4-3.jpg,301408,Green City Market Lincoln Park,,Taylor Choy,admin@greencitymarket.org,773-880-1266,www.greencitymarket.org,www.facebook.com/greencitymarket,www.twitter.com/greencitymarket,,,,,"1817 N. Clark St, Chicago, Illinois 60614",Illinois,Chicago,1817 N. Clark St,60614,-87.633865,41.915854,May to October,"Fresh fruits, Fresh vegetables, Baked goods, Canned or preserved fruits/vegetables, Coffee/tea, Cut flowers, Dairy products., Dry beans, Eggs, Fish/seafood, Fresh/dried herbs, Grains/flour, Honey, Juices/non-alcoholic ciders, Maple products, Mushrooms, Nuts, Pet food, Poultry/fowl meat and products, Prepared foods, Red/other non-poultry meat and products, Soap/body care products, Tofu/non-animal protein, Wild harvested forest products"
farmers market,"Jan 27th, 2021",default-farmersmarket-4-3.jpg,301409,Green City Market West Loop,,Tammy Owins,admin@greencitymarket.org,7738801266,www.greencitymarket.org,www.facebook.com/greencitymarket,www.twitter.com/greencitymarket,,,,,"115 S. Sangamon St, Chicago, Illinois 60607",Illinois,Chicago,115 S. Sangamon St,60607,-87.650439,41.880039,June to October,"Fresh fruits, Fresh vegetables, Baked goods, Canned or preserved fruits/vegetables, Coffee/tea, Cut flowers, Dairy products., Eggs, Fish/seafood, Fresh/dried herbs, Honey, Juices/non-alcoholic ciders, Mushrooms, Poultry/fowl meat and products, Prepared foods, Red/other non-poultry meat and products, Wild harvested forest products"
farmers market,"Jan 4th, 2021",default-farmersmarket-4-3.jpg,300186,Twin City Farmers Market,,Janna Groharing,janna@sterlingmainstreet.org,815-626-8610,www.twincityfarmersmarket.com,https://www.facebook.com/twincityfarmersmarket,@twincitymarket,,,,,"106 Avenue A, Sterling IL, Illinois 61081",Illinois,Sterling IL,106 Avenue A,61081,-89.697172,41.787255,Year-round,"Fresh fruits, Fresh vegetables, Baked goods, Bedding plants, Canned or preserved fruits/vegetables, Coffee/tea, Crafts/woodworking items, Cut flowers, Dairy products., Eggs, Fresh/dried herbs, Honey, Maple products, Mushrooms, Pet food, Poultry/fowl meat and products, Prepared foods, Red/other non-poultry meat and products, Soap/body care products"
farmers market,"Jan 4th, 2021",default-farmersmarket-4-3.jpg,300859,Glenwood Sunday Market,,Sheree Moratto,smoratto@rpba.org,773-508-5885,https://www.glenwoodsundaymarket.org/,https://www.facebook.com/GlenwoodSunday/,https://twitter.com/glenwoodsunday,,,,,"Chicago, Illinois 60626",Illinois,Chicago,,60626,-87.681844,41.837551,June to October,"Fresh fruits, Fresh vegetables, Baked goods, Bedding plants, Canned or preserved fruits/vegetables, Cut flowers, Dairy products., Dry beans, Eggs, Fish/seafood, Fresh/dried herbs, Grains/flour, Honey, Juices/non-alcoholic ciders, Maple products, Mushrooms, Poultry/fowl meat and products, Red/other non-poultry meat and products, Soap/body care products, Tofu/non-animal protein"
farmers market,"Jan 5th, 2021",default-farmersmarket-4-3.jpg,300046,Crystal Lake Farmers Market,,Jen Martin,events@downtowncl.org,8154790835,25 W. Crystal Lake Ave,www.facebook.com/CrystalLakeFarmersMarket,,,,Downtown Crystal Lake,,"Depot Park, Woodstock & Williams Streets, Crystal Lake, Illinois 60014",Illinois,Crystal Lake,Woodstock & Williams Streets,60014,-88.317010,42.243752,June to September,"Fresh fruits, Fresh vegetables, Baked goods, Bedding plants, Canned or preserved fruits/vegetables, Cut flowers, Dairy products., Eggs, Fish/seafood, Fresh/dried herbs, Grains/flour, Honey, Maple products, Mushrooms, Nursery stock, Poultry/fowl meat and products, Prepared foods, Red/other non-poultry meat and products"
farmers market,"Jan 7th, 2021",default-farmersmarket-4-3.jpg,300148,Hinsdale Farmers Market,,Claudia Thornton,claudia@hinsdalechamber.com,630-323-3952,www.hinsdalechamber.com,,,,,,,"30 E. Chicago Ave., Hinsdale, Illinois 60521",Illinois,Hinsdale,30 E. Chicago Ave.,60521,-87.928694,41.8036543,May to October,"Fresh fruits, Fresh vegetables, Baked goods, Bedding plants, Canned or preserved fruits/vegetables, Coffee/tea, Cut flowers, Dairy products., Dry beans, Eggs, Fish/seafood, Fresh/dried herbs, Honey, Poultry/fowl meat and products, Prepared foods, Red/other non-poultry meat and products, Soap/body care products, Wine, spirits, beer, hard cider"
farmers market,"Jul 21st, 2020",default-farmersmarket-4-3.jpg,301160,Bethalto Market In The Park,,Jane Ahasay,bethaltofarmermarket@gmail.com,6182402777,bethaltomarketinthepark.org,bethatofarmersmarket,,,,,,"213 N Priaire St, Bethalto, Illinois 62010",Illinois,Bethalto,213 N Priaire St,62010,-90.053468,38.902967,May to October,"Fresh fruits, Fresh vegetables, Baked goods, Bedding plants, Canned or preserved fruits/vegetables, Honey, Red/other non-poultry meat and products, Soap/body care products"
farmers market,"Jul 31st, 2020",default-farmersmarket-4-3.jpg,301182,Downtown Bloomington Farmers Market- Indoor,,Catherine Dunlap,cdunlap@cityblm.or,309-434-2295,http://downtownbloomington.org,https://www.facebook.com/DBAFarmersMarket/,,,,,,"101 S. Madison, Bloomington, Illinois 61701",Illinois,Bloomington,101 S. Madison,61701,-88.996165,40.478127,,"Fresh fruits, Fresh vegetables, Baked goods, Canned or preserved fruits/vegetables, Eggs, Fresh/dried herbs, Grains/flour, Honey, Maple products, Poultry/fowl meat and products, Red/other non-poultry meat and products, Soap/body care products"
farmers market,"Jul 7th, 2020",default-farmersmarket-4-3.jpg,301150,Vernon Hills Park District Farmers Market,,Amy Darling,amyd@vhparkdistrict.org,8479966806,vhpdfarmersmarket.org,,,,,,,"Lakeview Parkway and Hawthorn Parkway, Vernon Hills, Illinois 60061",Illinois,Vernon Hills,Lakeview Parkway and Hawthorn Parkway,60061,-87.962265,42.241619,June to October,"Fresh fruits, Fresh vegetables, Baked goods, Canned or preserved fruits/vegetables, Coffee/tea, Fish/seafood, Fresh/dried herbs, Honey, Nuts, Poultry/fowl meat and products, Prepared foods, Red/other non-poultry meat and products, Soap/body care products"
farmers market,"Jun 17th, 2022",farmersmarket_301737_14179_20220617122350.png,301737,Streator Farmers Market,"We have Artisan breads, candy , canned goods, crafts, and baked goods",Shaun D Moran,shaun.moran418@frontier.com,815-510-0268,,www.facebook.com/groups/1282428651949282,,,,,,"201 North Park Street, Streator, IL, USA",Illinois,Streator,201 North Park Street,61364,-88.8341998,41.1219938,06/04/2022 to 10/29/2022,"Fresh vegetables, Baked goods, Bedding plants, Canned or preserved fruits/vegetables, Crafts/woodworking items, Cut flowers, Fresh/dried herbs, Honey, Pet food, Soap/body care products"
farmers market,"Jun 23rd, 2021",default-farmersmarket-4-3.jpg,301547,Batavia Farmers' Market,,Kathy Kuchta,kathy@downtownbatavia.com,630-761-3528,https://downtownbatavia.com/farmers-market/,https://www.facebook.com/BataviaFarmersMarket/about/?ref=page_internal,,,,,,"North River Street, Batavia, Illinois 60510",Illinois,Batavia,North River Street,60510,-88.306027,41.851028,June to October,"Fresh fruits, Fresh vegetables, Baked goods, Bedding plants, Canned or preserved fruits/vegetables, Coffee/tea, Cut flowers, Dairy products., Eggs, Fresh/dried herbs, Honey, Juices/non-alcoholic ciders, Maple products, Pet food, Poultry/fowl meat and products, Prepared foods, Red/other non-poultry meat and products, Soap/body care products"
farmers market,"Jun 7th, 2020",default-farmersmarket-4-3.jpg,300099,Andersonville Farmers Market,,Joan Oberndorf,market@andersonville.org,773-728-2995,www.andersonvillemarket.org,https://www.facebook.com/andersonville?ref=bookmarks,,,,,,"1500 W. Catalpa Ave., Chicago, Illinois 60640",Illinois,Chicago,1500 W. Catalpa Ave.,60640,-87.668602,41.981745,June to October,"Poultry/fowl meat and products, Prepared foods, Red/other non-poultry meat and products, Soap/body care products, Tofu/non-animal protein, Wild harvested forest products"
farmers market,"Mar 12th, 2021",default-farmersmarket-4-3.jpg,301455,Woodstock Farmers Market-Tuesday Summer,,Keith Johnson,woodstockfarmersmarketil@gmail.com,8153385164,www.woodstockfarmersmarket.org,https://www.facebook.com/woodstockfarmersmarket,@woodstockfarmmk,,,,,"112 S. Benton St., Woodstock, Illinois 60098",Illinois,Woodstock,112 S. Benton St.,60098,-88.435654,42.310266,June to September,"Fresh fruits, Fresh vegetables, Baked goods, Bedding plants, Canned or preserved fruits/vegetables, Crafts/woodworking items, Cut flowers, Dairy products., Dry beans, Eggs, Fresh/dried herbs, Grains/flour, Honey, Juices/non-alcoholic ciders, Mushrooms, Nursery stock, Nuts, Pet food, Poultry/fowl meat and products, Prepared foods, Red/other non-poultry meat and products, Soap/body care products"
farmers market,"Mar 12th, 2021",default-farmersmarket-4-3.jpg,301456,Woodstock Farmers Market-Saturday Summer,,Keith Johnson,woodstockfarmersmarketil@gmail.com,8153385164,www.woodstockfarmersmarket.org,https://www.facebook.com/woodstockfarmersmarket,@woodstockfarmmk,,,,,"112 S. Benton St., Woodstock, Illinois 60098",Illinois,Woodstock,112 S. Benton St.,60098,-88.435654,42.310266,April to October,"Fresh fruits, Fresh vegetables, Baked goods, Bedding plants, Canned or preserved fruits/vegetables, Crafts/woodworking items, Cut flowers, Dairy products., Dry beans, Eggs, Fresh/dried herbs, Grains/flour, Honey, Juices/non-alcoholic ciders, Mushrooms, Nursery stock, Nuts, Pet food, Poultry/fowl meat and products, Prepared foods, Red/other non-poultry meat and products, Soap/body care products"
farmers market,"Mar 20th, 2023",default-farmersmarket-4-3.jpg,309705,18th Street Farmers Market,,,,217-345-4700,,https://www.facebook.com/18thstreetfarmersmarket/,,,,,,"825 18th Street Charleston, IL 61920",Illinois,Charleston,825 18th Street,61920,-88.16354096451768,39.491467254398785,,
farmers market,"Mar 20th, 2023",default-farmersmarket-4-3.jpg,309706,61st Street Farmers' Market,,,kim@experimentalstation.org,773-241-6044,http://www.experimentalstation.org/farmers-market,https://www.facebook.com/61stStreetFarmersMarket,,,,,,"6100 S. Blackstone Ave., Chicago, IL, 60637",Illinois,Chicago,6100 S. Blackstone Ave.,60637,-87.59030125643721,41.78388006900722,,
farmers market,"Mar 20th, 2023",default-farmersmarket-4-3.jpg,309707,95th St. Farmers Market,,,info@napervilleparks.org,,http://napervilleparks.org/farmersmarket,,,,,,,"3015 Cedar Glade Drive Naperville, IL 60564",Illinois,Naperville,3015 Cedar Glade Drive,60564,-88.20102499649082,41.710653556566925,,
farmers market,"Mar 20th, 2023",default-farmersmarket-4-3.jpg,309708,Abundant Market - Tuscola's Downtown Farmers' Market,,,,217-253-2552,http://www.point2tuscola.org,,,,,,,"214 N. Main Tuscola, IL 61953",Illinois,TUSCOLA,214 N MAIN ST,61953,-88.28769816766706,39.79989544693365,,
farmers market,"Mar 20th, 2023",default-farmersmarket-4-3.jpg,309709,Aledo Main Street Farmer's Market & Bake Sale,,,,309-582-2751,,,,,,,,"PO Box 209 PO Box 209 Aledo, IL 61231",Illinois,Aledo,201 W Main St,61231,-90.75218999999998,41.20170000000007,,
farmers market,"Mar 20th, 2023",default-farmersmarket-4-3.jpg,309710,Alsip Park District Farmers' Market,,,cathyv@alsipparks.org,708-389-1003,http://www.alsipparks.org/,,,,,,,"12521 S. Kostner Ave., Alsip, IL, 60803",Illinois,Alsip,12521 S. Kostner Ave.,60803,-87.72899570204055,41.665551044872245,,
farmers market,"Mar 20th, 2023",default-farmersmarket-4-3.jpg,309711,Alton Farmers' & Artisans' Market,,,sara@altonmainstreet.org,618-463-1016,http://www.altonmainstreet.org/page/farmers-market/,https://www.facebook.com/AltonFarmersMarket/,,,,,,"501 Landmarks Blvd., Alton, IL, 62002",Illinois,Alton,501 Landmarks Blvd.,62002,-90.1789739016337,38.88891091521646,,
farmers market,"Mar 20th, 2023",default-farmersmarket-4-3.jpg,309712,Andersonville Winter Farmers Market,,,,773-529-9250,http://ebenezerchurch.org/,,,,,,,"1650 W. Foster Avenue Chicago, IL 60640",Illinois,CHICAGO,1650 W FOSTER AVE,60640,-87.67118136686325,41.976157786710786,,
farmers market,"Mar 20th, 2023",default-farmersmarket-4-3.jpg,309713,Anna / Union County Farmers' Market,,,,618-833-2525,https://www.ucchamber.com/,,,,,,,"1150 Vienna Street Anna, IL 629062032",Illinois,Anna,1150 Vienna Street,62032,-89.2299769768631,37.46097000663214,,
farmers market,"Mar 20th, 2023",default-farmersmarket-4-3.jpg,309714,Antioch Farmers' Market,,,parks@antioch.il.gov,847-395-2160,http://www.antioch.il.gov/farmersmarket.cfm,https://www.facebook.com/VillageOfAntioch/,,,,,,"845 Main St., Antioch, IL, 60002",Illinois,Antioch,845 Main St.,60002,-88.09624747763684,42.47861347174096,,
farmers market,"Mar 20th, 2023",default-farmersmarket-4-3.jpg,309715,Antioch's Farmers Market,,,,847-395-2160,http://www.antioch.il.gov,http://www.facebook.com/VillageofAntioch,,,,,,"900 Skidmore Drive Antioch, IL 60002 In front of the William E. Brook Entertainment Center.",Illinois,ANTIOCH,900 SKIDMORE DR,60002,-88.09445309780797,42.4770085060344,,
farmers market,"Mar 20th, 2023",default-farmersmarket-4-3.jpg,309716,Arlington Heights Farmers Market,,,,847-255-1225,http://AHFarmersMarket.com,,,,,,,"110 W. Fremont Arlington Heights, IL 60004",Illinois,ARLINGTON HEIGHTS,110 W FREMONT ST,60004,-87.98440165309212,42.087400717943616,,
farmers market,"Mar 20th, 2023",default-farmersmarket-4-3.jpg,309717,Ashburn (Chicago) Farmers' Market,,,,312-744-4306,https://www.chicagofarmersmarkets.us/,,,,,,,"6700 S Kedzie Ave Chicago, IL 60652",Illinois,Chicago,6700 S Kedzie Ave,60652,-87.70295962334978,41.7710306169126,,
farmers market,"Mar 20th, 2023",default-farmersmarket-4-3.jpg,309718,Assumption Farmers Market,,,,217-565-2479,,,,,,,,"100 N Chestnut St Assumption, IL 62510",Illinois,Assumption,100 N Chestnut St,62510,-89.04976338142629,39.51917455059825,,
farmers market,"Mar 20th, 2023",default-farmersmarket-4-3.jpg,309719,Athens Farmers Market,,,,217-636-7160,,,,,,,,"Jefferson Street Athens, IL 62613",Illinois,Athens,Jefferson Street,62613,-89.72339768154978,39.96016611760869,,
farmers market,"Mar 20th, 2023",default-farmersmarket-4-3.jpg,309720,Aurora Farmers' Market,,,farmersmarket@aurora-il.org,630-256-3370,https://www.aurora-il.org/events/farmersmarket.php,https://www.facebook.com/Friends.AFM.Aurora.IL,,,,,,"233 N. Broadway, Aurora, IL, 60505",Illinois,Aurora,233 N. Broadway,60505,-88.30939258417673,41.76162303637911,,
farmers market,"Mar 20th, 2023",default-farmersmarket-4-3.jpg,309721,Aurora's Farmers Market East,,,,630-256-3370,http://www.aurorasfarmersmarket.com/,https://www.facebook.com/friends.afm.aurora.il/?ref=bookmarks,,,,,,"701 S. Eola Road Aurora, IL 60504",Illinois,Aurora,701 S. Eola Road,60504,-88.24848372830962,41.742931720022014,,
farmers market,"Mar 20th, 2023",default-farmersmarket-4-3.jpg,309722,Aurora's Farmers Market West,,,FarmersMarket@aurora.il.us,630-256-3374,https://www.aurora-il.org/1595/Aurora-Farmers-Market,https://www.facebook.com/events/345046459304548/,,,,,,"2131 West Galena Boulevard Aurora, IL 60506",Illinois,Aurora,2131 West Galena Boulevard,60506,-88.37109098712455,41.764860238763035,,
farmers market,"Mar 20th, 2023",default-farmersmarket-4-3.jpg,309723,Austin City Market,,,,312-744-0565,https://www.chicagofarmersmarkets.us/,,,,,,,"5900 W Chicago Ave. Chicago, IL 60644",Illinois,Chicago,5900 W Chicago Ave.,60644,-87.77251639854902,41.89475800571368,,
farmers market,"Mar 20th, 2023",default-farmersmarket-4-3.jpg,309724,Austin Town Hall City Market,,,,,http://www.chicagocitymarkets.us,,,,,,,"5610 W. Lake St. Chicago, IL 60644",Illinois,CHICAGO,5610 W LAKE ST,60644,-87.76630082416945,41.88776822750941,,
farmers market,"Mar 20th, 2023",default-farmersmarket-4-3.jpg,309725,Barrington Farmers' Market,,,knagaraj@cookcountyhhs.org,847-818-2844,http://barringtonfarmersmarket.com/,,,,,,,"S. Cook St. and E. Station St., Barrington, IL, 60010",Illinois,Barrington,S. Cook St. and E. Station St.,60010,-88.13483002974411,42.1532800198315,,
farmers market,"Mar 20th, 2023",default-farmersmarket-4-3.jpg,309726,Barrington Village Farmers Market,,,,773-892-7364,http://barringtonfarmersmarket.com/,https://www.facebook.com/barringtonvillagefarmersmarket,,,,,,"Park Avenue and Cook Street Barrington, IL 60010",Illinois,Barrington,Park Avenue and Cook Street,60010,-88.13480999699551,42.15389001283509,,
farmers market,"Mar 20th, 2023",default-farmersmarket-4-3.jpg,309727,Batavia Indoor Market,,,,630-761-3528,https://downtownbatavia.com/farmers-market/#,https://www.facebook.com/BataviaFarmersMarket/,,,,,,"160 First Street Batavia, IL 60510",Illinois,Batavia,160 First Street,60510,-88.30971270516417,41.848754295900356,,
farmers market,"Mar 20th, 2023",default-farmersmarket-4-3.jpg,309728,Beardstown Farmers Market,,,,217-323-5479,http://Beardstownms.com,,,,,,,"206 Washington Beardstown, IL 62618",Illinois,BEARDSTOWN,206 WASHINGTON ST,62618,-90.43519775974256,40.016839653193905,,
farmers market,"Mar 20th, 2023",default-farmersmarket-4-3.jpg,309729,Belleville Old Town Farmers Market,,,you@email.com,618-233-2015,https://www.bellevillemainstreet.net/,,,,,,,"620 N. Illinois Street Belleville, IL 62220",Illinois,Belleville,620 N. Illinois Street,62220,-89.98418100355414,38.52023556156443,,
farmers market,"Mar 20th, 2023",default-farmersmarket-4-3.jpg,309730,Belvidere Farmers' Market,,,info@belviderefarmersmarket.com,815-519-4341,,https://www.facebook.com/BelvidereFarmersMarketandCrafts/,,,,,,"1940 N. State St., Belvidere, IL, 61008",Illinois,Belvidere,1940 N. State St.,61008,-88.86193407269947,42.27254297596001,,
farmers market,"Mar 20th, 2023",default-farmersmarket-4-3.jpg,309731,Belvidere's Hometown Market,,,,815-544-5271,,,,,,,,"324 South State STreet Belvidere, IL 61008",Illinois,BELVIDERE,324 S STATE ST,61008,-88.84091056279694,42.257037544650785,,
farmers market,"Mar 20th, 2023",default-farmersmarket-4-3.jpg,309732,Bensenville Farmers' Market,,,,,http://www.bensenville.il.us/index.aspx?NID=278,,,,,,,"12 S. Center Street Bensenville, IL 60106",Illinois,BENSENVILLE,12 S CENTER ST,60106,-87.94105683953316,41.95645513470546,,
farmers market,"Mar 20th, 2023",default-farmersmarket-4-3.jpg,309733,Berwyn Farmers' Market,,,berwynfarmersmarket@gmail.com,708-788-6600,http://www.berwyn.net,https://www.facebook.com/berwyntownshipfarmersmarket,,,,,,"6600 26th St., Berwyn, IL, 60402",Illinois,Berwyn,6600 26th St.,60402,-87.78847897787973,41.84306301728034,,
farmers market,"Mar 20th, 2023",default-farmersmarket-4-3.jpg,309734,Beverly Farmers' Market,,,,,http://www.cityofchicago.org/city/en/depts/dca/supp_info/farmers_market.html,https://www.facebook.com/pages/Chicago-Farmers-Markets/19988198547,,,,,,"9500 S. Longwood Dr., Chicago, IL, 60643",Illinois,Chicago,9500 S. Longwood Dr.,60643,-87.66914783136684,41.720916372246364,,
farmers market,"Mar 20th, 2023",default-farmersmarket-4-3.jpg,309735,Bolingbrook Farmers' Market,,,,815-954-9788,http://www.shoppingpromenade.com/,https://www.facebook.com/ThePromenade,,,,,,"631 E. Boughton Rd., Promenade Shopping Mall, Bolingbrook, IL, 60440",Illinois,Bolingbrook,631 E. Boughton Rd.,60440,-88.04295081559606,41.72100839060043,,
farmers market,"Mar 20th, 2023",default-farmersmarket-4-3.jpg,309736,Breese Farmers Market,,,,618-526-4495,,,,,,,,"500 N 1st Street Breese, IL 62230",Illinois,Breese,500 N 1st Street,62230,-89.52877599303756,38.607700580546314,,
farmers market,"Mar 20th, 2023",default-farmersmarket-4-3.jpg,309737,Bronzeville (City of Chicago Markets),,,,,,,,,,,,"4700 S King Drive Chicago, IL 60615",Illinois,Chicago,4700 S King Drive,60615,-87.61691589707672,41.80932200863668,,
farmers market,"Mar 20th, 2023",default-farmersmarket-4-3.jpg,309738,Brookfield Farmers Market,,,brookfieldfarmers@gmail.com,312-403-7736,https://www.brookfieldchamber.net/,,,,,,,"8820 Brookfield Ave. Brookfield, IL 60513",Illinois,Brookfield,8820 Brookfield Ave.,60513,-87.8426681007417,41.82251685413728,,
farmers market,"Mar 20th, 2023",default-farmersmarket-4-3.jpg,309739,Buffalo Grove Farmers Market,,,info@vbg.org,847-912-0447,http://www.vbg.org/farmers%20market,,,,,,,"50 Raupp Blvd Buffalo Grove, IL 60089",Illinois,Buffalo Grove,50 Raupp Blvd,60089,-87.96722957957678,42.152445785213715,,
farmers market,"Mar 20th, 2023",default-farmersmarket-4-3.jpg,309740,Burr Ridge Farmers' Market,,,BRVillage@burr-ridge.gov,,http://www.burr-ridge.gov/farmers-market/,,,,,,,"450 Village Center Dr., Burr Ridge, IL, 60527",Illinois,Burr Ridge,450 Village Center Dr.,60527,-87.91246391772066,41.752325402729085,,
farmers market,"Mar 20th, 2023",default-farmersmarket-4-3.jpg,309741,Camp Point Farmers' Market,,,,,,https://www.facebook.com/Camppointfarmersmarket,,,,,,"506 W. Wood St., Camp Point, IL, 62320",Illinois,Camp Point,506 W. Wood St.,62320,-91.07292028443376,40.040017895549376,,
farmers market,"Mar 20th, 2023",default-farmersmarket-4-3.jpg,309742,Cannon Park Community Market,,,,805-323-6676,https://cannonparkmarket.com/,https://www.facebook.com/CannonParkCommunityMarket,,,,,,"120 N. Greenbriar Carterville, IL 62918",Illinois,Carterville,120 N. Greenbriar,62918,-89.09560559862688,37.76063889587842,,
farmers market,"Mar 20th, 2023",default-farmersmarket-4-3.jpg,309743,Canton Farmers Market,,,ckohler@cantoncityhall.org,309-647-2677,https://cantonillinois.org/farmersmarket,,,,,,,"90 E. Locust Street Canton, IL 61520",Illinois,Canton,90 E. Locust Street,61520,-90.0337816248504,40.55829770022703,,
farmers market,"Mar 20th, 2023",default-farmersmarket-4-3.jpg,309744,Carbondale Farmers Market,,,,618-833-2769,,,,,,,,"2001 West Main Street Carbondale, IL 62901",Illinois,Carbondale,2001 West Main Street,62901,-89.24355496534398,37.73027607245254,,
farmers market,"Mar 20th, 2023",default-farmersmarket-4-3.jpg,309745,Carlinville Farmers Market,,,,217-854-2571,,,,,,,,"220 North Broad Carlinville, IL 62626",Illinois,CARLINVILLE,"220 N BROAD ST, CARLINVLE",62626,-89.88162171497866,39.281744767118866,,
farmers market,"Mar 20th, 2023",default-farmersmarket-4-3.jpg,309746,Carlyle Courthouse Square Farmers Market,,,,618-594-4277,,,,,,,,"8th Street between Franklin (Route 50) and Fairfax Carlyle, IL 62231",Illinois,Carlyle,8th Street and Fairfax,62231,-89.37282002967449,38.6111599898949,,
farmers market,"Mar 20th, 2023",default-farmersmarket-4-3.jpg,309747,Carthage Farmers Market,,,,217-357-2188,,,,,,,,"500 Main Carthage, IL 62321",Illinois,CARTHAGE,500 MAIN ST,62321,-91.13622503800443,40.41369000817279,,
farmers market,"Mar 20th, 2023",default-farmersmarket-4-3.jpg,309748,Champaign Farmers Market,,,info@thelandconnection.org,217-840-2128,https://thelandconnection.org/champaign-farmers-market/,https://www.facebook.com/CUFarmersMarkets,,,,,,"400-498 N Neil St Champaign, IL 61820",Illinois,Champaign,400-498 N Neil St,61820,-88.24355741815299,40.11987554328879,,
farmers market,"Mar 20th, 2023",default-farmersmarket-4-3.jpg,309749,Chicago Nettlehorst French Market,,,,630-784-0862,https://www.bensidounusa.com/,,,,,,,"N Broadway Street at W. Melrose Street Chicago, IL 60657",Illinois,Chicago,N Broadway Street at W. Melrose Street,60657,-87.6444300206585,41.94110999439894,,
farmers market,"Mar 20th, 2023",default-farmersmarket-4-3.jpg,309750,City Market at Federal Plaza,,,,,http://www.chicagocitymarkets.us,,,,,,,"50 W. Adams St. Chicago, IL 60604",Illinois,CHICAGO,50 W ADAMS ST,60603,-87.63009698317038,41.87943089333168,,
farmers market,"Mar 20th, 2023",default-farmersmarket-4-3.jpg,309751,City of La Salle Farmers Market,,,lasallefarmersmarket@gmail.com,815-488-4442,https://www.lasalle-il.gov/community/la-salle-farmers-market,https://www.facebook.com/lasallefarmersmarket/,,,,,,"North West Corner Hegeler Park St. Vincent Avenue and Maple Rd La Salle, IL 61301",Illinois,La Salle,North West Corner Hegeler Park,61301,-89.09627003087489,41.34262999582228,,
farmers market,"Mar 20th, 2023",default-farmersmarket-4-3.jpg,309752,CL Farms Farmers Market,,,,,,,,,,,,"2042 N 2653rd Road Marseilles, IL 61341",Illinois,Marseilles,2042 N 2653rd Road,61341,-88.77575350456398,41.32221717921479,,
farmers market,"Mar 20th, 2023",default-farmersmarket-4-3.jpg,309753,CLC Farm Market,,,,,,http://www.facebook.com/clchorticulture,,,,,,"19351 W. Washington St. Horticulture Building Grayslake, IL 60030 Our market is held every Thursday from 3p-5:30p on the lawn in front of the horticulture building (Lancer Ln. between Brae Loch Rd. &",Illinois,HAINESVILLE,"19351 W WASHINGTON ST, HAINESVLE",60030,-88.00988723132954,42.36055435516759,,
farmers market,"Mar 20th, 2023",default-farmersmarket-4-3.jpg,309754,Clinton Area Farmers' & Artisans' Market,,,chamber@clintonilchamber.com,217-935-3364,http://www.clintonilchamber.com/events.htm,,,,,,,"100 S. Center St., Mr. Lincon's Square, Clinton, IL, 61727",Illinois,Clinton,"100 S. Center St., Mr. Lincon's Square",61727,-88.96050005592943,40.152150038869905,,
farmers market,"Mar 20th, 2023",default-farmersmarket-4-3.jpg,309755,Colonial Village Farmers' Market,,,,815-398-3350,,,,,,,,"1240 S. Alpine Rd. Rockford, IL 61108",Illinois,Rockford,1240 S. Alpine Rd.,61108,-89.02722401964814,42.254911014928894,,
farmers market,"Mar 20th, 2023",default-farmersmarket-4-3.jpg,309756,Columbus Park (City of Chicago Market),,,,,,,,,,,,"500 S Central Ave Chicago, IL 60644",Illinois,Chicago,500 S Central Ave,60644,-87.76462744610724,41.873747971697604,,
farmers market,"Mar 20th, 2023",default-farmersmarket-4-3.jpg,309757,Community Farmers' Market,,,,847-501-0430,,,,,,,,"27 N. Bennett St. Geneva, IL 60134",Illinois,GENEVA,27 N BENNETT ST,60134,-88.30034806677428,41.887308778005625,,
farmers market,"Mar 20th, 2023",default-farmersmarket-4-3.jpg,309758,Community Winter Market,,,,630-377-0373,https://www.genevagreenmarket.org/,,,,,,,"11 North Fifth St. Geneva, IL 60134",Illinois,Geneva,11 North Fifth St.,60134,-88.31055380248323,41.88845467098059,,
farmers market,"Mar 20th, 2023",default-farmersmarket-4-3.jpg,309759,Crete European Market,,,Millsap95@aol.com,708-672-0729,http://www.cretechamber.com/Euro%20Market/Euro%20Market.htm,,,,,,,"Main St. and W. Exchange St., Crete, IL, 60417",Illinois,Crete,Main St. and W. Exchange St.,60417,-87.63133002800463,41.44463000420697,,
farmers market,"Mar 20th, 2023",default-farmersmarket-4-3.jpg,309760,Cuba Farmers Market,,,,309-785-5093,,,,,,,,"403 E. Jefferson Street Cuba, IL 61427",Illinois,Cuba,403 E. Jefferson Street,61427,-90.19471752820542,40.4922104932649,,
farmers market,"Mar 20th, 2023",default-farmersmarket-4-3.jpg,309761,Daley Plaza Farmers Market,,,,312-744-9493,http://chicagocitymarkets.us/,,,,,,,"50 W. Washington Chicago, IL 60602",Illinois,Chicago,50 W. Washington,60602,-87.62965116873187,41.88322118305063,,
farmers market,"Mar 20th, 2023",default-farmersmarket-4-3.jpg,309762,Danville Farmers' Market,,,info@downtowndanville.org,217-443-3886,,https://www.facebook.com/DanvilleFM,,,,,,"319 N. Vermilion St., Danville, IL, 61832",Illinois,Danville,319 N. Vermilion St.,61832,-87.62999065556187,40.1293502035767,,
farmers market,"Mar 20th, 2023",default-farmersmarket-4-3.jpg,309763,Davis Junction Farmer's Market,,,,,,https://www.facebook.com/Davis-Junction-Farmers-Market-473941352943220/,,,,,,"RT 72 Davis Junction, IL 61020",Illinois,Davis Junction,RT 72,61020,-89.08858577665573,42.10150180013813,,
farmers market,"Mar 20th, 2023",default-farmersmarket-4-3.jpg,309764,Deerfield Farmers Market,,,listserv@civicplus.com,847-945-5000,http://deerfield.il.us/,,,,,,,"Park Avenue between Jewett Park Drive and Hazel Avenue Deerfield, IL 60015",Illinois,Deerfield,Park Avenue between Jewett Park Drive and Hazel Avenue,60015,-87.85044999227415,42.17094001926992,,
farmers market,"Mar 20th, 2023",default-farmersmarket-4-3.jpg,309765,Des Plaines Farmers' Market,,,,847-391-5488,,https://www.facebook.com/pages/City-of-Des-Plaines-Farmers-Market-300-pm-700/1458356491121433,,,,,,"Ellinwood St., Des Plaines, IL, 60016",Illinois,Des Plaines,Ellinwood St.,60016,-87.88635824524566,42.040450721417685,,
farmers market,"Mar 20th, 2023",default-farmersmarket-4-3.jpg,309766,Desoto Community Farmers Market,,,,618-525-2882,http://www.villageofdesoto.com,http://www.facebook.com/DCFM62924/,,,,,,"101 W. Main St. Desoto, IL 62924 Senior Citizens Park (gazebo) just west of the bank off of 51",Illinois,DE SOTO,101 W MAIN ST,62924,-89.22840893844733,37.81634053350579,,
farmers market,"Mar 20th, 2023",default-farmersmarket-4-3.jpg,309767,Devon Avenue Community Market,,,devoncommunitymarket@gmail.com,312-237-6687,,https://www.facebook.com/DevonAvenueCommunityMarket/,,,,,,"2720 W. Devon Ave., Chicago, IL, 60659",Illinois,Chicago,2720 W. Devon Ave.,60659,-87.69832987124454,41.99758753250829,,
farmers market,"Mar 20th, 2023",default-farmersmarket-4-3.jpg,309768,Discover Sycamore Farmer's Market,,,,815-895-3456,,http://www.facebook.com/discoversycamoresfarmersmarket/,,,,,,"Sacramento Street. Sycamore, IL 60178",Illinois,Sycamore,Sacramento Street.,60178,-88.68957888607208,41.99120868602663,,
farmers market,"Mar 20th, 2023",default-farmersmarket-4-3.jpg,309769,Division Street City Market,,,,,http://www.chicagocitymarkets.us,,,,,,,"100 W. Division St. Chicago, IL 60610",Illinois,CHICAGO,100 W DIVISION ST,60610,-87.6330740072182,41.90388435082592,,
farmers market,"Mar 20th, 2023",default-farmersmarket-4-3.jpg,309770,Division Street Farmers' Market,,,,312-744-3315,http://www.cityofchicago.org/city/en/depts/dca/supp_info/farmersmarkets0.html,https://www.facebook.com/pages/Chicago-Farmers-Markets/19988198547,,,,,,"50 W. Division St, Chicago, IL, 60610",Illinois,Chicago,50 W. Division St,60610,-87.6296730237475,41.90393290293375,,
farmers market,"Mar 20th, 2023",default-farmersmarket-4-3.jpg,309771,Dixon Winter Farmers' Market,,,,815-244-4451,,https://www.facebook.com/pages/Dixon-Farmers-Market-Haymarket-Square/348971505163284?sk=timeline&ref=page_internal,,,,,,"513 W. 2nd St., Dixon, IL, 61021",Illinois,Dixon,513 W. 2nd St.,61021,-89.48769173940244,41.841338213760324,,
farmers market,"Mar 20th, 2023",default-farmersmarket-4-3.jpg,309772,Downs Village Market,,,,309-378-4223,,,,,,,,"200 S. Seminary Street Downs, IL 61736",Illinois,Downs,200 S. Seminary Street,61736,-88.87242615569107,40.39526391491578,,
farmers market,"Mar 20th, 2023",default-farmersmarket-4-3.jpg,309773,Downtown Downers Grove Market,,,,630-968-8400,https://%20https//www.ymcachicago.org/indianboundary/blog/entry/Downtown-Downers-Grove-Market-2020,https://www.facebook.com/DowntownDownersGroveMarket/,,,,,,"5001 Main Street Downers Grove, IL 60515",Illinois,Downers Grove,5001 Main Street,60515,-88.01048351894377,41.79650090120865,,
farmers market,"Mar 20th, 2023",default-farmersmarket-4-3.jpg,309774,Downtown Elgin Winter Market,,,,847-488-1456,http://www.downtownelgin.com/winter-market,http://www.facebook.com/DowntownElginFarmersMarket,,,,,,"51 S. Grove Ave Elgin, IL 60120 The Elgin Winter Market is held inside Dream Hall 51 in Downtown Elgin. Street and nearby garage parking is available.",Illinois,ELGIN,51 S GROVE AVE,60120,-88.283076321737,42.03577295904123,,
farmers market,"Mar 20th, 2023",default-farmersmarket-4-3.jpg,309775,Downtown Farmers' Market,,,Email not found,217-543-2181,http://www.illinoisamishcountry.com,,,,,,,"138 S. Vine St., Downtown, Arthur, IL, 61911",Illinois,Arthur,"138 S. Vine St., Downtown",61911,-88.47242988764683,39.71641034071516,,
farmers market,"Mar 20th, 2023",default-farmersmarket-4-3.jpg,309776,Downtown Paris Farmers' Market,,,info@parisilchamber.com,217-465-4179,,https://www.facebook.com/Downtown-Paris-Farmers-Market-742051989240630/,,,,,,"N. Central Ave. and W. Wood St., Paris, IL, 61944",Illinois,Paris,N. Central Ave. and W. Wood St.,61944,-87.69634995967911,39.61218000837238,,
farmers market,"Mar 20th, 2023",default-farmersmarket-4-3.jpg,309777,Du Quoin Farmers' Market,,,dqfarmrsmrkt@tahoo.com,,,https://www.facebook.com/DuQuoinFarmersMarket,,,,,,"127 N. Division St., Du Quoin, IL, 62832",Illinois,Du Quoin,127 N. Division St.,62832,-89.23850726188499,38.01375134312161,,
farmers market,"Mar 20th, 2023",default-farmersmarket-4-3.jpg,309778,DuQuoin Farmers' Market,,,,618-357-6016,,http://www.facebook.com/pg/DuQuoinFarmersMarket/about/?ref=page_internal,,,,,,"Keyes Park Du Quoin, IL 62832",Illinois,Du Quoin,Keyes Park,62832,-89.22766896701023,38.0167799992565,,
farmers market,"Mar 20th, 2023",default-farmersmarket-4-3.jpg,309779,Dwight Main Street Farmers Market,,,coordinator@dwightalliance.org,815-584-1830,http://www.dwightalliance.org/annual_events/farmers-market/,,,,,,,"132 E. Main Street Dwight, IL 60420",Illinois,Dwight,132 E. Main Street,60420,-88.42736834356637,41.092495750173946,,
farmers market,"Mar 20th, 2023",default-farmersmarket-4-3.jpg,309780,East Dundee Farmers Market,,,,847-742-3432,https://%20http//www.dundeedepot.com/,https://www.facebook.com/Dundee-Depot-Market-and-Visitors-Center-113123312056926/,,,,,,"319 N. River Street East Dundee, IL 60118",Illinois,East Dundee,319 N. River Street,60118,-88.27484110927608,42.101158881631804,,
farmers market,"Mar 20th, 2023",default-farmersmarket-4-3.jpg,309781,East Moline Farmers Market,,,,815-718-5020,,,,,,,,"1112 42nd Avenue East Moline, IL 61244",Illinois,East Moline,1112 42nd Avenue,61244,-90.43620170167912,41.489519347729974,,
farmers market,"Mar 20th, 2023",default-farmersmarket-4-3.jpg,309782,East Peoria Farmer's Market,,,,,,https://www.facebook.com/EPFarmersMarket/,,,,,,"396 W. Washington St. Levee District East Peoria, IL 61611",Illinois,East Peoria,396 W. Washington St. Levee District,61611,-89.5846990286354,40.670334260008815,,
farmers market,"Mar 20th, 2023",default-farmersmarket-4-3.jpg,309783,Edgebrook Farmers Market,,,mboehm@orputcompanies.com,815-398-8957,http://edgebrookshops.com/events/farmers-market/,,,,,,,"1605 N. Alpine Road Rockford, IL 61107",Illinois,Rockford,1605 N. Alpine Road,61107,-89.02734597633935,42.286436987242865,,
farmers market,"Mar 20th, 2023",default-farmersmarket-4-3.jpg,309784,Edgebrook Neighborhood Farmers Market,,,,,http://www.everydayedgebrook.com/#!farmers-market/vpq1d,,,,,,,"6525 N Hiawatha Chicago, IL 60646 We are located within the parking lot of Edgebrook Elementary School located at the corner of Central Ave and Hiawatha Ave in Chicago, Illinois.",Illinois,CHICAGO,6525 N HIAWATHA AVE,60646,-87.76285952718015,41.99982388950156,,
farmers market,"Mar 20th, 2023",default-farmersmarket-4-3.jpg,309785,Edgewater Farmers Market,,,,773-561-6000,http://www.edgewater.org,,,,,,,"6034 N. Broadway Chicago, IL 60660",Illinois,CHICAGO,6034 N BROADWAY ST,60660,-87.66033131004208,41.99193848034167,,
farmers market,"Mar 20th, 2023",default-farmersmarket-4-3.jpg,309786,Effingham Farmers' Market,,,nanopanko@gmail.com,217-663-2234,,https://www.facebook.com/effinghamfarmersmarket/,,,,,,"E. Washington Ave. and 4th St., Effingham, IL, 62401",Illinois,Effingham,E. Washington Ave. and 4th St.,62401,-88.54202003616003,39.12220001645488,,
farmers market,"Mar 20th, 2023",default-farmersmarket-4-3.jpg,309787,Eli's Cheesecake / Wright College Farmers Market,,,,773-736-3417,,,,,,,,"6701 W. Forest Preserve Drive Chicago, IL 60634",Illinois,CHICAGO,6701 W FOREST PRESERVE DR,60634,-87.79659705303817,41.95896664121361,,
farmers market,"Mar 20th, 2023",default-farmersmarket-4-3.jpg,309788,Elk Grove Farmers Market,,,ELKGROVEFARMERSMARKET@YAHOO.COM,630-878-7627,http://www.elkgrovefarmersmarket.com/,https://www.facebook.com/elkgrovefarmersmarket,,,,,,"1260 Leeds Lane Elk Grove Village, IL 60007",Illinois,Elk Grove Village,1260 Leeds Lane,60007,-88.01351057125902,41.99431028272797,,
farmers market,"Mar 20th, 2023",default-farmersmarket-4-3.jpg,309789,Elmhurst Farmers Market,,,info@elmhurstchamber.org,630-279-5530,https://www.yorkandvallette.com/,https://www.facebook.com/pg/ElmhurstFarmersMarket/about/?ref=page_internal,,,,,,"105 E. Vallette Street Elmhurst, IL 60126",Illinois,Elmhurst,105 E. Vallette Street,60126,-87.93836112794473,41.8835961302098,,
farmers market,"Mar 20th, 2023",default-farmersmarket-4-3.jpg,309790,Englewood City Market,,,,,http://www.chicagocitymarkets.us,,,,,,,"1219 W. 76th St. Chicago, IL 60620 Dr. Martin Luther King Jr Roller Skating & Bowling Center",Illinois,CHICAGO,1219 W 76TH ST,60620,-87.65463883520522,41.756054996365314,,
farmers market,"Mar 20th, 2023",default-farmersmarket-4-3.jpg,309791,Englewood/Anchor House (City of Chicago Market),,,,,,,,,,,,"76th st & Racine Ave Chicago, IL 60620",Illinois,Chicago,76th st & Racine Ave,60620,-87.65388002975558,41.75602998666281,,
farmers market,"Mar 20th, 2023",default-farmersmarket-4-3.jpg,309792,EP!C Market,,,,309-645-4825,http://www.epicpeoria.org,http://www.facebook.com/parcpeoria,,,,,,"1913 W. Townline Rd. Peoria, IL 61615",Illinois,PEORIA,1913 TOWN LINE RD,61615,-89.6228277608829,40.79795627767901,,
farmers market,"Mar 20th, 2023",default-farmersmarket-4-3.jpg,309793,Evanston Farmers' Market,,,health@cityofevanston.org,847-448-8045,https://cityofevanston.org/,https://www.facebook.com/cityofevanston,,,,,,"1800 Maple Ave Evanston, IL 60201",Illinois,Evanston,1800 Maple Ave,60201,-87.68477802192118,42.05008443028553,,
farmers market,"Mar 20th, 2023",default-farmersmarket-4-3.jpg,309794,Evergreen Park Farmers Market,,,epinf@hotmail.com,708-422-8776,https://www.evergreenpark-ill.com/,,,,,,,"9001 S Kedzie Ave. Evergreen Park, IL 60805",Illinois,Evergreen Park,9001 S Kedzie Ave.,60805,-87.70208392516604,41.72968604168954,,
farmers market,"Mar 20th, 2023",default-farmersmarket-4-3.jpg,309795,Faith in Place Winter Farmers Markets - Chicago Area,,,,312-733-4640x117,http://www.faithinplace.org/our-programs/winter-farmers-markets,http://www.facebook.com/FaithInPlace,,,,,,"70 E Lake St Chicago, IL 60601",Illinois,CHICAGO,70 E LAKE ST,60601,-87.62532834038075,41.88573973700886,,
farmers market,"Mar 20th, 2023",default-farmersmarket-4-3.jpg,309796,Fall Harvest Market,,,,847-888-0668,http://www.uuce.org,http://www.facebook.com/UnitarianUniversalistChurchofElgin,,,,,,"39W830 Highland Avenue ELGIN, IL 60124 http://www.uuce.org/map-and-directions/",Illinois,ELGIN,39W830 HIGHLAND AVE,60124,-88.39200180879543,42.06511399814728,,
farmers market,"Mar 20th, 2023",default-farmersmarket-4-3.jpg,309797,Farmers' Market at Country Fair,,,,217-493-0406,,https://www.facebook.com/FarmersMarketAtCountrySquare,,,,,,"301 S. Mattis Ave., Champaign, IL, 61821",Illinois,Champaign,301 S. Mattis Ave.,61821,-88.27684019533751,40.114560969769165,,
farmers market,"Mar 20th, 2023",default-farmersmarket-4-3.jpg,309798,Farmers Market at St. John's,,,,630-355-0467,,,,,,,,"750 Aurora Avenue 750 Aurora Avenue Naperville, IL 60540",Illinois,Naperville,750 Aurora Avenue,60540,-88.1607088180063,41.76809995783808,,
farmers market,"Mar 20th, 2023",default-farmersmarket-4-3.jpg,309799,Farmers Market on the Square,,,,217-243-1704,,https://www.facebook.com/JacksonvilleFarmersMarketAtLincolnSquare/,,,,,,"901 East Morton Avenue Jacksonville, IL 62650",Illinois,Jacksonville,901 East Morton Avenue,62650,-90.21823023533325,39.723222831926904,,
farmers market,"Mar 20th, 2023",default-farmersmarket-4-3.jpg,309800,Federal Plaza (Chicago) Farmers' Market,,,,312-744-4306,https://www.chicagofarmersmarkets.us/,,,,,,,"230 S. Dearborn Street Chicago, IL 60604",Illinois,Chicago,230 S. Dearborn Street,60604,-87.6293462520771,41.87900464836531,,
farmers market,"Mar 20th, 2023",default-farmersmarket-4-3.jpg,309801,First Market in Mahomet,,,,217-586-1333,https://www.firstfruitsproduce.com/,,,,,,,"IL-47 & E. Main Street Mahomet, IL 61853",Illinois,Mahomet,IL-47 & E. Main Street,61853,-88.39996999520807,40.19406999936052,,
farmers market,"Mar 20th, 2023",default-farmersmarket-4-3.jpg,309802,Flossmoor Farmers Market,,,,708-798-3600,,,,,,,,"1000 Sterling Avenue Flossmoor, IL 60422",Illinois,FLOSSMOOR,1000 STERLING AVE,60422,-87.6785874232499,41.54381963978892,,
farmers market,"Mar 20th, 2023",default-farmersmarket-4-3.jpg,309803,Fox Lake Farmers Market,,,braceletsbykara@gmail.com,224-225-1404,https://www.foxlakefarmersmarket.com/,https://www.facebook.com/FoxLakeFarmersMarket/,,,,,,"17 E School Ct. Fox Lake, IL 60020",Illinois,Fox Lake,17 E School Ct.,60020,-88.17851001311956,42.397649985457605,,
farmers market,"Mar 20th, 2023",default-farmersmarket-4-3.jpg,309804,Frankfort Country Market,,,,815-954-9788,https://www.villageoffrankfort.com/play/frankfort-market,,,,,,,"100 Kansas Street Frankfort, IL 60423",Illinois,Frankfort,100 Kansas Street,60423,-87.85122225808024,41.49846413599099,,
farmers market,"Mar 20th, 2023",default-farmersmarket-4-3.jpg,309805,Freeport Farmers Market,,,,516-378-3415,,https://www.facebook.com/l.php?u=http://www.FreeportFarmersMarket.org/&h=ATMcEtZ7mhIYIosjdo8PP,,,,,,"721 W. South St Freeport, IL 61032",Illinois,Freeport,721 W. South St,61032,-89.62888629746854,42.28032402380892,,
farmers market,"Mar 20th, 2023",default-farmersmarket-4-3.jpg,309806,Galana Summer Marketplace,,,,815-947-2476,http://www.galenamarketplace.org/,http://www.facebook.com/galenafarmersmarket/,,,,,,"123 N. Commerce St. Galena, IL 61036 The market is downtown at the Old Market House on Commerce St. Parking is along the street in front of the market. It is within walking distance of other downtown",Illinois,GALENA,123 N COMMERCE ST,61036,-90.42781491902177,42.41590156289168,,
farmers market,"Mar 20th, 2023",default-farmersmarket-4-3.jpg,309807,Galena Winter Farmers Market,,,,,http://www.galenawintermarket.com,http://www.facebook.com/galenawintermarket,,,,,,"219 Summit Street Galena , IL 61036",Illinois,GALENA,219 SUMMIT ST,61036,-90.4392668403626,42.418142817990585,,
farmers market,"Mar 20th, 2023",default-farmersmarket-4-3.jpg,309808,Gately/Pullman (Chicago) Farmers' Market,,,,312-744-4306,https://www.chicagofarmersmarkets.us/,,,,,,,"11141 S. Cottage Grove Avenue Chicago, IL 60616",Illinois,Chicago,11141 S. Cottage Grove Avenue,60616,-87.61013994689506,41.69145525129513,,
farmers market,"Mar 20th, 2023",default-farmersmarket-4-3.jpg,309809,Geneva French Market,,,,312-575-0286,https://www.bensidounusa.com/,,,,,,,"South Street at S. 4th Street Geneva, IL 60134",Illinois,Geneva,South Street at S. 4th Street,60134,-88.3104400375441,41.882970012669915,,
farmers market,"Mar 20th, 2023",default-farmersmarket-4-3.jpg,309810,Geneva Green Market,,,genevagreenmarket@gmail.com,630-208-9321,http://www.genevagreenmarket.org,https://www.facebook.com/pages/Geneva-Green-Market-NFP/85326673757,,,,,,"327 Hamilton St., Geneva, IL, 60134",Illinois,Geneva,327 Hamilton St.,60134,-88.31199870926437,41.892693857851405,,
farmers market,"Mar 20th, 2023",default-farmersmarket-4-3.jpg,309811,Geneva Winter Market,,,,630-377-0373,,,,,,,,"11 North Fifth Street Geneva, IL 60134",Illinois,Geneva,11 North Fifth Street,60134,-88.31055380248323,41.88845467098059,,
farmers market,"Mar 20th, 2023",default-farmersmarket-4-3.jpg,309812,Gibson City Farmers' Market,,,,217-784-5872,,,,,,,,"126 N. Sangamon Avenue Gibson City, IL 609361343",Illinois,Gibson City,126 N. Sangamon Avenue,61343,-88.37531643752584,40.46535142566868,,
farmers market,"Mar 20th, 2023",default-farmersmarket-4-3.jpg,309813,Glen Ellyn Farmers Market,,,,630-784-0862,https://www.bensidounusa.com/,,,,,,,"400 N. Main Street Glen Ellyn, IL 60137",Illinois,Glen Ellyn,400 N. Main Street,60137,-88.06668193280781,41.87416584690468,,
farmers market,"Mar 20th, 2023",default-farmersmarket-4-3.jpg,309814,Glencoe Farmers Market,,,ed@glencoefarmersmarket.com,847-579-9080,https://glencoefarmersmarket.com/,https://www.facebook.com/Glencoe-Farmers-Market-103002938681587,,,,,,"675 Village Court Glencoe, IL 60022",Illinois,Glencoe,675 Village Court,60022,-87.75871177261105,42.13441513033563,,
farmers market,"Mar 20th, 2023",default-farmersmarket-4-3.jpg,309815,Glenview Farmers Market,,,,847-657-1506,,,,,,,,"1510 Wagner Road Glenview, IL 60025",Illinois,Glenview,1510 Wagner Road,60025,-87.78092480571276,42.082400681293436,,
farmers market,"Mar 20th, 2023",default-farmersmarket-4-3.jpg,309816,Golconda Farmers' Market,,,,618-926-4924,https://www.mainstreetgolconda.net/,https://www.facebook.com/GolcondaFarmersMarket/,,,,,,"310 E. Main Street Golconda, IL 62938",Illinois,Golconda,310 E. Main Street,62938,-88.48486641697048,37.367082348316636,,
farmers market,"Mar 20th, 2023",default-farmersmarket-4-3.jpg,309817,Grayslake Farmers Market,,,marketmanager@grayslakefarmersmarket.com,,http://grayslakefarmersmarket.com/,https://www.facebook.com/grayslakefarmersmarket/,,,,,,"Center and Whitney Streets Grayslake, IL 60073",Illinois,Grayslake,Center and Whitney Streets,60073,-88.04027000816552,42.344310005355766,,
farmers market,"Mar 20th, 2023",default-farmersmarket-4-3.jpg,309818,Gurnee Farmers' Market,,,info@gurneeparkdistrict.com,847-623-8121,https://www.gurneeparkdistrict.com/special-events/farmers-market,,,,,,,"Grand Ave. and Kilbourne Rd., Gurnee, IL, 60031",Illinois,Gurnee,Grand Ave. and Kilbourne Rd.,60031,-87.92459413371674,42.3733992648617,,
farmers market,"Mar 20th, 2023",default-farmersmarket-4-3.jpg,309819,Hanover Farmers' Market,,,,,,https://www.facebook.com/Hanover-Farmers-Market-168435403236526/,,,,,,"Jefferson St. and Jackson St., Hanover, IL, 61041",Illinois,Hanover,Jefferson St. and Jackson St.,61041,-90.28415997060209,42.25675000448561,,
farmers market,"Mar 20th, 2023",default-farmersmarket-4-3.jpg,309820,Hawthorn Woods Farmers Market,,,,847-438-5500,http://www.vhw.org/index.aspx?nid=207,http://www.facebook.com/villageofhawthornwoods,,,,,,"37 E Old McHenry Road Hawthorn Woods, IL 60047",Illinois,HAWTHORN WDS,37 OLD MCHENRY RD,60047,-88.0610032482028,42.21913125468245,,
farmers market,"Mar 20th, 2023",default-farmersmarket-4-3.jpg,309821,HCC Realty Farmers Market,,,,815-398-8109,,https://www.facebook.com/HCCFarmerMarket/?ref=aymt_homepage_panel,,,,,,"1280 S Alpine Rd Rockford, IL 61108",Illinois,Rockford,1280 S Alpine Rd,61108,-89.02892256823672,42.25437134339778,,
farmers market,"Mar 20th, 2023",default-farmersmarket-4-3.jpg,309822,Heirloom Farmers' Market,,,,815-259-0166,http://HeirloomFarmersMarket.com,,,,,,,"2200 Illinois Route 84 Thomson, IL 61285",Illinois,THOMSON,2200 STATE RTE 84,61285,-90.09937372226413,41.96023338333414,,
farmers market,"Mar 20th, 2023",default-farmersmarket-4-3.jpg,309823,Heritage Farmers' Market,,,heritagefarmers@gmail.com,309-620-0616,https://heritagefarmersmarket.wordpress.com/,https://www.facebook.com/HeritageFarmersMarket,,,,,,"20235 IL-9, Pekin, IL, 61554",Illinois,Pekin,20235 IL-9,61554,-89.54676475743366,40.538741204475855,,
farmers market,"Mar 20th, 2023",default-farmersmarket-4-3.jpg,309824,Herrin Farmers Market,,,,628-525-9253,,https://m.facebook.com/theherrinfarmersmarket/,,,,,,"612 N. 31st. Herrin, IL 62948",Illinois,Herrin,612 N. 31st.,62948,-89.04491167884102,37.808245927164386,,
farmers market,"Mar 20th, 2023",default-farmersmarket-4-3.jpg,309825,Highwoods Evening Market,,,info@highwoodchamberofcommerce.com,847-433-2100,http://celebratehighwood.com/farmers-market/,,,,,,,"130 Highwood Ave., Highwood, IL, 60040",Illinois,Highwood,130 Highwood Ave.,60040,-87.81190849652285,42.20195699857821,,
farmers market,"Mar 20th, 2023",default-farmersmarket-4-3.jpg,309826,Horner Park Farmers Market,,,,708-658-4736,https://farmersmarket.hornerpark.org/,https://www.facebook.com/HornerParkFarmersMarket,,,,,,"2741 W. Montrose Ave. Chicago, IL 60618",Illinois,Chicago,2741 W. Montrose Ave.,60618,-87.69777424536106,41.961249707048665,,
farmers market,"Mar 20th, 2023",default-farmersmarket-4-3.jpg,309827,Humpday Farmers Market LLC,,,,618-528-6850,,,,,,,,"1511 Skyhawk Rd market is on 200 block of N. Washington street Carbondale Il Carbondale, IL 62902",Illinois,Carbondale,1511 Skyhawk Rd,62902,-89.1335359723929,37.66124401598296,,
farmers market,"Mar 20th, 2023",default-farmersmarket-4-3.jpg,309828,Hyde Park Farmers' Market,,,DOH@cityofchicago.org,,http://www.cityofchicago.org/city/en/depts/dca/supp_info/farmers_market.html,https://www.facebook.com/pages/Chicago-Farmers-Markets/19988198547,,,,,,"E 53rd St. and Harper Ct., Chicago, IL, 60615",Illinois,Chicago,E 53rd St. and Harper Ct.,60615,-87.58813003431453,41.79956001779044,,
farmers market,"Mar 20th, 2023",default-farmersmarket-4-3.jpg,309829,Illinois Farmers Market Association,,,info@ilfma.org,773-456-3174,https://www.ilfma.org/,https://www.facebook.com/ILFarmersMarkets/,,,,,,"5544 South Paulina Street Chicago, IL 60636",Illinois,Chicago,5544 South Paulina Street,60636,-87.66698896749024,41.79277724421119,,
farmers market,"Mar 20th, 2023",default-farmersmarket-4-3.jpg,309830,Illinois Products Farmers' Market - Illinois Department of Agriculture,,,,217-524-9129,http://www.illinoisproductsfarmersmarket.com/,https://www.facebook.com/illinoisproductsfarmersmarket,,,,,,"801 E Sangamon Ave Springfield, IL 62703",Illinois,Springfield,801 E Sangamon Ave,62703,-89.64532148678029,39.83086197061492,,
farmers market,"Mar 20th, 2023",default-farmersmarket-4-3.jpg,309831,IMAN Fresh Beats and Eats Farmers' Market,,,,773-434-4626,,http://www.facebook.com/imancentral,,,,,,"2744 W. 63rd Street Chicago, IL 60629",Illinois,CHICAGO,2744 W 63RD ST,60629,-87.69273937816318,41.7791318831904,,
farmers market,"Mar 20th, 2023",default-farmersmarket-4-3.jpg,309832,IMAN Health and Wellness Farmers Market,,,,773-434-4626,,,,,,,,"2744 W. 63rd Street Chicago, IL 60629",Illinois,Chicago,2744 W. 63rd Street,60629,-87.69273937816318,41.7791318831904,,
farmers market,"Mar 20th, 2023",default-farmersmarket-4-3.jpg,309833,Independence Park Farmers Market,,,,773-383-4487,,,,,,,,"3945 N. Springfield Ave. Chicago, IL 60618",Illinois,Chicago,3945 N. Springfield Ave.,60618,-87.72505929585786,41.95228136631409,,
farmers market,"Mar 20th, 2023",default-farmersmarket-4-3.jpg,309834,Iron Street Urban Farm Market,,,chicago@growingpower.org,773-376-8882,http://www.growingpower.org/produce/farmers-markets/,,,,,,,"3333 S. Iron St., Chicago, IL, 60608",Illinois,Chicago,3333 S. Iron St.,60608,-87.66036881448498,41.832281094525236,,
farmers market,"Mar 20th, 2023",default-farmersmarket-4-3.jpg,309835,Jacksonville Farmers Market at Lincoln Square,,,,217-243-1704,,https://www.facebook.com/JacksonvilleFarmersMarketAtLincolnSquare/,,,,,,"901 W. Morton Avenue Jacksonville, IL 62650",Illinois,Jacksonville,901 W. Morton Avenue,62650,-90.23979657482629,39.723225171202735,,
farmers market,"Mar 20th, 2023",default-farmersmarket-4-3.jpg,309836,Jacksonville Main Street Farmers Market on the Square,,,info@jacksonvillemainstreet.com,217-479-4038,https://www.jacksonvillemainstreet.com/,,,,,,,"300 W. State Street Jacksonville, IL 62650",Illinois,Jacksonville,300 W. State Street,62650,-90.23242692456584,39.73430589457137,,
farmers market,"Mar 20th, 2023",default-farmersmarket-4-3.jpg,309837,JBJ Market,,,,217-617-8172,,,,,,,,"214 Highway 24 Clayton, IL 62324",Illinois,Clayton,214 Highway 24,62324,-90.95599933023448,40.02607946339579,,
farmers market,"Mar 20th, 2023",default-farmersmarket-4-3.jpg,309838,Jefferson Park Sunday Market,,,JeffersonParkSundayMarket@zoho.com,,http://www.jpna.net/fm/,https://www.facebook.com/JeffersonParkSundayMarket/,,,,,,"4776 N. Milwaukee Ave., Chicago, IL, 60630",Illinois,Chicago,4776 N. Milwaukee Ave.,60630,-87.76034334506893,41.96740245574513,,
farmers market,"Mar 20th, 2023",default-farmersmarket-4-3.jpg,309839,Jerseyville Farmers and Artisan Market,,,,618-639-5222,https://jcba-il.us/market/,,,,,,,"902 S State St Jerseyville, IL 62052",Illinois,Jerseyville,902 S State St,62052,-90.32047091011489,39.11114454036449,,
farmers market,"Mar 20th, 2023",default-farmersmarket-4-3.jpg,309840,Joliet City Center Farmers' Market,,,,815-774-6066,,,,,,,,"W. Van Buren Street at N. Chicago Street Joliet, IL 60432",Illinois,Joliet,W. Van Buren Street at N. Chicago Street,60432,-88.08157996650858,41.52592998069056,,
farmers market,"Mar 20th, 2023",default-farmersmarket-4-3.jpg,309841,Joliet Junior College Farmers Market,,,,815-280-6622,http://Jjc.edu/info/farmersmarket,,,,,,,"1215 S. Houbolt Road Joliet, IL 60431",Illinois,JOLIET,1215 HOUBOLT RD,60431,-88.16942111976218,41.515252507896896,,
farmers market,"Mar 20th, 2023",default-farmersmarket-4-3.jpg,309842,Junction City Farmers' Market,,,brittany@junctionventures.com,309-689-0808,,https://www.facebook.com/junctioncity.farmersmarket/,,,,,,"5901 N. Prospect Rd., Peoria, IL, 61614",Illinois,Peoria,5901 N. Prospect Rd.,61614,-89.5919793134854,40.7592527240052,,
farmers market,"Mar 20th, 2023",default-farmersmarket-4-3.jpg,309843,Kankakee County Farmers' Market,,,dizzy_lizzie78@icloud.com,815-933-0462,http://www.downtownkankakee.com/farmers-market/,https://www.facebook.com/K3FarmersMarket,,,,,,"200 S. Schuyler Ave., Downtown Kankakee, Kankakee, IL, 60901",Illinois,Kankakee,"200 S. Schuyler Ave., Downtown",60901,-87.86417175785554,41.118898508451885,,
farmers market,"Mar 20th, 2023",default-farmersmarket-4-3.jpg,309844,Kankakee County Farmers' Market 1,,,,815-933-0462,,,,,,,,"100 E. Merchant Street Kankakee, IL 60901",Illinois,Kankakee,100 E. Merchant Street,60901,-87.86541850860596,41.11912836841493,,
farmers market,"Mar 20th, 2023",default-farmersmarket-4-3.jpg,309845,Kankakee Farmers Market,,,k3farmersmarket@gmail.com,815-690-1624,https://www.downtownkankakee.com/farmers-market/,,,,,,,"250 S Schuyler Ave, Kankakee, IL 60901 Kankakee, IL 60901",Illinois,Kankakee,250 S Schuyler Ave,60901,-87.86427738444398,41.11833729527077,,
farmers market,"Mar 20th, 2023",default-farmersmarket-4-3.jpg,309846,LaFollette Park Farmers Market Pop-Up,,,,,http://www.chicagocitymarkets.us,,,,,,,"1333 N. Laramie Ave. Chicago, IL 60651",Illinois,CHICAGO,1333 N LARAMIE AVE,60651,-87.75582285584848,41.90471858519262,,
farmers market,"Mar 20th, 2023",default-farmersmarket-4-3.jpg,309847,Lake Bluff Farmers' Market,,,gcole@lakebluff.org,847-283-6882,http://lakeblufffarmersmarket.com/,https://www.facebook.com/LakeBluffMarket,,,,,,"E. Center Ave. & W. Scranton Ave., Village Green, Lake Bluff, IL, 60044",Illinois,Lake Bluff,E. Center Ave. & W. Scranton Ave.,60044,-87.84602996327264,42.2790000179219,,
farmers market,"Mar 20th, 2023",default-farmersmarket-4-3.jpg,309848,Lake Forest Open Air Market,,,,,http://www.cityoflakeforest.com,http://www.facebook.com/pages/The-City-of-Lake-Forests-Farmers-Market/379983015390012?fr,,,,,,"695 N. Western Ave. Lake Forest, IL 60045",Illinois,LAKE FOREST,695 N WESTERN AVE,60045,-87.84025850740154,42.25321470420026,,
farmers market,"Mar 20th, 2023",default-farmersmarket-4-3.jpg,309849,Lake Zurich Farmers Market,,,lzfm@lakezurich.org,847-438-5146,https://lakezurich.org/index.aspx?NID=366,https://www.facebook.com/LakeZurichFarmersMarket,,,,,,"200 S. Rand Road Lake Zurich, IL 60047",Illinois,Lake Zurich,200 S. Rand Road,60047,-88.11092506145668,42.19747148238773,,
farmers market,"Mar 20th, 2023",default-farmersmarket-4-3.jpg,309850,Land of Goshen Farmers' Market,,,info@goshenmarket.org,618-307-6045,http://www.goshenmarket.org/,https://www.facebook.com/pages/The-Land-of-Goshen-Community-Market/108788619163742,,,,,,"St. Louis St. & N. Main St., Edwardsville, IL, 62025",Illinois,Edwardsville,St. Louis St. & N. Main St.,62025,-89.95698998214537,38.812489993317286,,
farmers market,"Mar 20th, 2023",default-farmersmarket-4-3.jpg,309851,LaSalle Farmers Market,,,,815-223-3805,,https://www.facebook.com/lasallefarmersmarket/,,,,,,"2nd St & Gooding St La Salle, IL 61301",Illinois,La Salle,2nd St & Gooding St,61301,-89.09690998918234,41.329130018748856,,
farmers market,"Mar 20th, 2023",default-farmersmarket-4-3.jpg,309852,Lawndale (Chicago) Farmers' Market,,,,312-744-4306,https://www.chicagofarmersmarkets.us/,,,,,,,"3555 W. Ogden Avenue Chicago, IL 60623",Illinois,Chicago,3555 W. Ogden Avenue,60623,-87.7147005861897,41.85447338749073,,
farmers market,"Mar 20th, 2023",default-farmersmarket-4-3.jpg,309853,Lemont Farmers Market,,,,630-243-2700,,,,,,,,"Stephen Street and Talcott Avenue Lemont, IL 60439",Illinois,Lemont,Stephen Street and Talcott Avenue,60439,-87.9988899771119,41.67511000375967,,
farmers market,"Mar 20th, 2023",default-farmersmarket-4-3.jpg,309854,Lewistown Farmers Market,,,,309-547-4301,,http://www.facebook.com/lewistownfarmersmarket,,,,,,"101 N. Main Street Lewistown, IL 61542",Illinois,LEWISTOWN,101 N MAIN ST,61542,-90.15518046249144,40.396648207765665,,
farmers market,"Mar 20th, 2023",default-farmersmarket-4-3.jpg,309855,Libertyville Farmers Market,,,shuffle5k@mainstreetlibertyville.org,,https://mainstreetlibertyville.org/farmers-market-mainstreet-libertyville/,https://www.facebook.com/libertyville-farmers-market-166588080019691/,,,,,,"413 N Milwaukee Ave Libertyville, IL 60048",Illinois,Libertyville,413 N Milwaukee Ave,60048,-87.95418151564677,42.286996466995824,,
farmers market,"Mar 20th, 2023",default-farmersmarket-4-3.jpg,309856,Libertyville's Main Street Farmers' Market,,,manager@libertyvillefarmersmarket.org,847-680-0336,http://www.libertyvillefarmersmarket.org,,,,,,,"127 W. Church St., Cook Park, Libertyville, IL, 60048",Illinois,Libertyville,127 W. Church St.,60048,-87.95484265228083,42.28681642995666,,
farmers market,"Mar 20th, 2023",default-farmersmarket-4-3.jpg,309857,Lincoln Farmers' Market,,,lincolnfarmproduce@yahoo.com,217-871-0666,http://www.lincolnfarmersmarket.org,,,,,,,"Scully Park, 316 S. Kickapoo St., Lincoln , IL, 62656",Illinois,Lincoln,316 S. Kickapoo St.,62656,-89.36445044098923,40.144987522201355,,
farmers market,"Mar 20th, 2023",default-farmersmarket-4-3.jpg,309858,Lincoln Square (Chicago) Farmers' Market,,,,312-744-4306,https://www.chicagofarmersmarkets.us/,,,,,,,"4700 N Lincoln Avenue Chicago, IL 60625",Illinois,Chicago,4700 N Lincoln Avenue,60625,-87.68746481816623,41.96687558938813,,
farmers market,"Mar 20th, 2023",default-farmersmarket-4-3.jpg,309859,Lincoln Square Farmers Market,,,,,http://www.lincolnsquare.org/farmers-market,,,,,,,"2309 W. Leland Ave. Chicago, IL 60625",Illinois,CHICAGO,2309 W LELAND AVE,60625,-87.68761576020032,41.96679576510555,,
farmers market,"Mar 20th, 2023",default-farmersmarket-4-3.jpg,309860,Lockport Farmers Market,,,,815-954-9788,http://www.merrillsmarkets.com,,,,,,,"222 E. 9th St. Lockport, IL 60441",Illinois,LOCKPORT,222 E 9TH ST,60441,-88.05563569828051,41.58890971255233,,
farmers market,"Mar 20th, 2023",default-farmersmarket-4-3.jpg,309861,Loyola Farmers Market,,,,,http://blogs.luc.edu/farmersmarket/,http://www.facebook.com/LoyolaIES,,,,,,"6550 N. Sheridan Road Chicago, IL 60626 We are located off the CTA Red Line off the Loyola Stop. The market is on the plaza. Available parking is in the Loyola University parking lot on the corner of",Illinois,CHICAGO,6550 N SHERIDAN RD,60626,-87.660731622019,42.00112777271367,,
farmers market,"Mar 20th, 2023",default-farmersmarket-4-3.jpg,309862,Macomb Farmers Market,,,,309-337-4383,http://macombfarmersmarket.com/,https://www.facebook.com/macombfarmersmarket.com,,,,,,"downtown development, 232 e Jackson st. Macomb, IL 61455",Illinois,Macomb,232 e Jackson st.,61455,-90.66935997021821,40.45913000146817,,
farmers market,"Mar 20th, 2023",default-farmersmarket-4-3.jpg,309863,Main Street Farmers Market Downtown Aledo,,,info@aledomainstreet.com,309-582-2751,https://www.aledomainstreet.com/,,,,,,,"S. College Avenue Aledo, IL 61231",Illinois,Aledo,S. College Avenue,61231,-90.74940924706947,41.194693259469055,,
farmers market,"Mar 20th, 2023",default-farmersmarket-4-3.jpg,309864,Main Street Farmers' Market of Olney,,,mainstreetmarketolney@gmail.com,443-618-1859,,https://www.facebook.com/pages/Main-Street-Farmers-Market-of-Olney/172030336180306,,,,,,"202 Main St., Olney, IL, 62450",Illinois,Olney,202 Main St.,62450,-88.08618659545887,38.73108672203321,,
farmers market,"Mar 20th, 2023",default-farmersmarket-4-3.jpg,309865,Main Street Paris Farmers' Market,,,,217-465-8511,,https://www.facebook.com/Downtown-Paris-Farmers-Market-742051989240630/,,,,,,"222 N. Main St. Paris, IL 61944-1738",Illinois,Paris,222 N. Main St.,-1738,-87.69497089279841,39.61238063689093,,
farmers market,"Mar 20th, 2023",default-farmersmarket-4-3.jpg,309866,Manteno Farmers Market,,,smarion@mantenochamber.com,815-468-6226,http://www.mantenochamber.com/farmers-market,https://m.facebook.com/mantenofarmersmarket/,,,,,,"211 N. Main St. Manteno, IL 60950",Illinois,Manteno,211 N. Main St.,60950,-87.83404165280879,41.251320015210574,,
farmers market,"Mar 20th, 2023",default-farmersmarket-4-3.jpg,309867,Marengo Friday Farmers Market,,,,815-568-7731,,,,,,,,"W Washington Street at S. Ann Street Marengo, IL 60152",Illinois,Marengo,W Washington Street at S. Ann Street,60152,-88.60965998312908,42.249339982983344,,
farmers market,"Mar 20th, 2023",default-farmersmarket-4-3.jpg,309868,Marengo-Brookfield Farmers Market,,,,815-568-6782,,,,,,,,"2602 Hawthorne Road 2602 Hawthorne Road Marengo, IL 60152",Illinois,MARENGO,2602 HAWTHORN RD,60152,-88.62788774690844,42.29140964010741,,
farmers market,"Mar 20th, 2023",default-farmersmarket-4-3.jpg,309869,Marion Farmers Market,,,,618-614-2874,,https://www.facebook.com/Marion-Farmers-Market-129111570446441/?ref=page_internal,,,,,,"507 W. Main Street Marion, IL 62959",Illinois,Marion,507 W. Main Street,62959,-88.93048124664229,37.730783734603946,,
farmers market,"Mar 20th, 2023",default-farmersmarket-4-3.jpg,309870,Market in the Park,,,thorntonrec@yahoo.com,708-877-4454,http://www.thornton60476.com/,,,,,,,"102 N. Hubbard St., Thornton, IL, 60476",Illinois,Thornton,102 N. Hubbard St.,60476,-87.61571736901287,41.56850712994952,,
farmers market,"Mar 20th, 2023",default-farmersmarket-4-3.jpg,309871,Marseilles Farmers Market,,,,815-228-0238,,,,,,,,"200 Lincoln Street Marseilles, IL 61341",Illinois,Marseilles,200 Lincoln Street,61341,-88.70687638835547,41.32803339329089,,
farmers market,"Mar 20th, 2023",default-farmersmarket-4-3.jpg,309872,Maryville Farmers Market,,,,618-304-8335,https://www.maryvilleilfarmersmarket.org/,https://www.facebook.com/maryvilleilfarmersmarket,,,,,,"200 N. Donk St. Maryville, IL 62062",Illinois,Maryville,200 N. Donk St.,62062,-89.95550471665435,38.72454051991969,,
farmers market,"Mar 20th, 2023",default-farmersmarket-4-3.jpg,309873,Mattoon Farmers Market,,,,217-234-3611,,,,,,,,"500 Broadway Avenue Mattoon, IL 61938",Illinois,Mattoon,500 Broadway Avenue,61938,-88.35888146813386,39.48262782281106,,
farmers market,"Mar 20th, 2023",default-farmersmarket-4-3.jpg,309874,Maxwell Street Market,,,,,http://www.maxwellstreetmarket.us,http://www.facebook.com/MaxwellStreetMarket/,,,,,,"800 S. Desplaines St. Chicago, IL 60607 Parking Limited free parking available on Desplaines from Harrison to Polk and from Taylor to Roosevelt. CTA Transportation Take CTA to the Clinton Blue Line st",Illinois,CHICAGO,800 S DESPLAINES ST,60607,-87.64381532982534,41.871913985472226,,
farmers market,"Mar 20th, 2023",default-farmersmarket-4-3.jpg,309875,Maywood Multicultural Farmers' Market,,,,630-797-6493,http://www.urbangardenconnection.com,,,,,,,"121 South 5th Ave Maywood, IL 60153",Illinois,MAYWOOD,121 S 5TH AVE,60153,-87.83919747240282,41.88758681478662,,
farmers market,"Mar 20th, 2023",default-farmersmarket-4-3.jpg,309876,McHenry Farmers' Market,,,bhobson@cl.mchenry.il.us,815-363-2159,http://www.mchenrycfb.org/ag-tourism/farmers-markets,,,,,,,"3400 Pearl St., Veterans Memorial Park, McHenry, IL, 60050",Illinois,McHenry,3400 Pearl St.,60050,-88.26322096045688,42.346275164731175,,
farmers market,"Mar 20th, 2023",default-farmersmarket-4-3.jpg,309877,Mendota Farmers Market,,,,815-252-9605,,https://www.facebook.com/mendotafarmersmarket/?ref=page_internal,,,,,,"700 Main Street Mendota, IL 61342",Illinois,Mendota,700 Main Street,61342,-89.11844892013275,41.548120185470495,,
farmers market,"Mar 20th, 2023",default-farmersmarket-4-3.jpg,309878,Midtown Farmers' Market,,,,,http://groups.yahoo.com/group/MidtownFarmersMarket,,,,,,,"1131 2nd Ave. Rockford, IL 61104",Illinois,ROCKFORD,1131 2ND AVE,61104,-89.08054672228245,42.26479697273915,,
farmers market,"Mar 20th, 2023",default-farmersmarket-4-3.jpg,309879,Milledgeville Farmers' Market,,,,,,,,,,,,"18 W 5th St Milledgeville, IL 61051",Illinois,MILLEDGEVILLE,18 W 5TH ST,61051,-89.77469688980918,41.963814196914775,,
farmers market,"Mar 20th, 2023",default-farmersmarket-4-3.jpg,309880,Mokena Farmers' Market,,,mokenadowntownmerchants@yahoo.com,708-479-9631,http://www.mokenamarket.com/,https://www.facebook.com/mokenadowntownmerchants/,,,,,,"10901 W. La Porte Rd., Mokena, IL, 60448",Illinois,Mokena,10901 W. La Porte Rd.,60448,-87.88526713470407,41.526290550544964,,
farmers market,"Mar 20th, 2023",default-farmersmarket-4-3.jpg,309881,Mokena Market,,,,708-479-6931,http://mokenamarket.com,http://www.facebook.com/mokenadowntownmerchants,,,,,,"10901 LaPorte Rd Mokena, IL 60448",Illinois,MOKENA,10901 LA PORTE RD,60448,-87.88468113854152,41.526243434624654,,
farmers market,"Mar 20th, 2023",default-farmersmarket-4-3.jpg,309882,Momence Farmers' Market,,,cityhall1@cityofmomence.com,815-472-2001,http://www.cityofmomence.com/farmers.aspx,https://www.facebook.com/pages/Momence-Farmers-Market/142817159068999,,,,,,"123 W. River St., Momence, IL, 60954",Illinois,Momence,123 W. River St.,60954,-87.66362784671719,41.16211235550967,,
farmers market,"Mar 20th, 2023",default-farmersmarket-4-3.jpg,309883,Monroe County Farmer's Market - Columbia,,,,618-623-2868,,https://www.facebook.com/monroecountyfarmersmarket,,,,,,"1000 Columbia Center Columbia, IL 62236",Illinois,Columbia,1000 Columbia Center,62236,-90.22060703962138,38.44426799958771,,
farmers market,"Mar 20th, 2023",default-farmersmarket-4-3.jpg,309884,Monroe County Farmer's Market - Waterloo,,,,618-623-2868,,https://www.facebook.com/monroecountyfarmersmarket,,,,,,"901 Illinois Avenue Waterloo, IL 62298",Illinois,Waterloo,901 Illinois Avenue,62298,-90.16170692483391,38.33844326649321,,
farmers market,"Mar 20th, 2023",default-farmersmarket-4-3.jpg,309885,Monticello Farmers' Market,,,,217-840-3057,,,,,,,,"201 N State Street Monticello, IL 61856",Illinois,Monticello,201 N State Street,61856,-88.57176361040148,40.02621808600676,,
farmers market,"Mar 20th, 2023",default-farmersmarket-4-3.jpg,309886,Morrison Farmers' Market,,,morrisonfarmersmarket@gmail.com,815-772-4749,http://morrisonfarmersmarket.com/,https://www.facebook.com/morrisonfarmersmarket/,,,,,,"204 E. Lincolnway, Morrison, IL, 61270",Illinois,Morrison,204 E. Lincolnway,61270,-89.96491994014444,41.809290107662456,,
farmers market,"Mar 20th, 2023",default-farmersmarket-4-3.jpg,309887,Morton Farmers Market,,,,309-263-5346,https://www.mortonmagnet.com/,,,,,,,"210 S Main Street Morton, IL 61550",Illinois,Morton,210 S Main Street,61550,-89.46253687736936,40.60938469316173,,
farmers market,"Mar 20th, 2023",default-farmersmarket-4-3.jpg,309888,Morton Grove Farmers' Market,,,,847-750-6436,,,,,,,,"6140 Dempster St Morton Grove, IL 60053",Illinois,Morton Grove,6140 Dempster St,60053,-87.78025116289619,42.04091629144986,,
farmers market,"Mar 20th, 2023",default-farmersmarket-4-3.jpg,309889,Mt. Carroll Farmers' Market,,,mtcarroll@jcwifi.com,800-244-9594,https://www.mtcarrollil.org/,,,,,,,"101 W. Market St. Mount Carroll, IL 61053",Illinois,Mount Carroll,101 W. Market St.,61053,-89.97788484274035,42.10134965599837,,
farmers market,"Mar 20th, 2023",default-farmersmarket-4-3.jpg,309890,Mt. Carmel Farmers Market,,,,618-262-4822,https://www.cityofmtcarmel.com/,,,,,,,"219 N Market St Mount Carmel, IL 62863",Illinois,Mount Carmel,219 N Market St,62863,-87.75969798141433,38.40737458111553,,
farmers market,"Mar 20th, 2023",default-farmersmarket-4-3.jpg,309891,Mt. Morris Community Farmers Market,,,,815-734-6006,,,,,,,,"5 W. Hitt Mount Morris, IL 61054",Illinois,Mount Morris,5 W. Hitt,61054,-89.43365650022346,42.04954342574165,,
farmers market,"Mar 20th, 2023",default-farmersmarket-4-3.jpg,309892,Mt. Morris Farmers' Market,,,,815-734-4927,,,,,,,,"2 W. Main St., Union Savings Bank Parking Lot, Mount Morris, IL, 61054",Illinois,Mount Morris,2 W. Main St.,61054,-89.43363546276274,42.048644577102564,,
farmers market,"Mar 20th, 2023",default-farmersmarket-4-3.jpg,309893,Mt. Prospect Farmers Market,,,,847-682-0880,,,,,,,,"W. Northwest Hwy. & Rt. 83 (southwest corner) Mount Prospect, IL 60056",Illinois,Mount Prospect,W. Northwest Hwy. & Rt. 83,60056,-87.93674998354946,42.063640007778844,,
farmers market,"Mar 20th, 2023",default-farmersmarket-4-3.jpg,309894,Mt. Vernon Farmers Market,,,,618-244-5942,,,,,,,,"3403 Broadway 3403 Broadway Mt. Vernon, IL 62864",Illinois,MOUNT VERNON,3403 BROADWAY ST,62864,-88.9367659483769,38.314337097161,,
farmers market,"Mar 20th, 2023",default-farmersmarket-4-3.jpg,309895,Mt. Vernon Market Days,,,Email not found,618-242-3151,http://enjoymtvernon.com/catablog-items/mt-vernon-market-days/,https://www.facebook.com/MtVernonMarket,,,,,,"205 S 7th St., Mount Vernon, IL, 62864",Illinois,Mount Vernon,205 S 7th St.,62864,-88.8990791906463,38.31709730494982,,
farmers market,"Mar 20th, 2023",default-farmersmarket-4-3.jpg,309896,Mundelein Farmers Market,,,mundeleincc@tds.net,847-970-9235,http://www.mundeleincommunityconnection.org/farmers-market-general-information.html,,,,,,,"469 N.Seymour Ave. Mundelein, IL 60060",Illinois,Mundelein,469 N.Seymour Ave.,60060,-88.00253171000352,42.26996853515331,,
farmers market,"Mar 20th, 2023",default-farmersmarket-4-3.jpg,309897,Murphysboro Farmers Market,,,,618-559-7776,,https://www.facebook.com/murphysborofarmersmarket,,,,,,"1101 Walnut St Murphysboro, IL 62966",Illinois,Murphysboro,1101 Walnut St,62966,-89.33536683039301,37.76431134807224,,
farmers market,"Mar 20th, 2023",default-farmersmarket-4-3.jpg,309898,Museum of Contemporary Art/Streeterville (Chicago) Farmers' Market,,,,312-744-4306,https://www.chicagofarmersmarkets.us/,,,,,,,"220 E Chicago Avenue Chicago, IL 60611",Illinois,Chicago,220 E Chicago Avenue,60611,-87.62362586914304,41.896749337970164,,
farmers market,"Mar 20th, 2023",default-farmersmarket-4-3.jpg,309899,Naperville Farmers Market,,,,630-369-5638,,http://www.facebook.com/pages/Naperville-Farmers-Market/166412853422982,,,,,,"200 E 5th Ave Naperville, IL 60540",Illinois,NAPERVILLE,"200 E 5TH AVE, NAPERVLE",60563,-88.14317025528241,41.78091027881513,,
farmers market,"Mar 20th, 2023",default-farmersmarket-4-3.jpg,309900,Nashville Chamber of Commerce Market,,,,618-327-3700,,,,,,,,"101 E Saint Louis St. Nashville, IL 62263",Illinois,Nashville,101 E Saint Louis St.,62263,-89.3829081228066,38.34369528193371,,
farmers market,"Mar 20th, 2023",default-farmersmarket-4-3.jpg,309901,Nokomis Farmers Market,,,,217-563-2588,,,,,,,,"301 E State St. Nokomis, IL 62075",Illinois,Nokomis,301 E State St.,62075,-89.28326057155664,39.30254587385385,,
farmers market,"Mar 20th, 2023",default-farmersmarket-4-3.jpg,309902,North End City Market,,,,815-977-5124,http://www.rockfordcitymarket/northend,https://www.facebook.com/northendcitymarket/,,,,,,"Main St & Auburn St Rockford, IL 61103",Illinois,Rockford,Main St & Auburn St,61103,-89.08009501131255,42.28850999953622,,
farmers market,"Mar 20th, 2023",default-farmersmarket-4-3.jpg,309903,North End Commons Farmers' Market,,,,,https://www.northendcommons.com/,,,,,,,"1416 N Main St Rockford, IL 61103",Illinois,Rockford,1416 N Main St,61103,-89.08068507176955,42.28763044972139,,
farmers market,"Mar 20th, 2023",default-farmersmarket-4-3.jpg,309904,North Valley Market,,,,309-264-6090,,,,,,,,"614 Spring St Peoria, IL 61603",Illinois,Peoria,614 Spring St,61603,-89.57835454126646,40.70410462625081,,
farmers market,"Mar 20th, 2023",default-farmersmarket-4-3.jpg,309905,NorthCenter Farmers Market,,,,,http://www.northcenterchamber.com/northcenter-farmers-market,,,,,,,"4100 N. Damen Ave. Chicago, IL 60618",Illinois,CHICAGO,4100 N DAMEN AVE,60618,-87.67881928350603,41.95603867787171,,
farmers market,"Mar 20th, 2023",default-farmersmarket-4-3.jpg,309906,Northfield Farmers Market,,,,847-441-1848,http://www.northfieldfarmersmarket.org,,,,,,,"6 Happ Road across from New Trier High School's Northfield Campus Northfield, IL 60093",Illinois,NORTHFIELD,6 HAPP RD,60093,-87.76623115680437,42.088913097019876,,
farmers market,"Mar 20th, 2023",default-farmersmarket-4-3.jpg,309907,Northwest Side Farmers Market Collective,,,,,http://www.nwsfmc.org/,,,,,,,"4730 W. Irving Park Rd. Chicago, IL 60641",Illinois,CHICAGO,4730 W IRVING PARK RD,60641,-87.74616788015042,41.95344454974995,,
farmers market,"Mar 20th, 2023",default-farmersmarket-4-3.jpg,309908,Oak Forest Farmers' Market,,,farmersmarket@oak-forest.org,708-687-4050,http://www.oak-forest.org/,https://www.facebook.com/Oak-Forest-Farmers-Market-1438708346393175,,,,,,"15600 Cicero Ave., Oak Forest, IL, 60452",Illinois,Oak Forest,15600 Cicero Ave.,60452,-87.73669725897369,41.60865072906153,,
farmers market,"Mar 20th, 2023",default-farmersmarket-4-3.jpg,309909,Oak Park Farmers' Market,,,farmersmarket@oak-park.us,708-358-5780,http://www.oak-park.us/our-community/oak-park-farmers-market,,,,,,,"460 Lake St. Oak Park, IL 60302 Physic location of market Oak Park, IL 60302",Illinois,Oak Park,460 Lake St.,60302,-87.78645280303263,41.88838247363193,,
farmers market,"Mar 20th, 2023",default-farmersmarket-4-3.jpg,309910,Old Capitol Farmers Market Holiday/Winter Farmers Market,,,programs@springfieldartsco.org,217-544-1723,http://www.downtownspringfield.org/old-capitol-farmers-market/,https://www.facebook.com/oldcapitolfarmersmarket/,,,,,,"619 East Washington Street Springfield, IL 62701",Illinois,Springfield,619 East Washington Street,62701,-89.64752838590151,39.80169758033373,,
farmers market,"Mar 20th, 2023",default-farmersmarket-4-3.jpg,309911,Old Dundee Sunday Farmers' Market,,,,847-426-2255,http://www.dundeedepot.com,https://www.facebook.com/pages/Dundee-Depot-Farmers-Market/113123312056926,,,,,,"319 N. River St., East Dundee, IL, 60118",Illinois,East Dundee,319 N. River St.,60118,-88.27484110927608,42.101158881631804,,
farmers market,"Mar 20th, 2023",default-farmersmarket-4-3.jpg,309912,Olde Schaumburg Centre Farmers Market,,,,847-923-3855,,,,,,,,"109 South Roselle Road 109 South Roselle Road Schaumburg, IL 60193-1899",Illinois,SCHAUMBURG,109 S ROSELLE RD,60193,-88.07993083646198,42.02413974266933,,
farmers market,"Mar 20th, 2023",default-farmersmarket-4-3.jpg,309913,Oneida Farmers Market,,,,309-483-8412,,https://www.facebook.com/OneidaFarmersMarket,,,,,,"221 W. Highway 34 Oneida, IL 61467",Illinois,Oneida,221 W. Highway 34,61467,-90.22313055701815,41.075740502939695,,
farmers market,"Mar 20th, 2023",default-farmersmarket-4-3.jpg,309914,Orangeville Farmers Market,,,,815-789-3113,,,,,,,,"Ewing Street at W High Road Orangeville, IL 61060",Illinois,Orangeville,Ewing Street at W High Road,61060,-89.65059001448127,42.46947000849502,,
farmers market,"Mar 20th, 2023",default-farmersmarket-4-3.jpg,309915,Oregon Park District Farmers Market,,,info@oregonpark.org,815-732-3101,http://www.oregonpark.org/,,,,,,,"418 W, Washington Street Oregon, IL 61061",Illinois,Oregon,"418 W, Washington Street",61061,-89.33279751579038,42.01459004919471,,
farmers market,"Mar 20th, 2023",default-farmersmarket-4-3.jpg,309916,"Oregon Park District-Oregon, Illinois Farmers Market",,,,815-732-3101,,,,,,,,"304 S. 5th Street Market is on the corner if IL-Rt 2 and IL-Rt 64-Courthouse Lawn Oregon, IL 61061",Illinois,Oregon,304 S. 5th Street,61061,-89.33248999963165,42.01460000687027,,
farmers market,"Mar 20th, 2023",default-farmersmarket-4-3.jpg,309917,Ottawa's Old Town Farmers Market,,,,815-433-0084,,https://www.facebook.com/ottawailfarmersmarket/,,,,,,"100 West Jackson Street Ottawa, IL 61350",Illinois,Ottawa,100 West Jackson Street,61350,-88.8410928226121,41.34894252094059,,
farmers market,"Mar 20th, 2023",default-farmersmarket-4-3.jpg,309918,Palatine Winter Farmers' Market,,,,847-358-1649,http://www.palatinesistercities.org/winter-farmers-market/,,,,,,,"137 W Wood St., Palatine Train Station, Palatine, IL, 60067",Illinois,Palatine,137 W Wood St.,60067,-88.04717948204569,42.11307034460075,,
farmers market,"Mar 20th, 2023",default-farmersmarket-4-3.jpg,309919,Palos Heights' Farmers' Market,,,farmersmarket@palosheights.org,,http://www.palosheights.org/,https://www.facebook.com/PalosHeightsfarmersmarket,,,,,,"12217 S. Harlem Ave., Palos Heights, IL, 60463",Illinois,Palos Heights,12217 S. Harlem Ave.,60463,-87.7966448100978,41.66944487570786,,
farmers market,"Mar 20th, 2023",default-farmersmarket-4-3.jpg,309920,Palos Park Farmers Market,,,,708-448-5200,,,,,,,,"12312 South 88th Avenue 12312 South 88th Avenue Palos Park, IL 60464",Illinois,PALOS PARK,12312 S 88TH AVE,60464,-87.83526165327376,41.66697559369376,,
farmers market,"Mar 20th, 2023",default-farmersmarket-4-3.jpg,309921,Patoka Farmers Market,,,,618-780-1527,,https://www.facebook.com/patokafarmersmarket,,,,,,"W. Bond Ave Patoka, IL 62875",Illinois,Patoka,W. Bond Ave,62875,-89.1052499828419,38.75520643865137,,
farmers market,"Mar 20th, 2023",default-farmersmarket-4-3.jpg,309922,Pekin Downtown Farmers Market,,,,309-202-2576,https://enjoypekin.com/farmers-market-returning-downtown-pekin/,,,,,,,"17 S. Capitol Street Pekin, IL 61554",Illinois,Pekin,17 S. Capitol Street,61554,-89.648428872729,40.569756052218054,,
farmers market,"Mar 20th, 2023",default-farmersmarket-4-3.jpg,309923,Peoria Farmers' Market,,,jason@shopmetrocentre.com,309-692-6690,http://shopmetrocentre.com/ai1ec_event/peoria-farmers-market-2013/?instance_id=188&ai1ec_event=Peoria%20Farmers%20Market%202013,,,,,,,"4700 N University St, Metro Centre- Market Pavillion, Peoria, IL, 61614",Illinois,Peoria,4700 N University St,61614,-89.61251404992117,40.74439551393486,,
farmers market,"Mar 20th, 2023",default-farmersmarket-4-3.jpg,309924,Peoria Heights Farmers Market,,,,309-360-6686,,https://www.facebook.com/Peoriaheightsfarmersmarket,,,,,,"4541 North Prospect Road Peoria Heights, IL 61616",Illinois,Peoria Heights,4541 North Prospect Road,61616,-89.57407455577457,40.7429298654454,,
farmers market,"Mar 20th, 2023",default-farmersmarket-4-3.jpg,309925,Peoria RiverFront Market,,,info@peoriariverfront.com,309-671-5555,http://www.visitdowntownpeoria.com/,https://www.facebook.com/peoriariverfrontmarket/,,,,,,"200 Block of Water Steet, Peoria Illinois Peoria, IL 61602",Illinois,Peoria,200 Water Steet,61602,-89.59046405126105,40.68807275878987,,
farmers market,"Mar 20th, 2023",default-farmersmarket-4-3.jpg,309926,"Pfeiffer Farms Fresh Market, Inc.",,,,815-915-7036,,,,,,,,"2511 Reynolds Road Ashton, IL 61006",Illinois,Ashton,2511 Reynolds Road,61006,-89.14796462877987,41.831762874472844,,
farmers market,"Mar 20th, 2023",default-farmersmarket-4-3.jpg,309927,Pilsen Community Market,,,,,http://pilsencommunitymarket.weebly.com,,,,,,,"1800 S. Blue Island Ave. Chicago, IL 60608",Illinois,CHICAGO,1800 S BLUE ISLAND AVE,60608,-87.66143010658392,41.857562868863546,,
farmers market,"Mar 20th, 2023",default-farmersmarket-4-3.jpg,309928,Pinckneyville Farmers Market,,,,618-357-8775,,,,,,,,"1031 South Main Pinckneyville, IL 62274",Illinois,Pinckneyville,1031 South Main,62274,-89.38196189446772,38.07168555758314,,
farmers market,"Mar 20th, 2023",default-farmersmarket-4-3.jpg,309929,Plainfield Farmers Market,,,,630-608-7344,,https://www.facebook.com/PlainfieldFarmerMarket/,,,,,,"15025 S Illinois St. In the Library Parking Lot Plainfield, IL 60544",Illinois,Plainfield,15025 S Illinois St.,60544,-88.20368684506302,41.60970278103198,,
farmers market,"Mar 20th, 2023",default-farmersmarket-4-3.jpg,309930,Plant Chicago Farmers Market,,,,773-847-5523,https://plantchicago.org/farmers-market/,https://www.facebook.com/plantchicagonotforprofit,,,,,,"4459 S. Marshfield Ave Chicago, IL 60609",Illinois,Chicago,4459 S. Marshfield Ave,60609,-87.66630602573379,41.812977056633265,,
farmers market,"Mar 20th, 2023",default-farmersmarket-4-3.jpg,309931,Polo Chamber of Commerce Farmers' Market,,,,815-946-2654,https://www.poloil.net/,,,,,,,"101 E. Mason Street Polo, IL 61064",Illinois,Polo,101 E. Mason Street,61064,-89.57746704545325,41.986120368755515,,
farmers market,"Mar 20th, 2023",default-farmersmarket-4-3.jpg,309932,Portage Park Farmers Market,,,,773-720-5381,,https://www.facebook.com/portage-park-farmers-market-375836939182171/,,,,,,"4100 N. Long Avenue Chicago, IL 60641",Illinois,Chicago,4100 N. Long Avenue,60641,-87.76214396610335,41.95513872008454,,
farmers market,"Mar 20th, 2023",default-farmersmarket-4-3.jpg,309933,Princeton Farmers' Market,,,,815-875-6468,https://princetonfarmersmarket.wordpress.com/,https://www.facebook.com/PrincetonFarmersMarket,,,,,,"439 S. Main St., Princeton, IL, 61356",Illinois,Princeton,439 S. Main St.,61356,-89.46502284015867,41.371152574811056,,
farmers market,"Mar 20th, 2023",default-farmersmarket-4-3.jpg,309934,Printers Row (Chicago) Farmers' Market,,,,312-744-4306,https://www.chicagofarmersmarkets.us/,,,,,,,"47 W Polk St. Chicago, IL 60605",Illinois,Chicago,47 W Polk St.,60605,-87.62935783052872,41.872275072448396,,
farmers market,"Mar 20th, 2023",default-farmersmarket-4-3.jpg,309935,Pullman Farmers' Market,,,DOH@cityofchicago.org,312-744-3315,http://www.cityofchicago.org/city/en/depts/dca/supp_info/farmers_market.html,https://www.facebook.com/pages/Chicago-Farmers-Markets/19988198547,,,,,,"111th St and Cottage Grove Ave., Arcade Park, Chicago, IL, 60616",Illinois,Chicago,111th St and Cottage Grove Ave.,60616,-87.60986003447783,41.69278001957238,,
farmers market,"Mar 20th, 2023",default-farmersmarket-4-3.jpg,309936,Quad Cities Growers' Markets,,,qcfvga@yahoo.com,,http://www.growersmarkets.com,https://www.facebook.com/QuadCitiesGrowersMarkets,,,,,,"Avenue of the Cities and 11th St., East Moline, IL, 61244",Illinois,East Moline,Avenue of the Cities and 11th St.,61244,-90.4369100138717,41.4900499868626,,
farmers market,"Mar 20th, 2023",default-farmersmarket-4-3.jpg,309937,Quincy Farmers Market,,,elombardi@thedistrictquincy.com,217-228-8696,https://www.thedistrictquincy.com/,https://www.facebook.com/#!/pages/Quincy-IL/Quincy-Farmers-Market/96180215824?ref=search&sid=10670012,,,,,,"500 Hampshire Street Washington Park Quincy, IL 62301",Illinois,Quincy,500 Hampshire Street,62301,-91.40772874402961,39.93321485853813,,
farmers market,"Mar 20th, 2023",default-farmersmarket-4-3.jpg,309938,Rantoul Farmers Market,,,,,,http://www.facebook.com/RantoulFarmersMarket,,,,,,"Corner of Sangamon & Garrard Rantoul, IL 61866",Illinois,Rantoul,Corner of Sangamon & Garrard,61866,-88.15736997321126,40.310599994990326,,
farmers market,"Mar 20th, 2023",default-farmersmarket-4-3.jpg,309939,Ravenswood Farmers Market,,,farmersmarket@ravenscov.org,,https://ravenswoodchicago.org/farmersmarket/,https://www.facebook.com/RavenswoodFarmersMarket/,,,,,,"4900 North Damen Chicago, IL 60625",Illinois,Chicago,4900 North Damen,60625,-87.67924858104035,41.9707065558456,,
farmers market,"Mar 20th, 2023",default-farmersmarket-4-3.jpg,309940,Ravinia Farmers Market,,,ed@raviniafarmersmarket.com,847-579-9080,https://www.raviniafarmersmarket.com/,https://www.facebook.com/RaviniaFarmersMarket/,,,,,,"477 roger williams rd Highland Park, IL 60035",Illinois,Highland Park,477 roger williams rd,60035,-87.78227482739214,42.16548534128329,,
farmers market,"Mar 20th, 2023",default-farmersmarket-4-3.jpg,309941,Richland Farmers Market,,,dkoenigs@richland.edu,217-875-7200,https://www.richland.edu/richlandmarket/,https://www.facebook.com/RichlandStudentFarms/,,,,,,"One College Park Decatur, IL 62521",Illinois,Decatur,One College Park,62521,-88.89397296537365,39.883813979050046,,
farmers market,"Mar 20th, 2023",default-farmersmarket-4-3.jpg,309942,Ridgeville Park District Farmers Market,,,programs@ridgeville.org,847-869-5640,https://www.ridgeville.org/,,,,,,,"908 Seward St. Evanston, IL 60202",Illinois,Evanston,908 Seward St.,60202,-87.68496528585173,42.02880599352024,,
farmers market,"Mar 20th, 2023",default-farmersmarket-4-3.jpg,309943,River's Edge Farmers Market,,,farmersmarket@cityoforegon.org,815-732-6321,https://cityoforegon.org/rivers-edge-farmers-market/,,,,,,,"100 W. Washington St Oregon, IL 61061",Illinois,Oregon,100 W. Washington St,61061,-89.32882693990298,42.014529750884456,,
farmers market,"Mar 20th, 2023",default-farmersmarket-4-3.jpg,309944,Rochester Public Library Farmers Market,,,adult.programs@rochesterlibrary.org,217-498-8454,http://rochesterlibrary.org/fmvendor,https://www.facebook.com/rpldfarmersmarket,,,,,,"1 Community Drive Rochester, IL 62563",Illinois,Rochester,1 Community Drive,62563,-89.52658202011445,39.74477501108532,,
farmers market,"Mar 20th, 2023",default-farmersmarket-4-3.jpg,309945,Rock Falls Farmers Market,,,sam@rockfallschamber.com,815-625-4500,https://www.rockfallschamber.com/farmersmarket,,,,,,,"400 W 2nd Street Rock Falls, IL 61071",Illinois,Rock Falls,400 W 2nd Street,61071,-89.69510458435039,41.780418381917805,,
farmers market,"Mar 20th, 2023",default-farmersmarket-4-3.jpg,309946,Rockford City Market,,,rockfordcitymarket@rrdp.org,815-977-5124,http://www.rockfordcitymarket.com/,https://www.facebook.com/RockfordCityMarket,,,,,,"E. State St. and N. Water St., Rockford, IL, 61104",Illinois,Rockford,E. State St. and N. Water St.,61104,-89.09106998196387,42.269530017985744,,
farmers market,"Mar 20th, 2023",default-farmersmarket-4-3.jpg,309947,Rockford-Shumway Farmers Market,,,,815-874-2677,,,,,,,,"5633 Linden Road 5633 Linden Road Rockford, IL 61109",Illinois,ROCKFORD,5633 LINDEN RD,61109,-89.00639998224491,42.21693736619193,,
farmers market,"Mar 20th, 2023",default-farmersmarket-4-3.jpg,309948,Roscoe Village Farmers' Market,,,,,,,,,,,,"2200 W Roscoe Chicago, IL 60618",Illinois,CHICAGO,2200 W ROSCOE ST,60618,-87.68339792465656,41.94316307620579,,
farmers market,"Mar 20th, 2023",default-farmersmarket-4-3.jpg,309949,Roseland City Market,,,,,,,,,,,,"200 W. 109th St. Chicago, IL 60628 Lavizzo Elementary School",Illinois,CHICAGO,200 W 109TH ST,60628,-87.62873883307404,41.69616899606577,,
farmers market,"Mar 20th, 2023",default-farmersmarket-4-3.jpg,309950,Sainte Marie Farmers Market,,,,,http://www.saintemariefoundation.org/,https://www.facebook.com/sainte-marie-farmers-market,,,,,,"200 South Franklin St Picquet Park Sainte Marie, IL 62459",Illinois,Sainte Marie,200 South Franklin St,62459,-88.02451125299577,38.9309331106513,,
farmers market,"Mar 20th, 2023",default-farmersmarket-4-3.jpg,309951,Saturday Produce Market,,,dmclaugh@richland.edu,217-875-7211,http://www.richland.edu/market,https://www.facebook.com/RichlandStudentFarms,,,,,,"1 College Park, National Sequestration Education Center, Decatur, IL, 62521",Illinois,Decatur,1 College Park,62521,-88.89397296537365,39.883813979050046,,
farmers market,"Mar 20th, 2023",default-farmersmarket-4-3.jpg,309952,Seaway Bank Farmers' Market,,,,773-602-4865,https://www.seawaybank.us/community/farmers-market,,,,,,,"645 E. 87th St , Chicago, IL, 60619",Illinois,Chicago,645 E. 87th St,60619,-87.60816906107203,41.73659736007611,,
farmers market,"Mar 20th, 2023",default-farmersmarket-4-3.jpg,309953,Seguin Gardens Market,,,,708-222-2772,,,,,,,,"3100 South Central Ave Cicero , IL 60804",Illinois,CICERO,3100 S CENTRAL AVE,60804,-87.76352197597646,41.83623717591785,,
farmers market,"Mar 20th, 2023",default-farmersmarket-4-3.jpg,309954,Sidetrack Market,,,info@sidetrackchicago.com,,http://www.sidetrackchicago.com/,https://www.facebook.com/events/1015430755136625/,,,,,,"3349 N. halsted street Chicago, IL 60657",Illinois,Chicago,3349 N. halsted street,60657,-87.64935107139092,41.942957026024416,,
farmers market,"Mar 20th, 2023",default-farmersmarket-4-3.jpg,309955,Skokie Farmers Market,,,,847-673-0500,,,,,,,,"5127 Oakton Street Skokie, IL 60077",Illinois,SKOKIE,5127 OAKTON ST,60077,-87.75642271166625,42.02633461406631,,
farmers market,"Mar 20th, 2023",default-farmersmarket-4-3.jpg,309956,SOAR Farmers Market @ MCA,,,,,http://soarchicago.org/soarfarmersmarket/,,,,,,,"220 E. Chicago Ave. Chicago, IL 60611",Illinois,CHICAGO,220 E AVE,60611,-87.62362586914304,41.896749337970164,,
farmers market,"Mar 20th, 2023",default-farmersmarket-4-3.jpg,309957,Southport Green Market,,,info@southportneighbors.com,773-525-6034,http://www.southportneighbors.com/greenmarket.html,https://www.facebook.com/pages/Southport-Green-Market/153543188045844,,,,,,"1420 W Grace St, Blaine School's Parking Lot, Chicago, IL, 60613",Illinois,Chicago,1420 W Grace St,60613,-87.66571603365769,41.95069393976646,,
farmers market,"Mar 20th, 2023",default-farmersmarket-4-3.jpg,309958,Spears Family Market/Farmer's Market,,,,217-320-3796,,https://www.facebook.com/SpearsFamilyMarket/,,,,,,"300 Garden Ave Beardstown, IL 62618",Illinois,Beardstown,300 Garden Ave,62618,-90.42790363419459,40.00327559260836,,
farmers market,"Mar 20th, 2023",default-farmersmarket-4-3.jpg,309959,St. Charles Farmers Market,,,Info@Bakermemorialchurch.org,630-584-6680,https://www.bakermemorialchurch.org/farmers-market/,https://www.facebook.com/St-Charles-Illinois-Farmers-Market-397693287455/,,,,,,"307 Cedar Ave. Saint Charles, IL 60174",Illinois,Saint Charles,307 Cedar Ave.,60174,-88.31067226384161,41.9148562386916,,
farmers market,"Mar 20th, 2023",default-farmersmarket-4-3.jpg,309960,Stade's Farm & Market,,,,815-675-6396,https://www.thefarm@stadefarm.com/,,,,,,,"3709 Miller Road McHenry, IL 60051",Illinois,McHenry,3709 Miller Road,60051,-88.26708261193062,42.41502688909944,,
farmers market,"Mar 20th, 2023",default-farmersmarket-4-3.jpg,309961,Star Farm / Back of the Yards Farmers Market,,,,,http://www.starfarmchicago.net/,,,,,,,"5256 S. Ashland Chicago, IL 60609",Illinois,CHICAGO,5256 S ASHLAND AVE,60609,-87.66470863134606,41.798458354238456,,
farmers market,"Mar 20th, 2023",default-farmersmarket-4-3.jpg,309962,Steeleville Farmers Market,,,,618-965-3461,,,,,,,,"107 West Broadway 107 West Broadway Steeleville, IL 62288",Illinois,STEELEVILLE,"107 W BROADWAY ST, STEELEVLE",62288,-89.65942983513551,38.007051368102026,,
farmers market,"Mar 20th, 2023",default-farmersmarket-4-3.jpg,309963,Streator Downtown Farmers Market,,,,815-510-0268,,https://www.facebook.com/groups/1282428651949282,,,,,,"200 N Park Streator, IL 61364",Illinois,Streator,200 N Park,61364,-88.83420764041344,41.12209729842741,,
farmers market,"Mar 20th, 2023",default-farmersmarket-4-3.jpg,309964,Sugar Grove Farmers Market,,,info@sugargrovechamber.org,630-466-1014,https://www.sugargrovechamber.org/,https://www.facebook.com/pages/Sugar-Grove-Chamber-of-Commerce/153699344662645,,,,,,"10 Municipal Drive Sugar Grove, IL 60554",Illinois,Sugar Grove,10 Municipal Drive,60554,-88.45463903083217,41.764421990031565,,
farmers market,"Mar 20th, 2023",default-farmersmarket-4-3.jpg,309965,Summit Park District Farmers Market,,,,708-496-1012,http://www.summitparks.org,,,,,,,"5700 South Archer Road Summit, IL 60501",Illinois,SUMMIT,5700 S ARCHER RD,60501,-87.81039197703797,41.78795127157373,,
farmers market,"Mar 20th, 2023",default-farmersmarket-4-3.jpg,309966,Swansea Farmers' Market,,,swanseafarmersmarket@yahoo.com,618-234-0044,http://www.swanseail.org/2143/Farmers-Market,https://www.facebook.com/SwanseaFarmersMarketInc,,,,,,"2801 N. Illinois St., Swansea, IL, 62226",Illinois,Swansea,2801 N. Illinois St.,62226,-89.98590302187293,38.54499601225601,,
farmers market,"Mar 20th, 2023",default-farmersmarket-4-3.jpg,309967,Sycamore Farmers' Market,,,agerardy@sycamorechamber.com,815-895-3456,http://discoversycamore.com/tag/farmers-market/,https://www.facebook.com/DiscoverSycamoresFarmersMarket/,,,,,,"Somonauk St. & W. Elm St., Sycamore, IL, 60178",Illinois,Sycamore,Somonauk St. & W. Elm St.,60178,-88.68709996747184,41.98768999054454,,
farmers market,"Mar 20th, 2023",default-farmersmarket-4-3.jpg,309968,Taste of Eden Market,,,livingfood@tasteofedenmarket.com,847-239-2232,https://www.tasteofedenmarket.com/,https://www.facebook.com/tasteofedenmarket,,,,,,"13 N. Genesee St. Waukegan, IL 60085",Illinois,Waukegan,13 N. Genesee St.,60085,-87.83133826281532,42.3598047350552,,
farmers market,"Mar 20th, 2023",default-farmersmarket-4-3.jpg,309969,Taylorville Farmers' Marketplace,,,tvillemainst@consolidated.net,217-824-3555,http://www.downtowntaylorville.com,https://www.facebook.com/TaylorvilleMainStreet,,,,,,"102 S. Main St., Taylorville, IL, 62568",Illinois,Taylorville,102 S. Main St.,62568,-89.29493276259308,39.54923309206969,,
farmers market,"Mar 20th, 2023",default-farmersmarket-4-3.jpg,309970,Taylorville Market Day,,,support@dan.com,217-824-3555,https://www.downtowntaylorville.com/,https://www.facebook.com/TaylorvilleMainStreet/,,,,,,"100 N Main St. Taylorville, IL 62568",Illinois,Taylorville,100 N Main St.,62568,-89.29493663130356,39.549422663797856,,
farmers market,"Mar 20th, 2023",default-farmersmarket-4-3.jpg,309971,The Abraham Lincoln Memorial Hospital Market,,,,217-605-5701,http://www.thealmhmarket.org,http://www.facebook.com/thealmhmarket,,,,,,"1408 Short Eleventh Street Lincoln, IL 62656 Free parking. No admission fee. Enter the fairgrounds from the Postville Street entrance.",Illinois,LINCOLN,1408 SHORT ELEVENTH ST,62656,-89.38431185373004,40.15235276877101,,
farmers market,"Mar 20th, 2023",default-farmersmarket-4-3.jpg,309972,The Hyde Park Farmer's Market,,,info@secc-chicago.org,773-324-6926,https://www.secc-chicago.org/hpfm/,https://www.facebook.com/hydeparkchicagofarmersmarket,,,,,,"5400 South Lake Park Avenue Chicago, IL 60615",Illinois,Chicago,5400 South Lake Park Avenue,60615,-87.58725117970725,41.797966216639374,,
farmers market,"Mar 20th, 2023",default-farmersmarket-4-3.jpg,309973,The Lincoln Park Farmers Market,,,,,http://www.thelincolnparkfarmersmarket.com/,,,,,,,"2001 N. Orchard St. Chicago, IL 60614",Illinois,CHICAGO,2001 N ORCHARD ST,60614,-87.64609570762397,41.91835924706681,,
farmers market,"Mar 20th, 2023",default-farmersmarket-4-3.jpg,309974,Thornton Farmers Market,,,,708-877-4454,,,,,,,,"W Margaret St & Hubbard St Thornton, IL 60476",Illinois,Thornton,W Margaret St & Hubbard St,60476,-87.61572996509062,41.56839001996835,,
farmers market,"Mar 20th, 2023",default-farmersmarket-4-3.jpg,309975,Tinley Park Farmers Market,,,,708-525-4484,,https://www.facebook.com/Tinley-Park-Farmers-Market-228903227124328/,,,,,,"6771 North St Tinley Park, IL 60477",Illinois,Tinley Park,6771 North St,60477,-87.78367015561682,41.576204277161736,,
farmers market,"Mar 20th, 2023",default-farmersmarket-4-3.jpg,309976,Tower Island Chute Farmer's Market,,,,618-559-7813,,http://www.facebook.com/pages/Tower-Island-Chute-Farmers-Market/610131779002598,,,,,,"269 Ragweed Lane Grand Tower, IL 62942",Illinois,GRAND TOWER,269 RAGWEED LN,62942,-89.48364600798996,37.60855207787667,,
farmers market,"Mar 20th, 2023",default-farmersmarket-4-3.jpg,309977,Twice's Belmont Cragin Farmers Market,,,,773-297-6396,,,,,,,,"5450 West Belmont Ave Chicago, IL 60641",Illinois,Chicago,5450 West Belmont Ave,60641,-87.7634550384815,41.93862196022918,,
farmers market,"Mar 20th, 2023",default-farmersmarket-4-3.jpg,309978,Ujamaa Co-op Farmers Market,,,,312-388-7069,,,,,,,,"4857 S Evans Ave. #1 Chicago, IL 60615",Illinois,Chicago,4857 S Evans Ave.,60615,-87.60771285310283,41.80666148137705,,
farmers market,"Mar 20th, 2023",default-farmersmarket-4-3.jpg,309979,Uncommon Ground Farmer Friday Farmers Market,,,,,http://uncommonground.com,,,,,,,"1401 W. Devon Ave. Chicago, IL 60660",Illinois,CHICAGO,1401 W DEVON AVE,60660,-87.6656349784069,41.99795798957254,,
farmers market,"Mar 20th, 2023",default-farmersmarket-4-3.jpg,309980,Union County Farmers' Market,,,ucchamber@outlook.com,618-833-6311,http://www.shawneeheartland.com/#!buy-union-counyt/czlz,https://www.facebook.com/ucchamberofcommerce,,,,,,"148 E. Davie St., Anna, IL, 62906",Illinois,Anna,148 E. Davie St.,62906,-89.24669815179925,37.45951221502847,,
farmers market,"Mar 20th, 2023",default-farmersmarket-4-3.jpg,309981,Uptown Farmers Market,,,ufm@chicagomarket.coop,,http://www.uptownfarmersmarket.org/,https://www.facebook.com/chicagomarket,,,,,,"4620 North Broadway (just north of Wilson on the West side of Broadway) Chicago, IL 60640",Illinois,Chicago,4620 North Broadway,60640,-87.65785908913318,41.965996945644186,,
farmers market,"Mar 20th, 2023",default-farmersmarket-4-3.jpg,309982,Urbana Market at the Square,,,urbanamarket@urbanaillinois.us,217-384-2319,https://urbanamarket.org/,https://www.facebook.com/urbanamarket,,,,,,"400 S. Vine Street Urbana, IL 61801",Illinois,Urbana,400 S. Vine Street,61801,-88.3452125591753,39.96348385624713,,
farmers market,"Mar 20th, 2023",default-farmersmarket-4-3.jpg,309983,"Vandalia, Illinois Farmers' Market",,,cityadmin@vandaliaillinois.com,618-283-1152,http://www.vandaliaillinois.com/,https://www.facebook.com/vandaliaillinoisfarmersmarket/,,,,,,"4th Street Vandalia, IL 62471",Illinois,Vandalia,4th Street,62471,-89.0947499629844,38.959619731987566,,
farmers market,"Mar 20th, 2023",default-farmersmarket-4-3.jpg,309984,Villa Park French Market,,,summermarkets@sbcglobal.net,312-575-0286,http://www.invillapark.com/147/French-Market,,,,,,,"10 W. Park Blvd., Villa Park, IL, 60181",Illinois,Villa Park,10 W. Park Blvd.,60181,-87.98241556429315,41.88256910722097,,
farmers market,"Mar 20th, 2023",default-farmersmarket-4-3.jpg,309985,Village of Lakemoor Farmers Market,,,,815-482-0094,,,,,,,,"234 w Rt. 120 Lakemoor, IL 60051",Illinois,LAKEMOOR,234 W STATE RTE 120,60051,-88.20167624900452,42.32991972686437,,
farmers market,"Mar 20th, 2023",default-farmersmarket-4-3.jpg,309986,Village of Lemont Farmers Market,,,vlemont@lemont.il.us,630-243-2700,https://www.lemont.il.us/,,,,,,,"418 Main Street Lemont, IL 60439",Illinois,Lemont,418 Main Street,60439,-87.99832249341124,41.674659272547906,,
farmers market,"Mar 20th, 2023",default-farmersmarket-4-3.jpg,309987,Village of Orland Park Farmers' Market,,,orlandrecreation@orlandpark.org,708-403-6266,https://www.orland-park.il.us/,,,,,,,"14700 S. Ravinia Avenue Orland Park, IL 60462",Illinois,Orland Park,14700 S. Ravinia Avenue,60462,-87.85739498578822,41.623083991754385,,
farmers market,"Mar 20th, 2023",default-farmersmarket-4-3.jpg,309988,Village of Park Forest Farmers' Market,,,mlewis@vopf.com,708-748-2005,https://www.villageofparkforest.com/98/Farmers-Market,https://www.facebook.com/www.facebook.com/ParkForestIL/,,,,,,"152 Main Street Park Forest, IL 60466",Illinois,Park Forest,152 Main Street,60466,-87.67685426777965,41.48395527584862,,
farmers market,"Mar 20th, 2023",default-farmersmarket-4-3.jpg,309989,Village of Thornton Market In The Park,,,,708-877-4454,http://www.thornton60476.com,http://www.facebook.com/VillageofThorntonRecreationDepartment,,,,,,"102 N. Hubbard St. Thornton, IL 60476 Ridge Rd, just east of the quarry.",Illinois,THORNTON,102 HUBBARD ST,60476,-87.61571736901287,41.56850712994952,,
farmers market,"Mar 20th, 2023",default-farmersmarket-4-3.jpg,309990,Warrenville Farmers Market,,,,630-393-7279,http://www.warrenvilleparks.org,,,,,,,"3S260 Warren Ave Warrenville, IL 60555",Illinois,WARRENVILLE,3S260 WARREN AVE,60555,-88.18026451270308,41.823139694179694,,
farmers market,"Mar 20th, 2023",default-farmersmarket-4-3.jpg,309991,Watseka Farmers Market,,,,815-432-4259,https://watsekafarmersmarket.com/vendors.php,,,,,,,"120 E. Walnut St. Watseka, IL 60970",Illinois,Watseka,120 E. Walnut St.,60970,-87.73406967984802,40.77628228566768,,
farmers market,"Mar 20th, 2023",default-farmersmarket-4-3.jpg,309992,Wauconda Farmers' Market,,,,847-526-5580,https://www.waucondachamber.org/farmers-market,https://www.facebook.com/waucondachamber,,,,,,"Main Street of Wauconda, IL Wauconda, IL 60084",Illinois,Wauconda,Main Street,60084,-88.14475409614009,42.266513219803564,,
farmers market,"Mar 20th, 2023",default-farmersmarket-4-3.jpg,309993,Wellness Rising Farmers Market,,,,,,http://www.facebook.com/wellnessrisingcoalition,,,,,,"820 N. Liberty Street Elgin, IL 60120 Wellness Rising Farmers Markets are held at the American Legion, Post 57 in Elgin, IL. Our farmers markets, with very few exceptions (such as around a major holid",Illinois,ELGIN,820 N LIBERTY ST,60120,-88.2677034953784,42.05153987371158,,
farmers market,"Mar 20th, 2023",default-farmersmarket-4-3.jpg,309994,West Frankfort Farmers' Market,,,,,,https://www.facebook.com/west-frankfort-farmers-market-251949315285023,,,,,,"1100 E. Cleveland St. West Frankfort, IL 62896",Illinois,West Frankfort,1100 E. Cleveland St.,62896,-88.9143474289239,37.89196268483821,,
farmers market,"Mar 20th, 2023",default-farmersmarket-4-3.jpg,309995,West Humbolt Farmers Market,,,,,,,,,,,,"3601 W Chicago Ave Chicago, IL 60651",Illinois,Chicago,3601 W Chicago Ave,60651,-87.71675603823586,41.89510700846793,,
farmers market,"Mar 20th, 2023",default-farmersmarket-4-3.jpg,309996,West Town Health Market,,,,312-770-2165,,,,,,,,"2233 W Division St Chicago, IL 60622",Illinois,Chicago,2233 W Division St,60622,-87.68377118595163,41.90307219562441,,
farmers market,"Mar 20th, 2023",default-farmersmarket-4-3.jpg,309997,Westmont Open Market,,,wsec@westmontevents.com,630-829-9378,http://www.westmontevents.com/Open_Market.html,,,,,,,"W. Irving St. and N Cass Ave., Westmont, IL, 60559",Illinois,Westmont,W. Irving St. and N Cass Ave.,60559,-87.97541000320362,41.79769001519199,,
farmers market,"Mar 20th, 2023",default-farmersmarket-4-3.jpg,309998,Wheaton French Market,,,,312-575-0286,http://www.bensidounusa.com/,,,,,,,"Main St. & Liberty Dr., South of Railroad Tracks, Wheaton, IL, 60187",Illinois,Wheaton,Main St. & Liberty Dr.,60187,-88.10663003851968,41.864189981419685,,
farmers market,"Mar 20th, 2023",default-farmersmarket-4-3.jpg,309999,Wicker Park Farmers Market,,,farmersmarket@wickerparkbucktown.com,,https://www.wickerparkbucktown.com/farmersmarket/welcome-to-the-wicker-park-farmers-market/,https://www.facebook.com/WickerParkFarmersMarket,,,,,,"1425 N. Damen Ave. Chicago, IL 60622",Illinois,Chicago,1425 N. Damen Ave.,60622,-87.67737133983734,41.90746810953602,,
farmers market,"Mar 20th, 2023",default-farmersmarket-4-3.jpg,310000,Wilmette French Market,,,,630-784-0862,https://www.bensidounusa.com/,,,,,,,"Green Bay Rd. at Central Ave. Wilmette, IL 60091",Illinois,Wilmette,Green Bay Rd. at Central Ave.,60091,-87.70900001177053,42.0764799937962,,
farmers market,"Mar 20th, 2023",default-farmersmarket-4-3.jpg,310001,Winfield Farmers Market,,,,630-682-3712,,,,,,,,"Geneva Rd. at County Farm Rd. Winfield, IL 60190",Illinois,Winfield,Geneva Rd. at County Farm Rd.,60190,-88.15106996714653,41.8881499869228,,
farmers market,"Mar 20th, 2023",default-farmersmarket-4-3.jpg,310002,Winter Market,,,,630-418-0545,,,,,,,,"150 N Schuyler Avenue Kankakee, IL 60901",Illinois,KANKAKEE,150 N SCHUYLER AVE,60901,-87.86377018209457,41.12100643197611,,
farmers market,"Mar 20th, 2023",default-farmersmarket-4-3.jpg,310003,Woodstock Farmers Market,,,,,https://www.woodstockfarmersmarket.org/,https://www.facebook.com/woodstockfarmersmarket/,,,,,,"101 N. Johnson St. Woodstock, IL 60098",Illinois,Woodstock,101 N. Johnson St.,60098,-88.4479773313956,42.31473398140825,,
farmers market,"Mar 20th, 2023",default-farmersmarket-4-3.jpg,310004,Woodstock Farmers Market_Indoor,,,,,,https://www.facebook.com/woodstockfarmersmarket/,,,,,,"12015 Country Club Rd McHenry County Fairgrounds Woodstock, IL 60098",Illinois,Woodstock,12015 Country Club Rd,60098,-88.43312752305107,42.312782368036096,,
farmers market,"Mar 20th, 2023",default-farmersmarket-4-3.jpg,310005,Woodstock Winter Farmers Market,,,,815-382-4240,,,,,,,,"11900 country Club Road, Building D Woodstock, IL 60098",Illinois,Woodstock,11900 country Club Road,60098,-88.42658192105614,42.31280137236711,,
farmers market,"Mar 20th, 2023",default-farmersmarket-4-3.jpg,310006,Yorkville Farmers Market,,,membernews@yorkvillechamber.org,630-553-4357,http://yorkville.il.us/585/Farmers-Market,,,,,,,"S. Bridge St. at S. Main St. Yorkville, IL 60560",Illinois,Yorkville,S. Bridge St. at S. Main St.,60560,-88.4491199666863,41.633719998241276,,
farmers market,"Mar 20th, 2023",default-farmersmarket-4-3.jpg,310007,Zion Market Days,,,,847-746-4056,,,,,,,,"Shiloh Blvd Zion, IL 60099",Illinois,Zion,Shiloh Blvd,60099,-87.81738490069871,42.44973280171333,,
farmers market,"May 19th, 2022",farmersmarket_300909_11495_20220520002836.png,300909,MainStreet Libertyville Farmers Market,"We are the oldest farmers market in Lake County, Illinois.  We are a traditional farmers market that only sells food products grown or made by the vendor, and we have great vendors with a very wide variety of products.",Al Scott,al@mainstreetlibertyville.org,8476800336,http://www.libertyvillefarmersmarket.org,https://www.facebook.com/Libertyville-Farmers-Market-166588080019691,,,,,,"413 N Milwaukee Ave, Liberytville , Illinois 60048",Illinois,Liberytville,413 N Milwaukee Ave,60048,-87.954744,42.287242,June to October,"Fresh fruits, Fresh vegetables, Baked goods, Bedding plants, Canned or preserved fruits/vegetables, Coffee/tea, Cut flowers, Dairy products., Eggs, Fish/seafood, Fresh/dried herbs, Honey, Juices/non-alcoholic ciders, Mushrooms, Nuts, Pet food, Poultry/fowl meat and products, Prepared foods, Red/other non-poultry meat and products, Soap/body care products"
farmers market,"May 4th, 2021",default-farmersmarket-4-3.jpg,301503,Pontiac Farmers' Market,,Mary Jones,mary.jones@pontiac.org,815-844-3396,https://downtownpontiacil.com/farmers-market-about/,https://www.facebook.com/pontiac.farmers.market/,,,,,,"Pontiac, Illinois 61764",Illinois,Pontiac,,61764,-88.629562,40.880177,June to August,"Fresh fruits, Fresh vegetables, Baked goods, Crafts/woodworking items, Cut flowers, Fresh/dried herbs, Soap/body care products"
farmers market,"Nov 16th, 2021",default-farmersmarket-4-3.jpg,301608,Downtown Evanston Farmers Market,,Myra Gorman,Mgorman@cityofevanston.org,8474488045,Cityofevanston.org/farmersmarket,Evanston markets,,,,,,"University Place at Oak Street, Evanston, Illinois 60201",Illinois,Evanston,University Place at Oak Street,60201,-87.686152,42.050620,May to November,"Fresh fruits, Fresh vegetables, Baked goods, Bedding plants, Canned or preserved fruits/vegetables, Coffee/tea, Cut flowers, Dairy products., Eggs, Fresh/dried herbs, Honey, Maple products, Mushrooms, Nursery stock, Poultry/fowl meat and products, Prepared foods, Red/other non-poultry meat and products, Soap/body care products, Tofu/non-animal protein"
farmers market,"Sep 10th, 2020",default-farmersmarket-4-3.jpg,300004,The Territory Farmers' Market,,Emily Lubcke,elubcke@thegalenaterritory.com,815-777-2000,,www.facebook.com/TheTerritoryFarmersMarket,,,,,,"2000 Territory Drive, Galena, Illinois 61036",Illinois,Galena,2000 Territory Drive,61036,-90.313530,42.404443,July,"Fresh fruits, Fresh vegetables, Baked goods, Canned or preserved fruits/vegetables, Crafts/woodworking items, Eggs, Fresh/dried herbs, Honey, Mushrooms"
farmers market,"Sep 10th, 2020",default-farmersmarket-4-3.jpg,300280,Homewood Farmers Market,,Kate Duff,farmersmarket@homesweethomewood.com,(708) 798-3000,www.homesweethomewood.com,https://www.facebook.com/VillageofHomewood,,,,,,"Martin Ave and Chestnut Rd, Homewood, Illinois 60430",Illinois,Homewood,Martin Ave and Chestnut Rd,60430,-87.666231,41.562264,June to October,"Fresh fruits, Fresh vegetables, Baked goods, Bedding plants, Canned or preserved fruits/vegetables, Coffee/tea, Crafts/woodworking items, Cut flowers, Dairy products., Fresh/dried herbs, Honey, Juices/non-alcoholic ciders, Mushrooms, Prepared foods, Soap/body care products, Wine, spirits, beer, hard cider"
farmers market,"Sep 11th, 2020",default-farmersmarket-4-3.jpg,300458,Low-Line Market at Southport,,Sierra,lowlinemarket@lakeviewchamber.com,773-472-7171 ext 105,www.lowlinemarket.com,https://www.facebook.com/LowLineMarket,,,,,,"3410 N Southport Ave, Chicago, Illinois 60657",Illinois,Chicago,3410 N Southport Ave,60657,-87.664233,41.9438160,June to October,"Fresh fruits, Fresh vegetables, Baked goods, Canned or preserved fruits/vegetables, Coffee/tea, Cut flowers, Dairy products., Eggs, Honey, Mushrooms, Nuts, Poultry/fowl meat and products, Red/other non-poultry meat and products, Wild harvested forest products"
farmers market,"Sep 22nd, 2021",default-farmersmarket-4-3.jpg,301600,QC Farmers' Market,,ian forslund,madfarmersgarden@gmail.com,309-799-8050,http://www.qcfarmersmarket.online,http://www.facebook.com/qcfarmersmarket,,,,,,"1700 1st ave, Rock Island, Illinois 61201",Illinois,Rock Island,1700 1st ave,61201,-90.576384,41.512780,March to December,"Fresh fruits, Fresh vegetables, Baked goods, Bedding plants, Canned or preserved fruits/vegetables, Coffee/tea, Crafts/woodworking items, Cut flowers, Dairy products., Fresh/dried herbs, Honey, Mushrooms, Nursery stock, Poultry/fowl meat and products"
on-farm market,"Apr 13th, 2019",default-onfarmmarket-4-3.jpg,701476,Boru Farms,,Jeanne Radke,naimhe1@gmail.com,8152919766,naimhe8.wix.com/borufarm,,,,,,,"8225 Rte 26 N, Freeport, Illinois 61032",Illinois,Freeport,8225 Rte 26 N,61032,-89.634796,42.420707,,
on-farm market,"Apr 22nd, 2020",default-onfarmmarket-4-3.jpg,701518,AMERICAN INDIAN Jone's Applebee's Farming Conglomerate,,Jim Brown,JBrown1979@yahoo.com,202-735-8300,,,,,,,,"5555 Main Street , Chicago , Illinois 60448",Illinois,Chicago,5555 Main Street,60448,-87.681844,41.837551,,
on-farm market,"Apr 23rd, 2022",onfarmmarket_701636_12482_20220424021341.png,701636,Dugosh Farms,,CurtDugosh,dugoshfarms@gmail.com,815-878-2381,,https://www.facebook.com/DugoshFarms1966,,,,,,"1149 1950 East Street, Tiskilwa, Illinois 61368",Illinois,Tiskilwa,1149 1950 East Street,61368,-89.478628,41.313412,,
on-farm market,"Apr 28th, 2016",default-onfarmmarket-4-3.jpg,701332,Gail's Pumpkin Patch,,Gail Apel-Sasse,gail@gailspumpkinpatch.com,217-447-3409,www.gailspumpkinpatch.com,Gail\'s Pumpkin Patch,,,,,,"1709 2000th Avenue, Beason, Illinois 62512",Illinois,Beason,1709 2000th Avenue,62512,-89.222534,40.1649484,,
on-farm market,"Apr 5th, 2017",default-onfarmmarket-4-3.jpg,701401,Willies Honey Company,,Wil Pilipauskas,Wpilipauskas@gmail.com,1-847-373-9148,www.willieshoneyco.com,www.facebook.com/willieshoneycompany,,,,,,", Mchenry, Illinois 60050",Illinois,Mchenry,,60050,-88.266753,42.3333550,,
on-farm market,"Aug 13th, 2014",default-onfarmmarket-4-3.jpg,700221,Stone Home Farm,,Jane Biddle,stonehomefarm@gmail.com,815-440-5556,www.stonehomefarm.com,,,,,,,"1125 Inlet Road, Lee Center, Illinois 61331",Illinois,Lee Center,1125 Inlet Road,61331,-89.276791,41.749031,,
on-farm market,"Aug 13th, 2014",default-onfarmmarket-4-3.jpg,700339,Mulberry Lane Farm,,Helen Aardsma,helen@mulberrylanefarm.com,217-386-2690,www.MulberryLaneFarm.com,,,,,,http://www.mulberrylanefarm.com/journal/index.php,"414 N. Mulberry, Loda, Illinois 60948",Illinois,Loda,414 N. Mulberry,60948,-88.074761,40.524431,,
on-farm market,"Aug 17th, 2016",default-onfarmmarket-4-3.jpg,701368,L&A Family Farms,,Brian Lau,lafamilyfarms@gmail.com,2172753491,www.lafamilyfarms.com,https://www.facebook.com/LAFamilyFarms,https://twitter.com/LAFamilyFarms,,,,,"21661 Staley Rd, Paris, Illinois 61944",Illinois,Paris,21661 Staley Rd,61944,-87.561520,39.512282,,
on-farm market,"Aug 1st, 2014",default-onfarmmarket-4-3.jpg,700782,Country Pond Gardens,,Andy Anderson,garden.countryponds@gmail.com,815-495-9200,,https://www.facebook.com/CountryPondGardens,,,,,,"2190 North 45th Road, Leland, Illinois 60531",Illinois,Leland,2190 North 45th Road,60531,-88.752615,41.587240,,
on-farm market,"Aug 21st, 2014",default-onfarmmarket-4-3.jpg,700869,Lazy J Ranch,,Marianne Jackson,marianne.jackson@usbank.com,2177250414,,https://www.facebook.com/pages/Lazy-J-Ranch-Rochester-IL/170348153012473,,,,,,"9000 Cascade Road, Rochester, Illinois 62563",Illinois,Rochester,9000 Cascade Road,62563,-89.491729,39.6698487,,
on-farm market,"Aug 22nd, 2014",default-onfarmmarket-4-3.jpg,700882,Wolfe Orchard,,RONALD WOLFE,RWOLFE1199@AOL.COM,217-762-8029,,https://www.facebook.com/pages/Wolfe-orchard/199022633503818,,,,,,"1657N 1125E ROAD, MONTICELLO, Illinois 61856",Illinois,MONTICELLO,1657N 1125E ROAD,61856,-88.533594,40.033451,,
on-farm market,"Aug 24th, 2014",default-onfarmmarket-4-3.jpg,700915,Edwards Apple Orchard West,,Kristin Edwards,Kristin@edwardsorchardwest.com,(815)963-2261,http://www.edwardsorchardwest.com/,https://www.facebook.com/EdwardsOrchardWest,,,,,,"8218 Cemetery Rd., Winnebago, Illinois 61088",Illinois,Winnebago,8218 Cemetery Rd.,61088,-89.198967,42.3611260,,
on-farm market,"Aug 25th, 2014",default-onfarmmarket-4-3.jpg,700920,Valley of Beruch,,Christine Mize,imreborn@outlook.com,618-684-2686,,,,,,,,"456 S. Jungle Rd. , Murphysboro, Illinois 62966",Illinois,Murphysboro,456 S. Jungle Rd.,62966,-89.358362,37.7079127,,
on-farm market,"Aug 26th, 2014",default-onfarmmarket-4-3.jpg,700234,Raines Honey Farm,,Phillip Raines,Sales@raineshoneyfarm.com,815-248-3321,www.raineshoneyfarm.com,,,,,,,"16566 BEST ROAD, DAVIS, Illinois 61019",Illinois,DAVIS,16566 BEST ROAD,61019,-89.385226,42.4921300,,
on-farm market,"Aug 26th, 2014",default-onfarmmarket-4-3.jpg,700945,Prairie Sky Orchard,,SueEllen Arndt,r.arndt@sbcglobal.net,815-923-4834,www.prairieskyorchard.com,https://www.facebook.com/prairieskyorchard,,,,,,"4914 N. Union Rd., Union, Illinois 60180",Illinois,Union,4914 N. Union Rd.,60180,-88.539540,42.2576023,,
on-farm market,"Aug 29th, 2014",default-onfarmmarket-4-3.jpg,700568,Country Corner Farm Market & Pumpkin Patch,,Bruce Curry / Owner,info@countrycornerfarm.com,309-629-2359,http://www.country-corner.com,http://wwwfacebook.com/country.corner.pumpkins,,,,,,"5333 U. S. highway 150, Alpha, Illinois 61413",Illinois,Alpha,5333 U. S. highway 150,61413,-90.379105,41.229078,,
on-farm market,"Aug 3rd, 2014",default-onfarmmarket-4-3.jpg,700209,Thornpaw Lea Farm,,Therese Ortloff,Thornpawleafarm@att.net,224 587 8832. or  84,thornpawleafarm.com,,,,,,,"Menge Rd, Marengo, Illinois 60152",Illinois,Marengo,Menge Rd,60152,-88.588697,42.335052,,
on-farm market,"Aug 3rd, 2016",default-onfarmmarket-4-3.jpg,701366,UR Foods Farm,,Danielle Jeter,Urfoodsfarm@gmail.com,815-429-3220,,@urfoodsfarm,,,,,,"2844 US Hwy 24, Sheldon, Illinois 60966",Illinois,Sheldon,2844 US Hwy 24,60966,-87.585997,40.776353,,
on-farm market,"Aug 6th, 2014",default-onfarmmarket-4-3.jpg,700817,Four Sisters Organic Farm,,Richard Kanak,nakr@aol.com,815-505-9962,,https://www.facebook.com/FourSistersOrganicFarm,,,,,,"719 East State Street, Cherry Valley, Illinois 61016",Illinois,Cherry Valley,719 East State Street,61016,-88.946474,42.234871,,
on-farm market,"Dec 28th, 2018",default-onfarmmarket-4-3.jpg,701466,Big Muddy Hogs,,Roger Schuttek,Bigmuddyhogs@gmail.com,618-922-8724,bigmuddyhogs.com,facebook.com/bigmuddyhogs,,,,,,"300 Adams street , Hurst , Illinois 62949",Illinois,Hurst,300 Adams street,62949,-89.141034,37.842598,,
on-farm market,"Feb 12th, 2022",default-onfarmmarket-4-3.jpg,701633,Rancho Los Nunez,,Lorena Isais,lorena.isais@yahoo.com,7082504143,"13218 E 2260 S Rd Pembroke Township, IL",https://www.facebook.com/ElRanchoLosNunez/,,,,,,"13218 E 2260 S Rd Pembroke Township, IL, Pembroke Township, Illinois 60958",Illinois,Pembroke Township,"13218 E 2260 S Rd Pembroke Township, IL",60958,-87.615118,41.093034,,
on-farm market,"Feb 23rd, 2022",default-onfarmmarket-4-3.jpg,701639,Navarro Farm,,Damion Navarro,hello@navarrofarm.org,8152702010,https://www.navarrofarm.org/,https://www.facebook.com/navarrofarm.org/,,,,,,"22155 S.104th Ave., Frankfort, Illinois 60423",Illinois,Frankfort,22155 S.104th Ave.,60423,-87.867562,41.487597,,
on-farm market,"Feb 6th, 2015",default-onfarmmarket-4-3.jpg,701206,"Larson's Country Market, Inc.",,Brenda Larson,brenda@larsonscountrymarket.com,815-495-2500,www.larsonscountrymarket.com,,,,,,,"1968 E. U.S. Route 34, Leland, Illinois 60531",Illinois,Leland,1968 E. U.S. Route 34,60531,-88.794440,41.5901247,,
on-farm market,"Jan 16th, 2020",default-onfarmmarket-4-3.jpg,701498,3 Winds Farm,,Nicoele Arseneau and Bill Belluso,3windsfarm@gmail.com,815-616-9786,www.3windsfarm.com,http://facebook.com/3windsfarm/,,,,,,"10769 N 1500W Rd, Manteno, Illinois 60950",Illinois,Manteno,10769 N 1500W Rd,60950,-87.906847,41.276258,,
on-farm market,"Jan 25th, 2015",default-onfarmmarket-4-3.jpg,701198,Radical Root Organic Farm,,Alex Needham,radicalrootfarm@gmail.com,8153265857,radicalrootfarm@gmail.com,,,,,,,"31330 N IL RT 21, Libertyville, Illinois 60048",Illinois,Libertyville,31330 N IL RT 21,60048,-87.963093,42.317570,,
on-farm market,"Jul 23rd, 2014",default-onfarmmarket-4-3.jpg,700250,Crandall Farms,,Phil Crandall,pcrandall@crandallfarms.com,309-799-7420,www.crandallfarms.com,www.facebook.com/crandallfarms,www.twitter.com/crandallfarms,,,,,"10905 104th Street, Coal Valley, Illinois 61240",Illinois,Coal Valley,10905 104th Street,61240,-90.467718,41.4102820,,
on-farm market,"Jul 26th, 2014",default-onfarmmarket-4-3.jpg,700254,Grace Farm Studios,,Mike Owney,owney@gracefarmstudios.com,815-790-8895,http://gracefarmstudios.com,,,,,,,"2719 Franklinville Rd., Woodstock, Illinois 60098",Illinois,Woodstock,2719 Franklinville Rd.,60098,-88.511932,42.2887090,,
on-farm market,"Jul 26th, 2014",default-onfarmmarket-4-3.jpg,700427,Wishful Acres Farm,,,wishfulacres@gmail.com,815-990-2380,,,,,,,,"4679 N Flansburg Rd, Lena, Illinois 61032",Illinois,Lena,4679 N Flansburg Rd,61032,-89.729949,42.3677057,,
on-farm market,"Jul 26th, 2014",default-onfarmmarket-4-3.jpg,700555,Royal Oak Farm Orchard,,Dennis Norton,service@royaloakfarmorchard.com,815-648-4141,http://www.royaloakfarmorchard.com/,https://www.facebook.com/royaloakfarmorchard,https://twitter.com/RoyalOakFarmIL,,,,http://www.royaloakfarmorchard.blogspot.com/,"15908 Hebron Road, Harvard, Illinois 60033",Illinois,Harvard,15908 Hebron Road,60033,-88.507943,42.4795576,,
on-farm market,"Jul 26th, 2014",default-onfarmmarket-4-3.jpg,700739,Curtis Orchard & Pumpkin Patch,,,info@curtisorchard.com,217-359-5565,www.curtisorchard.com,www.facebook.com/curtisorchard,www.twitter.com/curtisorchard,,,,,"3902 S Duncan Rd, Champaign, Illinois 61822",Illinois,Champaign,3902 S Duncan Rd,61822,-88.294979,40.0639050,,
on-farm market,"Jul 30th, 2014",default-onfarmmarket-4-3.jpg,700666,McNitt Growers,,Andy McNitt,mcnittgrowers@gmail.com,618 687 3563,www.mcnittgrowers.com,https://www.facebook.com/pages/McNitt-Growers/142603839118969,https://twitter.com/AndyMcNitt,,,,,"78 Oak Ridge Lane, Carbondale, Illinois 62903",Illinois,Carbondale,78 Oak Ridge Lane,62903,-89.312474,37.683242,,
on-farm market,"Jul 6th, 2020",default-onfarmmarket-4-3.jpg,701535,Berkowski Family Farm LLC,,Sarah Berkowski,bffpoultry@gmail.com,8152164125,www.bffpoultry.com,facebook.com/bffpoultry,twitter.com/bffpoultry,,,,,"9432 E Scott Rd, Stillman Valley, Illinois 61084",Illinois,Stillman Valley,9432 E Scott Rd,61084,-89.159240,42.137549,,
on-farm market,"Jun 10th, 2020",default-onfarmmarket-4-3.jpg,701525,Hilton Farms Rooted,,Lisa Hilton,lnhilton89@gmail.com,8159852186,https://hiltonrooted.com/,Www.facebook.com/HiltonFarms5,,,,,,"2620 s spielman rd, Pecatonica, Illinois 61063",Illinois,Pecatonica,2620 s spielman rd,61063,-89.357212,42.309059,,
on-farm market,"Mar 19th, 2015",default-onfarmmarket-4-3.jpg,701164,"Sunrise Market Farm, Inc.",,Jan Thornton,thornton.sunrisemarket@gmail.com,815-334-0332,http://sunrisemarketfarm.com/index.html,https://www.facebook.com/pages/Sunrise-Market-Farm/240248702703552,,,,,,"2820 Yale Bridge Road, South Beloit, Illinois 61080",Illinois,South Beloit,2820 Yale Bridge Road,61080,-89.095039,42.4763920,,
on-farm market,"Mar 23rd, 2015",default-onfarmmarket-4-3.jpg,700531,Tammen Treeberry Farm,,Bruce Tammen,btammen@tammentreeberryfarm.net,815-458-6264,www.tammentreeberryfarm.net,www.facebook.com/tammentreeberryfarm,,,,,,"37131 Essex Road, Wilmington, Illinois 60481",Illinois,Wilmington,37131 Essex Road,60481,-88.199733,41.207105,,
on-farm market,"Mar 23rd, 2015",default-onfarmmarket-4-3.jpg,700749,All Seasons Orchard,,Esther hong,info@allseasonsorchard.com,815-338-5637,www.allseasonsorchard.com,,,,,,,"14510 Il Route 176, Woodstock, Illinois 60098",Illinois,Woodstock,14510 Il Route 176,60098,-88.478504,42.255422,,
on-farm market,"Mar 23rd, 2015",default-onfarmmarket-4-3.jpg,700860,Voss Pecans,,Voss Pecans,vosspecans@hotmail.com,618-594-4122,www.vosspecans,,,,,,,"10101 Slant Road, Carlyle, Illinois 62231",Illinois,Carlyle,10101 Slant Road,62231,-89.418563,38.564629,,
on-farm market,"Mar 23rd, 2015",default-onfarmmarket-4-3.jpg,701227,Gorman Farm Fresh Produce,,Molly Gorman,info@gormanFarmfreshproduce.com,708.534.2375,www.gormanfarmfreshproduce.com,Gorman Farm Fresh Produce,,,,,,"6607 West Bruns Road, Monee, Illinois 60449",Illinois,Monee,6607 West Bruns Road,60449,-87.771681,41.412203,,
on-farm market,"Mar 24th, 2015",default-onfarmmarket-4-3.jpg,700493,Didier Farms,,Barbara Didier,didierfarms@didierfarms.com,847-634-3291,www.didierfarms.com,https://www.facebook.com/pages/Didier-Farms/120890817921408,,,,,,"16678 West Aptakisic Road, Prairie View-Lincolnshire, Illinois 60069",Illinois,Prairie View-Lincolnshire,16678 West Aptakisic Road,60069,-87.961392,42.182538,,
on-farm market,"Mar 25th, 2015",default-onfarmmarket-4-3.jpg,700716,Liberty Apple Orchard,,Stephen L. Miller,j5fourj@att.net,618-659-9217,www.libertyappleorchard.com,libertyappleorchard,,,,,,"8308 Kuhn Station Road, Edwardsville, Illinois 62025",Illinois,Edwardsville,8308 Kuhn Station Road,62025,-89.878831,38.781031,,
on-farm market,"Mar 28th, 2017",default-onfarmmarket-4-3.jpg,701400,PCC Austin Farm,,Lucia Flores,LFlores@pccwellness.org,708-524-7685,http://www.pccwellness.org/produce-market,,,,,,,"330 N. Lotus, Chicago, Illinois 60644",Illinois,Chicago,330 N. Lotus,60644,-87.762193,41.8867310,,
on-farm market,"Mar 5th, 2016",default-onfarmmarket-4-3.jpg,701319,Madoli Farms,,Keith Roth,madolifarms@gmail.com,815-353-7949,http://www.madolifarms.com/,https://www.facebook.com/Madoli-Farms-1627836294122004/,,,,,,"2109 S. Country Club Rd, Woodstock, Illinois 60098",Illinois,Woodstock,2109 S. Country Club Rd,60098,-88.374208,42.2981305,,
on-farm market,"May 31st, 2018",default-onfarmmarket-4-3.jpg,701453,Growing Home Inc,,Growing Home,rhowarth@growinghomeinc.org,7734347144,http://growinghomeinc.org/,https://www.facebook.com/growinghomeinc,https://twitter.com/growinghome,,,,,"5814 S Wood St, Chicago, Illinois 60636",Illinois,Chicago,5814 S Wood St,60636,-87.669498,41.7880123,,
on-farm market,"May 4th, 2016",default-onfarmmarket-4-3.jpg,701335,Natural Environments Greenhouses and Nursery,,Robert Boyce,natural1960@msn.com,847-438-5315,www.robertcboyce.com,https://www.facebook.com/naturalenvironments/,,,,,,"23520 Old McHenry Road, Lake Zurich, Illinois 60047",Illinois,Lake Zurich,23520 Old McHenry Road,60047,-88.027481,42.204813,,
on-farm market,"May 5th, 2018",default-onfarmmarket-4-3.jpg,701452,Eden Place Farms,,Michael Howard,Michaelhow@msn.com,7736248222,www.edenplacefarms.org,,,,,,,"4911 S Shields Ave, Chicago, Illinois 60609",Illinois,Chicago,4911 S Shields Ave,60609,-87.634211,41.804878,,
on-farm market,"Nov 10th, 2017",default-onfarmmarket-4-3.jpg,701432,Mills Apple Farm,,Sherry Chase,sherry@millsapplefarm.com,618-887-4732,www.millsapplefarm.com,https://www.facebook.com/millsapplefarm,,,,,,"11477 Pocahontas Road, Marine, Illinois 62061",Illinois,Marine,11477 Pocahontas Road,62061,-89.732850,38.816176,,
on-farm market,"Nov 21st, 2018",default-onfarmmarket-4-3.jpg,701463,Northland Farms,,Jay Book,northland.book@gmail.com,(815) 564-8546,https://www.northlandfarms.net/,https://www.facebook.com/Northland-Farms-285324654864419/,https://twitter.com/NorthlandFarms,,,,,"31095 Penrose Rd., Sterling, Illinois 61081",Illinois,Sterling,31095 Penrose Rd.,61081,-89.645912,41.887211,,
on-farm market,"Nov 23rd, 2018",default-onfarmmarket-4-3.jpg,701465,J N' J Cattle Co.,,Joseph Wieseman,jnjcattle@live.com,(618)779-2741,,www.facebook.com/jnjcattle,,,,,,"8354 DUSTMAN RD, WORDEN, Illinois 62097",Illinois,WORDEN,8354 DUSTMAN RD,62097,-89.881669,38.960479,,
on-farm market,"Nov 28th, 2021",default-onfarmmarket-4-3.jpg,701623,Hempstock Pharms,,Stacy McCaskill,stacy@hempstockpharms.com,630-301-2010,www.hempstockpharms.com,,,,,,,"14023 West South Street Rd., Woodstock , Illinois 60098",Illinois,Woodstock,14023 West South Street Rd.,60098,-88.471650,42.302592,,
on-farm market,"Oct 1st, 2014",default-onfarmmarket-4-3.jpg,701115,Cow Creek Farm,,Rita Glazik,cowcreekfarm@gmail.com,217-841-4466,http://www.cowcreekorganicfarm.com/,https://www.facebook.com/cowcreekorganics,,,,,,"2112 E 100 N Rd, Paxton, Illinois 60957",Illinois,Paxton,2112 E 100 N Rd,60957,-88.057094,40.414803,,
on-farm market,"Oct 21st, 2014",default-onfarmmarket-4-3.jpg,700441,Hazel Creek Vineyard,,Vonda Miller,vonda.miller1@gmail.com,815-499-5229,,Hazel Creek Vineyard,,,,,,"23060 Hazel Road, Sterling, Illinois 61081",Illinois,Sterling,23060 Hazel Road,61081,-89.815149,41.816303,,
on-farm market,"Sep 10th, 2014",default-onfarmmarket-4-3.jpg,701051,"Fox River Farm, LLC",,F. W. Lutz,fwlutz@foxriverfarm.net,6187809484,www.foxriverfarm.net,facebook.com/foxriverfarm,https://www.twitter.com/foxriverfarm,,,,,"6091 Pope Road, Sandoval, Illinois 62882",Illinois,Sandoval,6091 Pope Road,62882,-89.123443,38.6931883,,
on-farm market,"Sep 29th, 2014",default-onfarmmarket-4-3.jpg,701106,Homestead Harvests LLC,,Eric Marshall,eric5899@yahoo.com,3092877933,,https://www.facebook.com/HomesteadHarvests,,,,,,"14861 Enterprise Road, Heyworth, Illinois 61745",Illinois,Heyworth,14861 Enterprise Road,61745,-88.901989,40.265904,,
on-farm market,"Sep 3rd, 2014",default-onfarmmarket-4-3.jpg,700443,Bronkberry Farms,,,veen77@sbcglobal.net,815-436-6967,www.bronkberryfarms.com,Bronkberry Farms,,,,,,"18061 S. Bronk Road, Plainfield, Illinois 60586",Illinois,Plainfield,18061 S. Bronk Road,60586,-88.189393,41.554524,,
on-farm market,"Sep 5th, 2014",default-onfarmmarket-4-3.jpg,700726,Rendleman Orchards Farm Market,,Betty Sirles,info@rendlemanorchards.com,618-893-2771,www.rendlemanorchards.com,RendlemanOrchards,,,,,,"9680 State Route 127 North P. O. Box 159, Alto Pass, Illinois 62905",Illinois,Alto Pass,9680 State Route 127 North P. O. Box 159,62905,-89.321599,37.5963693,,
