Type,ModifyDate,Image,ListingID,Name,Description,ContactName,ContactEmail,ContactPhone,Website,Facebook,Twitter,Instagram,Pinterest,Youtube,Blog,Address,State,City,Street,Zip,Longitude,Latitude,Dates,Products
farmers market,"Apr 14th, 2022",farmersmarket_301688_69_20220414134828.png,301688,FRESHFARM Arlington Market,"FRESHFARM is a nonprofit based in Washington, DC, that works to create a more resilient, equitable, and sustainable food future. For 25 years, we have operated producer-only farmers markets in DC, Maryland, and Virginia. Our farmers market network is the third-largest in the country and the largest in the Mid-Atlantic region, providing economic opportunity to a network of 250 Mid-Atlantic farmers and producers and a community space to restore the vital connections in our local food systems.",FRESHFARM Markets,markets@ffm.org,,https://www.freshfarm.org/,https://www.facebook.com/freshfarmdc/,https://twitter.com/FRESHFARMDC,https://www.instagram.com/freshfarmdc/,,https://www.freshfarm.org/blog,,"1400 N Courthouse Rd, Arlington, VA 22201, USA",Virginia,Arlington,1400 North Courthouse Road,22201,-77.0840474,38.88975529999999,Year-round,"Fresh fruits, Fresh vegetables, Baked goods, Canned or preserved fruits/vegetables, Coffee/tea, Cut flowers, Dairy products., Eggs, Fish/seafood, Fresh/dried herbs, Juices/non-alcoholic ciders, Mushrooms, Pet food, Poultry/fowl meat and products, Prepared foods, Red/other non-poultry meat and products"
farmers market,"Apr 15th, 2022",farmersmarket_301262_11221_20220415153505.png,301262,Dorey Park Farmers Market,"The Dorey Park Farmers Market's mission is to provide all citizens with easy access to fresh and nutritious local produce, and other high quality products produced by local farms and small businesses.  We encourage and support local growers, farmers and other producers as well as promote equitable food access, good health & nutrition, environmental stewardship and agriculture education through community outreach efforts.  We believe that these principles will ultimately build a greater community. ",Cappie Montgomery,cappie@doreyparkfarmersmarket.org,804-314-9739,www.doreyparkfarmersmarket.org,https://www.facebook.com/doreyparkfarmersmarket/?ref=bookmarks,,https://www.instagram.com/doreyfarmersmarket/,,,,"2999 Darbytown Road, Henrico, Virginia 23231",Virginia,Henrico,2999 Darbytown Road,23231,-77.405887,37.5380571,June to October,"Fresh fruits, Fresh vegetables, Baked goods, Bedding plants, Canned or preserved fruits/vegetables, Coffee/tea, Crafts/woodworking items, Cut flowers, Dairy products., Eggs, Fresh/dried herbs, Honey, Juices/non-alcoholic ciders, Mushrooms, Pet food, Poultry/fowl meat and products, Prepared foods, Red/other non-poultry meat and products, Soap/body care products, Wild harvested forest products"
farmers market,"Apr 18th, 2022",farmersmarket_301693_69_20220414140359.png,301693,FRESHFARM Ballston Market,"FRESHFARM is a nonprofit based in Washington, DC, that works to create a more resilient, equitable, and sustainable food future. For 25 years, we have operated producer-only farmers markets in DC, Maryland, and Virginia. Our farmers market network is the third-largest in the country and the largest in the Mid-Atlantic region, providing economic opportunity to a network of 250 Mid-Atlantic farmers and producers and a community space to restore the vital connections in our local food systems.",FRESHFARM Markets,markets@ffm.org,,https://www.freshfarm.org/,https://www.facebook.com/freshfarmdc/,https://twitter.com/FRESHFARMDC,https://www.instagram.com/freshfarmdc/,,,,"901 N Taylor St Arlington, VA 22203",Virginia,Arlington,901 N Taylor St,22203,-77.1143336,38.8812448,04/07/2022 to 11/17/2022,"Fresh fruits, Fresh vegetables, Baked goods, Coffee/tea, Dairy products., Eggs, Poultry/fowl meat and products, Prepared foods"
farmers market,"Apr 18th, 2022",farmersmarket_301707_69_20220418170047.png,301707,FRESHFARM Mosaic (Sunday),"FRESHFARM is a nonprofit based in Washington, DC, that works to create a more resilient, equitable, and sustainable food future. For 25 years, we have operated producer-only farmers markets in DC, Maryland, and Virginia. Our farmers market network is the third-largest in the country and the largest in the Mid-Atlantic region, providing economic opportunity to a network of 250 Mid-Atlantic farmers and producers and a community space to restore the vital connections in our local food systems.",FRESHFARM Markets,markets@ffm.org,,https://www.freshfarm.org/,https://www.facebook.com/freshfarmdc/,https://twitter.com/FRESHFARMDC,https://www.instagram.com/freshfarmdc/,,,,"2920 District Ave, Fairfax, VA 22031, USA",Virginia,Fairfax,2920 District Avenue,22031,-77.2307258,38.8714011,Year-round,"Fresh fruits, Fresh vegetables, Baked goods, Eggs, Fish/seafood, Juices/non-alcoholic ciders, Mushrooms, Poultry/fowl meat and products, Prepared foods, Red/other non-poultry meat and products, Soap/body care products, Wine, spirits, beer, hard cider"
farmers market,"Apr 18th, 2022",farmersmarket_301710_69_20220418175231.png,301710,FRESHFARM Oakton,"FRESHFARM is a nonprofit based in Washington, DC, that works to create a more resilient, equitable, and sustainable food future. For 25 years, we have operated producer-only farmers markets in DC, Maryland, and Virginia. Our farmers market network is the third-largest in the country and the largest in the Mid-Atlantic region, providing economic opportunity to a network of 250 Mid-Atlantic farmers and producers and a community space to restore the vital connections in our local food systems.",FRESHFARM Markets,markets@ffm.org,,https://www.freshfarm.org/,https://www.facebook.com/freshfarmdc/,https://twitter.com/FRESHFARMDC,https://www.instagram.com/freshfarmdc/,,,,"2951 Chain Bridge Rd, Oakton, VA 22124, USA",Virginia,Oakton,2951 Chain Bridge Road,22124,-77.3013443,38.880203,Year-round,"Fresh fruits, Fresh vegetables, Juices/non-alcoholic ciders, Prepared foods, Red/other non-poultry meat and products"
farmers market,"Apr 18th, 2022",farmersmarket_301712_69_20220418181202.png,301712,FRESHFARM Reston,"FRESHFARM is a nonprofit based in Washington, DC, that works to create a more resilient, equitable, and sustainable food future. For 25 years, we have operated producer-only farmers markets in DC, Maryland, and Virginia. Our farmers market network is the third-largest in the country and the largest in the Mid-Atlantic region, providing economic opportunity to a network of 250 Mid-Atlantic farmers and producers and a community space to restore the vital connections in our local food systems.",FRESHFARM Markets,markets@ffm.org,,https://www.freshfarm.org/,https://www.facebook.com/freshfarmdc/,https://twitter.com/FRESHFARMDC,https://www.instagram.com/freshfarmdc/,,,,"11900 Lawyers Rd, Reston, VA 20191, USA",Virginia,Reston,11900 Lawyers Road,20191,-77.3581045,38.9242303,,
farmers market,"Aug 1st, 2020",default-farmersmarket-4-3.jpg,300483,Huguenot-Robious Farmers Market,,Bonnie Pega,bonnie@greatbiggreenhouse.com,8043201317,greatbiggreenhouse.com,Huguenot-Robious Farmers Market,,,,,,"2051 Huguenot Road, Richmond, Virginia 23236",Virginia,Richmond,2051 Huguenot Road,23236,-77.610398,37.5195160,Year-round,"Fresh fruits, Fresh vegetables, Baked goods, Canned or preserved fruits/vegetables, Crafts/woodworking items, Eggs, Fish/seafood, Fresh/dried herbs, Honey, Pet food, Poultry/fowl meat and products, Prepared foods, Soap/body care products, Wine, spirits, beer, hard cider"
farmers market,"Aug 23rd, 2021",default-farmersmarket-4-3.jpg,301590,Rocky Mount Farmers Market,,Paul Cauley,farmersmarket@rockymountva.org,540-488-2023,,,,,,,,"435 Franklin St, Rocky Mount, Virginia 24151",Virginia,Rocky Mount,435 Franklin St,24151,-79.888073,36.994866,April to December,"Fresh fruits, Fresh vegetables, Baked goods, Bedding plants, Canned or preserved fruits/vegetables, Crafts/woodworking items, Dairy products., Eggs, Honey, Juices/non-alcoholic ciders, Poultry/fowl meat and products, Prepared foods, Red/other non-poultry meat and products, Soap/body care products"
farmers market,"Aug 7th, 2020",default-farmersmarket-4-3.jpg,301216,NOVA Central Farm Market,,Debra Moser,debrajmoser@yahoo.com,3017756402,centralfarmmarkets.com,https://www.facebook.com/CentralFarmMarkets/,@CentralFarmMkts,,,,,"543 Beulah Road, Vienna, Virginia 22180",Virginia,Vienna,543 Beulah Road,22180,-77.264712,38.915538,April to December,"Fresh fruits, Fresh vegetables, Baked goods, Canned or preserved fruits/vegetables, Coffee/tea, Cut flowers, Dairy products., Eggs, Fish/seafood, Grains/flour, Honey, Mushrooms, Nuts, Poultry/fowl meat and products, Prepared foods, Red/other non-poultry meat and products, Soap/body care products, Wild harvested forest products"
farmers market,"Feb 1st, 2021",default-farmersmarket-4-3.jpg,300469,Grandin Village Farmers Market,,Sam Lev,markets@leapforlocalfood.org,540-632-1360,www.leapforlocalfood.org/grandin,facebook.com/grandinvillagecommunitymarket,@leapforlocal,,,,,"2080 Westover Ave SW, Roanoke, Virginia 24015",Virginia,Roanoke,2080 Westover Ave SW,24015,-79.978064,37.265053,April to November,"Fresh fruits, Fresh vegetables, Baked goods, Bedding plants, Canned or preserved fruits/vegetables, Coffee/tea, Crafts/woodworking items, Cut flowers, Dairy products., Dry beans, Eggs, Fish/seafood, Fresh/dried herbs, Grains/flour, Honey, Juices/non-alcoholic ciders, Maple products, Mushrooms, Nursery stock, Nuts, Pet food, Poultry/fowl meat and products, Prepared foods, Red/other non-poultry meat and products, Soap/body care products, Wild harvested forest products"
farmers market,"Feb 9th, 2022",default-farmersmarket-4-3.jpg,301210,Waynesboro Farmers Market,,Georgia Meyer,markets@projectgrows.org,651-356-2410,https://www.projectgrows.org,https://www.facebook.com/WboroFM/,,,,,,"215 McElroy St., Waynesboro, Virginia 22980",Virginia,Waynesboro,215 McElroy St.,22980,-78.885734,38.068559,May to October,"Fresh fruits, Fresh vegetables, Baked goods, Bedding plants, Canned or preserved fruits/vegetables, Coffee/tea, Cut flowers, Dairy products., Eggs, Fresh/dried herbs, Grains/flour, Honey, Mushrooms, Poultry/fowl meat and products, Red/other non-poultry meat and products, Soap/body care products"
farmers market,"Feb 9th, 2022",default-farmersmarket-4-3.jpg,301211,Verona Farmers Market,,Georgia Meyer,markets@projectgrows.org,651-356-2410,https://www.projectgrows.org/food-access/north-augusta-farmers-market/,https://www.facebook.com/NAFarmMarket/?ref=bookmarks,,,,,,"18 Gov Center Ln, Verona, Virginia 24482",Virginia,Verona,18 Gov Center Ln,24482,-79.010219,38.193744,May to October,"Fresh fruits, Fresh vegetables, Baked goods, Bedding plants, Canned or preserved fruits/vegetables, Coffee/tea, Cut flowers, Eggs, Fresh/dried herbs, Honey, Red/other non-poultry meat and products"
farmers market,"Jan 26th, 2021",default-farmersmarket-4-3.jpg,300024,Forest farmers market,,Dorothy McIntyre,forestfarmersmarket221@gmail.com,434-665-5475,www.forestfarmersmarket.com,https://www.facebook.com/pages/Forest-farmers-market/193117547377111,https://twitter.com/FFM221,,,,,"15583 Forest Road, Forest, Virginia 24551",Virginia,Forest,15583 Forest Road,24551,-79.285443,37.3643700,April to October,"Fresh fruits, Fresh vegetables, Baked goods, Canned or preserved fruits/vegetables, Coffee/tea, Crafts/woodworking items, Cut flowers, Dairy products., Eggs, Fish/seafood, Fresh/dried herbs, Honey, Mushrooms, Poultry/fowl meat and products, Prepared foods, Red/other non-poultry meat and products, Soap/body care products"
farmers market,"Jan 26th, 2021",default-farmersmarket-4-3.jpg,300044,Halifax Market Place & Farmers Market,,Denise Barksdale,townoffice@townofhalifax.com,434-476-2343,www.townofhalifax.com,https://www.facebook.com/halifaxmarketplace,,,,,,"209 South Main Street, Halifax, Virginia 24558",Virginia,Halifax,209 South Main Street,24558,-78.92836,36.76317,Year-round,"Fresh fruits, Fresh vegetables, Baked goods, Canned or preserved fruits/vegetables, Crafts/woodworking items, Dry beans, Eggs, Fresh/dried herbs, Grains/flour, Honey, Maple products, Nuts, Poultry/fowl meat and products, Prepared foods, Soap/body care products, Wild harvested forest products"
farmers market,"Jan 26th, 2021",default-farmersmarket-4-3.jpg,300156,Salem Farmers Market,,Market Manager,farmersmarket@salemva.gov,540-375-4098,market.salemva.gov,https://www.facebook.com/SalemVaMarket,https://twitter.com/SalemVaMarket,,,,,"3 East Main Street, Salem, Virginia 24153",Virginia,Salem,3 East Main Street,24153,-80.058606,37.292997,April to December,"Fresh vegetables, Baked goods, Eggs, Honey, Maple products, Red/other non-poultry meat and products"
farmers market,"Jan 26th, 2021",default-farmersmarket-4-3.jpg,300397,Suffolk Farmers' Market,,Daniel McDonald,visitsuffolk@suffolkva.us,757-514-4130,http://www.suffolkvafarmersmarket.com/,https://www.facebook.com/SuffolkFarmersMarketVirginia/,,,,,,"524 N. Main Street, Suffolk, Virginia 23434",Virginia,Suffolk,524 N. Main Street,23434,-76.581989,36.737572,May to November,"Fresh fruits, Fresh vegetables, Baked goods, Bedding plants, Canned or preserved fruits/vegetables, Coffee/tea, Crafts/woodworking items, Cut flowers, Dairy products., Eggs, Fish/seafood, Fresh/dried herbs, Honey, Mushrooms, Nursery stock, Poultry/fowl meat and products, Prepared foods, Red/other non-poultry meat and products, Soap/body care products"
farmers market,"Jan 27th, 2021",default-farmersmarket-4-3.jpg,300312,Abingdon Farmers Market,,David McLeish,abingdonmarket@gmail.com,276-698-1434,www.abingdonfarmersmarket.com,https://www.facebook.com/abingdonfarmersmarket,,,,,,"Corner of Remsburg Drive & Cummings St, Abingdon , Virginia 24212",Virginia,Abingdon,Corner of Remsburg Drive & Cummings St,24212,-81.977160,36.708863,,"Fresh fruits, Fresh vegetables, Baked goods, Bedding plants, Canned or preserved fruits/vegetables, Coffee/tea, Crafts/woodworking items, Cut flowers, Dairy products., Dry beans, Eggs, Fresh/dried herbs, Honey, Juices/non-alcoholic ciders, Maple products, Mushrooms, Nuts, Pet food, Poultry/fowl meat and products, Prepared foods, Red/other non-poultry meat and products, Soap/body care products, Wild harvested forest products, Wine, spirits, beer, hard cider"
farmers market,"Jan 5th, 2021",default-farmersmarket-4-3.jpg,301146,Lynchburg Community Market,,Ricky Kowalewski,ricky.kowalewski@lynchburgva.gov,434.455.3962,http://lynchburgcommunitymarket.com/,https://www.facebook.com/LynchburgCommunityMarket/,,,,https://www.youtube.com/channel/UCHqmO3XFRjNe8fhYstITNAA,,"1219 Main St, Lynchburg, Virginia 24504",Virginia,Lynchburg,1219 Main St,24504,-79.140379,37.411517,Year-round,"Fresh fruits, Fresh vegetables, Baked goods, Bedding plants, Canned or preserved fruits/vegetables, Coffee/tea, Crafts/woodworking items, Cut flowers, Dairy products., Eggs, Fish/seafood, Fresh/dried herbs, Grains/flour, Honey, Juices/non-alcoholic ciders, Maple products, Mushrooms, Nursery stock, Poultry/fowl meat and products, Prepared foods, Red/other non-poultry meat and products, Soap/body care products"
farmers market,"Jan 7th, 2021",default-farmersmarket-4-3.jpg,300467,Wytheville Farmers Market,,Joanne McNulty,wythevillefarmersmarket@live.com,276-620-4095,www.wythevillefarmersmarket.com,Wytheville Farmers Market,,,,,,"210 W. Spring Street, Wytheville , Virginia 24368",Virginia,Wytheville,210 W. Spring Street,24368,-81.083367,36.9486397,Year-round,"Fresh fruits, Fresh vegetables, Baked goods, Bedding plants, Canned or preserved fruits/vegetables, Coffee/tea, Crafts/woodworking items, Cut flowers, Dairy products., Eggs, Fresh/dried herbs, Honey, Poultry/fowl meat and products, Prepared foods, Red/other non-poultry meat and products, Soap/body care products"
farmers market,"Jul 16th, 2020",default-farmersmarket-4-3.jpg,300703,RT 639 Farmers Market,,Agostinho Caldeira,rt639marketmanager@gmail.com,7576192233,,https://www.facebook.com/groups/586850535001520,,,,,,"7278 Ladysmith Road Ruther Glen, Virginia 22546",Virginia,Ruther Glen,"7278 Ladysmith Road,",22546,-77.518506,38.016661,May to September,"Fresh fruits, Fresh vegetables, Baked goods, Canned or preserved fruits/vegetables, Coffee/tea, Crafts/woodworking items, Cut flowers, Eggs, Fresh/dried herbs, Honey, Nuts, Pet food, Prepared foods, Red/other non-poultry meat and products"
farmers market,"Jul 16th, 2020",default-farmersmarket-4-3.jpg,300704,King George Farmers Market,,Agostinho Caldeira,kgfarmersmarket@gmail.com,757-619-2233,,@KingGeorgeFarmersMarket,,,,,,"King George Middle School at 8246 Dahlgren Rd,  King George, Virginia 22485",Virginia,King George,8246 Dahlgren Rd,22485,-77.202800,38.276780,April to October,"Fresh fruits, Fresh vegetables, Baked goods, Bedding plants, Canned or preserved fruits/vegetables, Coffee/tea, Crafts/woodworking items, Cut flowers, Eggs, Fish/seafood, Fresh/dried herbs, Honey, Juices/non-alcoholic ciders, Prepared foods, Red/other non-poultry meat and products, Soap/body care products"
farmers market,"Jul 30th, 2020",default-farmersmarket-4-3.jpg,301175,Huguenot-Robious Farmers Market @ The Great Big Greenhouse,,Bonnie Pega,bonnie@greatbiggreenhouse.com,804-320-1317,Great Big Greenhouse.com,Huguenot-Robious Farmers Market,,,,,,"2051 Huguenot Road, Richmond, Virginia 23235",Virginia,Richmond,2051 Huguenot Road,23235,-77.610901,37.519378,Year-round,"Fresh fruits, Fresh vegetables, Baked goods, Canned or preserved fruits/vegetables, Crafts/woodworking items, Eggs, Fish/seafood, Honey, Poultry/fowl meat and products, Prepared foods, Soap/body care products"
farmers market,"Mar 25th, 2021",default-farmersmarket-4-3.jpg,301479,Williamsburg Farmers Market,,Tracy Frey,therner@williamsburgva.gov,7572593768,www.williamsburgfarmersmarket.com,www.facebook.com/williamsburgFM,,,,,,"401 W. Francis Street, Williamsburg, Virginia 23185",Virginia,Williamsburg,401 W. Francis Street,23185,-76.706717,37.269293,April to December,"Fresh fruits, Fresh vegetables, Baked goods, Canned or preserved fruits/vegetables, Coffee/tea, Cut flowers, Dairy products., Eggs, Fish/seafood, Fresh/dried herbs, Honey, Juices/non-alcoholic ciders, Mushrooms, Nuts, Poultry/fowl meat and products, Prepared foods, Red/other non-poultry meat and products, Soap/body care products, Wild harvested forest products, Wine, spirits, beer, hard cider"
farmers market,"Mar 27th, 2023",default-farmersmarket-4-3.jpg,313027,17th Street Farmers' Market,,,nathanaw@ci.richmond.va.us,804-646-0310,http://www.richmondgov.com/FarmersMarket/,https://www.facebook.com/17thStreetFarmersMarket,,,,,,"100 N. 17th St. , Richmond, VA, 23219",Virginia,Richmond,100 N. 17th St.,23219,-77.42763339620122,37.53439183837952,,
farmers market,"Mar 27th, 2023",default-farmersmarket-4-3.jpg,313028,Albemarle Farmers Market,,,,434-531-2733,http://albemarlefarmersmarket.com,http://www.facebook.com/albemarlefarmersmarket,,,,,,"340 Towncenter Lane Charlottesville, VA 22911 Located at the Hollymead Town Center Shopping Center, 340 Towncenter lane, Charlottesville, VA. Plenty of free parking!",Virginia,CHARLOTTESVILLE,340 TOWNCENTER BLVD,22911,-78.44486460648874,38.12727505721097,,
farmers market,"Mar 27th, 2023",default-farmersmarket-4-3.jpg,313029,Alexandria Farmer's Market,,,,703-746-4770,http://www.alexandriava.gov/generalservices/info/default.aspx?id=5468,,,,,,,"301 King Street, City Hall Alexandria, VA 22314",Virginia,ALEXANDRIA,301 KING ST,22314,-77.04262805548994,38.804522936080666,,
farmers market,"Mar 27th, 2023",default-farmersmarket-4-3.jpg,313030,Altavista Farmers' Market,,,Email not found,434-369-5037,http://www.altavistaontrack.com/altavista-events-journal-virginia,,,,,,,"1112 Park St., Trade Lot, Altavista, VA, 24517",Virginia,Altavista,1112 Park St.,24517,-79.28372732730699,37.118530776129376,,
farmers market,"Mar 27th, 2023",default-farmersmarket-4-3.jpg,313031,Annandale Farmers Market,,,FCPAfarmmarkets@fairfaxcounty.gov,703-642-0128,https://www.fairfaxcounty.gov/parks/farmersmarkets/annandale,,,,,,,"6621 Columbia Pike Annandale, VA 22003",Virginia,Annandale,6621 Columbia Pike,22003,-77.17265534844798,38.83683204098893,,
farmers market,"Mar 27th, 2023",default-farmersmarket-4-3.jpg,313032,Appomattox Gallery Farmers Market,,,,434-352-9590,http://www.tourappomattox.com/events.php,,,,,,,"1850 Church Street Appomattox, VA 24522",Virginia,APPOMATTOX,1850 CHURCH ST,24522,-78.82745224501991,37.35276406819598,,
farmers market,"Mar 27th, 2023",default-farmersmarket-4-3.jpg,313033,Archwood Green Barns Farmers' Markets,,,ArchwoodGreenBarns@juno.com,571-330-1855,,https://www.facebook.com/ArchwoodGreenBarnsFarmersMarket,,,,,,"4557 Old Tavern Rd., The Plains, VA, 20198",Virginia,The Plains,4557 Old Tavern Rd.,20198,-77.78547693503212,38.853178401090794,,
farmers market,"Mar 27th, 2023",default-farmersmarket-4-3.jpg,313034,Arlington Farmers Market,,,,202-827-5437,http://www.community-foodworks.org/markets,,,,,,,"1400 North Courthouse Road Arlington, VA 22201",Virginia,Arlington,1400 North Courthouse Road,22201,-77.08370598980659,38.88971650456245,,
farmers market,"Mar 27th, 2023",default-farmersmarket-4-3.jpg,313035,Ballston FRESHFARM Market,,,info@freshfarmmarkets.org,202-362-8889,http://www.freshfarmmarket.org/farmers_markets/markets/ballston.php,,,,,,,"901 N. Taylor St., Welburn Square, Arlington, VA, 22203",Virginia,Arlington,901 N. Taylor St.,22203,-77.11256385342736,38.88107629638413,,
farmers market,"Mar 27th, 2023",default-farmersmarket-4-3.jpg,313036,BEC Farm Market,,,,,http://www.becfarmmarket.com,,,,,,,"1392 chainbridge rd Mclean , VA 22101",Virginia,MCLEAN,1392 CHAIN BRIDGE RD,22101,-77.17599258837674,38.93550054846575,,
farmers market,"Mar 27th, 2023",default-farmersmarket-4-3.jpg,313037,Bedford Farmers Market,,,,,https://instagram.com/bedfordvafarmersmarket,https://facebook.com/mybedfordmarket,,,,,,"220 W Washington St, Bedford, Virginia 24523",Virginia,Bedford,220 W Washington St,24523,-79.52428483366253,37.333560739947885,,
farmers market,"Mar 27th, 2023",default-farmersmarket-4-3.jpg,313038,Bedford VA Farmers' Market,,,,540-494-1078,,https://www.facebook.com/mybedfordmarket,,,,,,"220 West Washington Street Bedford, VA 24523",Virginia,Bedford,220 West Washington Street,24523,-79.52428483366253,37.333560739947885,,
farmers market,"Mar 27th, 2023",default-farmersmarket-4-3.jpg,313039,Birdhouse Farmers Market,,,,,http://www.birdhousefarmersmarket.org/*https://instagram.com/birdhousefarmersmarket*https://twitter.com/BirdhouseMarket,https://facebook.com/birdhousemarket,,,,,,"1507 Grayland Ave, Richmond, Virginia 23220",Virginia,Richmond,1507 Grayland Ave,23220,-77.46116078945415,37.544335571207604,,
farmers market,"Mar 27th, 2023",default-farmersmarket-4-3.jpg,313040,Blacksburg Farmers' Market,,,bbfarmersmarket@gmail.com,540-239-8290,http://www.blacksburgfarmersmarket.com/,https://www.facebook.com/blacksburgfarmersmarket,,,,,,"100 Draper Rd. NW, Blacksburg, VA, 24060",Virginia,Blacksburg,100 Draper Rd. NW,24060,-80.41481834599834,37.22883813809762,,
farmers market,"Mar 27th, 2023",default-farmersmarket-4-3.jpg,313041,Bowling Green Farmers' Market,,,townmanager@townofbowlinggreen.com,804-633-6212,http://www.virginia.org/Listings/Shopping/BowlingGreenFarmersMarket/,,,,,,,"211 Main St., Bowling Green, VA, 22427",Virginia,Bowling Green,211 Main St.,22427,-77.34864159572086,38.05348564885354,,
farmers market,"Mar 27th, 2023",default-farmersmarket-4-3.jpg,313042,Brandermill Green Market,,,bca@brandermill.com,441-035-1004,http://www.brandermill.com/amenities/green-market,,,,,,,"3001 E. Boundry Terrace MIDLOTHIAN, VA 23112",Virginia,MIDLOTHIAN,3001 E. Boundry Terrace,23112,-77.64547353460263,37.44976614411871,,
farmers market,"Mar 27th, 2023",default-farmersmarket-4-3.jpg,313043,Broadway Farmers Market,,,,540-435-3426,https://www.town.broadway.va.us/farmers-market.html?fbclid=IwAR3LIj7dw-lNAAkHwRCT6PN4T3iUeWw18TMQynq,https://www.facebook.com/broadwayfarmmkt,,,,,,"161 S. Main Street Broadway, VA 22815",Virginia,Broadway,161 S. Main Street,22815,-78.79962614694782,38.61251612466546,,
farmers market,"Mar 27th, 2023",default-farmersmarket-4-3.jpg,313044,Broadway VA Farmers Market,,,,,http://www.town.broadway.va.us/farmers-market.asp,http://www.facebook.com/Broadwayfarmersmarket,,,,,,"161 S Main St Broadway, VA 22815",Virginia,BROADWAY,161 S MAIN ST,22815,-78.79962614694782,38.61251612466546,,
farmers market,"Mar 27th, 2023",default-farmersmarket-4-3.jpg,313045,Brookland Park Farmers' Market,,,,,http://renewrichmond.org/popup/,,,,,,,"207 W. Brookland Park Blvd., Richmond, VA, 23222",Virginia,Richmond,207 W. Brookland Park Blvd.,23222,-77.43524210605169,37.571598549989105,,
farmers market,"Mar 27th, 2023",default-farmersmarket-4-3.jpg,313046,Buckland Farm Market,,,,540-341-4739,http://www.bucklandfarmmarket.com,,,,,,,"4484 Lee Highway Warrenton, VA 20187",Virginia,WARRENTON,4484 LEE HWY,20187,-77.69772538034512,38.771526083310654,,
farmers market,"Mar 27th, 2023",default-farmersmarket-4-3.jpg,313047,Buckroe Beach Farmers Market,,,,,,,,,,,,"100 S 1st St, Hampton, Virginia 23664",Virginia,Hampton,100 S 1st St,23664,-76.29079190708858,37.04231849189818,,
farmers market,"Mar 27th, 2023",default-farmersmarket-4-3.jpg,313048,Burke Farmers Market,,,FCPAfarmmarkets@fairfaxcounty.gov,703-642-0128,https://www.fairfaxcounty.gov/parks/farmersmarkets/burke,https://www.facebook.com/burkefarmersmarket,,,,,,"5671 Roberts Pkwy. Burke, VA 22015",Virginia,Burke,5671 Roberts Pkwy.,22015,-77.30227626801181,38.79754044384565,,
farmers market,"Mar 27th, 2023",default-farmersmarket-4-3.jpg,313049,BusFarm Indoor Market,,,farmtofamilyinfo@gmail.com,804-767-8570,http://thefarmbus.com/,https://www.facebook.com/Farm2Family,,,,,,"2817 Mechanicsville Tpk., Richmond, VA, 23223",Virginia,Richmond,2817 Mechanicsville Tpk.,23223,-77.40494975675247,37.56381285365337,,
farmers market,"Mar 27th, 2023",default-farmersmarket-4-3.jpg,313050,Byrd House Market,,,byrdhousemarket@gmail.com,804-643-2717,http://byrdhousemarket.blogspot.com/,https://www.facebook.com/byrdhousemarket,,,,,,"239 S. Linden St., Richmond, VA, 23220",Virginia,Richmond,239 S. Linden St.,23220,-77.45407966954633,37.54393917172261,,
farmers market,"Mar 27th, 2023",default-farmersmarket-4-3.jpg,313051,Cartersville Farm & Art Market,,,manager@rvagriculture.org,804-314-9141,https://www.rvagriculture.org/,https://www.facebook.com/cartersvillefarmandart,,,,,,"2168 Cartersville Road Cartersville, VA 23027",Virginia,Cartersville,2168 Cartersville Road,23027,-78.10131955987747,37.65917438845491,,
farmers market,"Mar 27th, 2023",default-farmersmarket-4-3.jpg,313052,Cascades Farmers Market,,,info@foggymountainpasta.com,540-454-8089,https://www.loudounfarmersmarkets.org/cascades,https://www.facebook.com/CascadesFarmersMarket,,,,,,"21060 Whitfield Place Senior Center Parking Lot Sterling, VA 20165",Virginia,Sterling,21060 Whitfield Place,20165,-77.39529989450104,39.03320414168361,,
farmers market,"Mar 27th, 2023",default-farmersmarket-4-3.jpg,313053,Catawba Valley Farmers Market,,,,540-864-5913,,http://www.facebook.com/catawbavalleyfarmersmarket,,,,,,"4965 Catawba Creek Rd. Catawba, VA 24070 Free on-site parking. Handicap accessible, including restrooms.",Virginia,CATAWBA,4965 CREEK RD,24070,-80.108255305886,37.383185473140756,,
farmers market,"Mar 27th, 2023",default-farmersmarket-4-3.jpg,313054,Cedar Lane Farm Market,,,,540-550-3397,,http://www.facebook.com/Cedarlanefarmllc/,,,,,,"5441 Main St Stephens City, VA 22655 Located inside Stonewall Antiques and Collectibles.",Virginia,STEPHENS CITY,5441 MAIN ST,22655,-78.21907064054561,39.08230556473647,,
farmers market,"Mar 27th, 2023",default-farmersmarket-4-3.jpg,313055,Chesapeake Farmers' Market,,,watsonl@vt.edu,757-382-6348,,https://www.facebook.com/ChesapeakeFarmersMarket,,,,,,"120 Reservation Rd., Chesapeake, VA, 23322",Virginia,Chesapeake,120 Reservation Rd.,23322,-76.24060848001112,36.72075058467604,,
farmers market,"Mar 27th, 2023",default-farmersmarket-4-3.jpg,313056,Chesapeake Farmers' Market - Chesapeake City Park,,,,,http://www.cityofchesapeake.net/Home.htm,,,,,,,"900 Greenbrier Pkwy, Chesapeake, Virginia 23320",Virginia,Chesapeake,900 Greenbrier Pkwy,23320,-76.22488423267255,36.75316137608312,,
farmers market,"Mar 27th, 2023",default-farmersmarket-4-3.jpg,313057,Chesapeake Farmers Marketplace at City Hall,,,u003eprivacy@afternic.com,,https://www.chesapeakefarmersmarketplace.com/,,,,,,,"306 Cedar Road Chesapeake, VA 23322",Virginia,Chesapeake,306 Cedar Road,23322,-76.25004722027866,36.7145800107896,,
farmers market,"Mar 27th, 2023",default-farmersmarket-4-3.jpg,313058,Chesapeake Health Department Farmers' Market,,,,757-382-8650,http://www.vdh.virginia.gov/chesapeake/,,,,,,,"748 Battlefield Blvd. North Chesapeake, VA 23320",Virginia,Chesapeake,748 Battlefield Blvd. North,23320,-76.24496763896828,36.74675432955349,,
farmers market,"Mar 27th, 2023",default-farmersmarket-4-3.jpg,313059,Chesapeake Health Department Wednesday Farmer's Market,,,,,http://www.chesapeake.vdh.virginia.gov,https://facebook.com/ChesapeakeHD,,,,,,"748 N Battlefield Blvd, Chesapeake, Virginia 23320",Virginia,Chesapeake,748 N Battlefield Blvd,23320,-76.24496891978755,36.74675782269698,,
farmers market,"Mar 27th, 2023",default-farmersmarket-4-3.jpg,313060,Chester Farmers' Market,,,njordan236@aol.com,804-337-1351,http://chesterfarmersmarket.com/,https://www.facebook.com/ChesterFarmersMarket,,,,,,"11801 Chester Village Dr., Chester, VA, 23831",Virginia,Chester,11801 Chester Village Dr,23831,-77.44262024965637,37.361184582352664,,
farmers market,"Mar 27th, 2023",default-farmersmarket-4-3.jpg,313061,Chesterfield Berry Farm & Market,,,,804-739-2404,http://www.chesterfieldberryfarm.com,http://www.facebook.com/Chesterfieldberryfarmandmarket,,,,,,"4800 Market Square Ln Midlothian, VA 23112",Virginia,MIDLOTHIAN,4800 MARKET SQUARE LN,23112,-77.63672207236544,37.42486046463499,,
farmers market,"Mar 27th, 2023",default-farmersmarket-4-3.jpg,313062,Chilhowie Farmers' Market,,,chilhowie.henderson@chilhowie.org,276-646-3232,http://www.chilhowie.org/,,,,,,,"325 East Lee Highway Chilhowie, VA 24319",Virginia,Chilhowie,325 East Lee Highway,24319,-81.68024415549768,36.799845584362004,,
farmers market,"Mar 27th, 2023",default-farmersmarket-4-3.jpg,313063,Chincoteague Island Farmers and Artisans Market,,,info@chincoteagueculturalalliance.org,717-495-7155,http://www.chincoteagueculturalalliance.org/,,,,,,,"3015 Ridge Road CHINCOTEAGUE ISLAND, VA 23336",Virginia,CHINCOTEAGUE ISLAND,3015 Ridge Road,23336,-75.39688125460181,37.909648605503335,,
farmers market,"Mar 27th, 2023",default-farmersmarket-4-3.jpg,313064,Chincoteague Island Farmers' Market,,,info@chincoteagueculturalalliance.org,757-894-2512,http://www.chincoteagueculturalalliance.org/farmers-market.html,,,,,,,"6309 Church St., Chincoteague, VA, 23336",Virginia,Chincoteague,6309 Church St.,23336,-75.373102571648,37.93259768993063,,
farmers market,"Mar 27th, 2023",default-farmersmarket-4-3.jpg,313065,Christopher Newport University Farmers Market,,,,,,https://www.facebook.com/FarmersMarketCNU,,,,,,"1 Avenue of the Arts Newport News, VA 23606",Virginia,Newport News,1 Avenue of the Arts,23606,-76.48867057739098,37.059871103730856,,
farmers market,"Mar 27th, 2023",default-farmersmarket-4-3.jpg,313066,City Center Farmers Market Oyster Point,,,,,http://www.citycenteratoysterpoint.com/events,,,,,,,"703 Mariners Row, Newport News, Virginia 23606",Virginia,Newport News,703 Mariners Row,23606,-76.47439041686683,37.08580646252829,,
farmers market,"Mar 27th, 2023",default-farmersmarket-4-3.jpg,313067,City of Manassas Farmers Market,,,info@manassasballet.org,703-361-6599,http://www.visitmanassas.org/,,,,,,,"9431 West Street Harris Pavilion Manassas, VA 20110",Virginia,Manassas,9431 West Street,20110,-77.47331737736938,38.750796770782955,,
farmers market,"Mar 27th, 2023",default-farmersmarket-4-3.jpg,313068,City of Virginia Beach Farmers Market,,,,757-385-4395,http://www.VBGov.com/farmersmarket,http://www.facebook.com/VBFarmersMarket,,,,,,"3640 Dam Neck Road Virginia Beach, VA 23453",Virginia,VIRGINIA BCH,3640 DAM NECK RD,23453,-76.0897235879788,36.77653446195186,,
farmers market,"Mar 27th, 2023",default-farmersmarket-4-3.jpg,313069,Clarendon Farmers' Market,,,alliance@clarendon.org,703-812-8881,http://clarendon.org/farmersmarket/,,,,,,,"2531 Wilson Boulevard | Clarendon Metro Park Arlington, VA 22201",Virginia,Arlington,2531 Wilson Boulevard,22201,-77.0889972435138,38.890287342753034,,
farmers market,"Mar 27th, 2023",default-farmersmarket-4-3.jpg,313070,Clifton Forge Farmer's Market,,,,540-862-2000,http://cliftonforgemainstreet.org/,,,,,,,"501 E. Ridgeway Street Clifton Forge, VA 24422",Virginia,Clifton Forge,501 E. Ridgeway Street,24422,-79.82579486345466,37.81565269146731,,
farmers market,"Mar 27th, 2023",default-farmersmarket-4-3.jpg,313071,Coleman Nursery and Farmer's Market,,,contactus@colemannursery.com,,http://colemannursery.com/,,,,,,,"3000 Ironbound Road Williamsburg, VA 23185",Virginia,Williamsburg,3000 Ironbound Road,23185,-76.76206553347836,37.24635877884774,,
farmers market,"Mar 27th, 2023",default-farmersmarket-4-3.jpg,313072,Colonial Heights Farmers Market,,,,804-721-3256,,https://www.facebook.com/colonialheightsfarmersmarket/,,,,,,"2600 Boulevard Colonial Heights, VA 23834",Virginia,Colonial Heights,2600 Boulevard,23834,-77.41167935355982,37.264774641418256,,
farmers market,"Mar 27th, 2023",default-farmersmarket-4-3.jpg,313073,Columbia Pike Farmers Market,,,,703-892-2776,https://www.columbiapikefarmersmarket.org/#pickup,https://www.facebook.com/columbiapikeva/,,,,,,"2611 Columbia Pike Arlington, VA 22204",Virginia,Arlington,2611 Columbia Pike,22204,-77.08524825797666,38.863014960926954,,
farmers market,"Mar 27th, 2023",default-farmersmarket-4-3.jpg,313074,Community Farmers Market,,,,540-439-8326,https://www.fairfaxsaturdaymarket.com/,,,,,,,"10501 Main Street Fairfax, VA 22030",Virginia,Fairfax,10501 Main Street,22030,-77.30850647516142,38.84670274560432,,
farmers market,"Mar 27th, 2023",default-farmersmarket-4-3.jpg,313075,Community Farmers' Market of Blacksburg,,,,540-818-1220,http://thecommunityfarmersmarket.com,http://www.facebook.com/TCFMB,,,,,,"1411 South Main St. Blacksburg, VA 24060",Virginia,BLACKSBURG,1411 S MAIN ST,24060,-80.40050257945775,37.21484949409462,,
farmers market,"Mar 27th, 2023",default-farmersmarket-4-3.jpg,313076,Cornerstone Farm Farmers' Market,,,,540-869-6869,,,,,,,,"2598 Long Meadow Road Middletown, VA 22645",Virginia,MIDDLETOWN,2598 LONG MEADOW RD,22645,-78.29823863176095,38.99781845283639,,
farmers market,"Mar 27th, 2023",default-farmersmarket-4-3.jpg,313077,Covington Farmers Market,,,Infocovingtonfarmersmarket@gmail.com,540-862-0369,http://www.covingtonfarmersmarket.com/,,,,,,,"134 West Main Street Covington, VA 24426",Virginia,Covington,134 West Main Street,24426,-79.99368892864155,37.79380113644157,,
farmers market,"Mar 27th, 2023",default-farmersmarket-4-3.jpg,313078,Crozet Farmers Market,,,,434-823-1092,,,,,,,,"1156 Crozet Avenue Crozet, VA 22932",Virginia,Crozet,1156 Crozet Avenue,22932,-78.70222960428511,38.06748550721566,,
farmers market,"Mar 27th, 2023",default-farmersmarket-4-3.jpg,313079,Cullipher Farm Market,,,,757-721-7456,http://cullipherfarm.com,,,,,,,"1444 Princess Anne Road Va. Beach, VA 23456",Virginia,VA BCH,1444 PRINCESS ANNE RD,23456,-76.02382715950678,36.68481584477347,,
farmers market,"Mar 27th, 2023",default-farmersmarket-4-3.jpg,313080,Culpeper Downtown Farmers Market,,,cridirector@culpeperdowntown.com,540-825-4416,http://www.culpeperdowntown.com/farmers-market.html,https://www.facebook.com/CulpeperFarmersMarket,,,,,,"318 South West Street Culpeper, VA 22701",Virginia,Culpeper,318 South West Street,22701,-77.9982407285321,38.47217872666226,,
farmers market,"Mar 27th, 2023",default-farmersmarket-4-3.jpg,313081,Damascus Farmers' Market,,,,276-492-4108,,https://www.facebook.com/DamascusVAFarmersMarket,,,,,,"208 West Laurel Damascus, VA 24236",Virginia,Damascus,208 West Laurel,24236,-81.79007530542519,36.63529615547179,,
farmers market,"Mar 27th, 2023",default-farmersmarket-4-3.jpg,313082,Danville Farmers' Market,,,,434-797-8961,,,,,,,,"629 Craghead Street Danville, VA 24541",Virginia,Danville,629 Craghead Street,24541,-79.38616312921089,36.58476033421397,,
farmers market,"Mar 27th, 2023",default-farmersmarket-4-3.jpg,313083,Daughter of the Stars Farmers Market,,,,,,https://www.facebook.com/DaughteroftheStarsFM,,,,,,"736 4th St Shenandoah, VA 22849",Virginia,Shenandoah,736 4th St,22849,-78.61877515107811,38.48335775176508,,
farmers market,"Mar 27th, 2023",default-farmersmarket-4-3.jpg,313084,Dayton Farmers' Market,,,info@thedaytonmarket.com,540-879-3801,http://www.daytonfarmersmarket.com,https://www.facebook.com/pages/The-Shops-at-Dayton-Farmers-Market/104020976318603,,,,,,"3105 John Wayland Hwy., Dayton, VA, 22821",Virginia,Dayton,3105 John Wayland Hwy.,22821,-78.92811804108031,38.42319352821528,,
farmers market,"Mar 27th, 2023",default-farmersmarket-4-3.jpg,313085,Deltaville Farmers' Market,,,museumpark@verizon.net,804-776-7200,http://www.deltavillemuseum.com/events/holly-point-markets/,,,,,,,"287 Jackson Creek Rd., Deltaville, VA, 23043",Virginia,Deltaville,287 Jackson Creek Rd.,23043,-76.32599820877347,37.55123954435316,,
farmers market,"Mar 27th, 2023",default-farmersmarket-4-3.jpg,313086,Downtown Hampton Farmers Market,,,,757-727-1271,http://www.downtownhampton.com,,,,,,,"756 Settlers Landing Road Hampton, VA 23669",Virginia,HAMPTON,756 SETTLERS LANDING RD,23669,-76.34210732780181,37.02494546343453,,
farmers market,"Mar 27th, 2023",default-farmersmarket-4-3.jpg,313087,Downtown South Boston Farmers Market,,,info@downtownsob.com,540-490-1406,https://downtownsobo.com/?link=farmers_market,,,,,,,"300 Broad Steet South Boston, VA 24592",Virginia,South Boston,300 Broad Steet,24592,-78.89995351006831,36.69786988242246,,
farmers market,"Mar 27th, 2023",default-farmersmarket-4-3.jpg,313088,Draper Valley Farmer's Market,,,,800-916-9346,http://www.drapermerc.com/contact.html,,,,,,,"3054 Greenbriar Road Draper, VA 24324",Virginia,DRAPER,3054 GREENBRIAR RD,24324,-80.74310955789362,37.00187587332974,,
farmers market,"Mar 27th, 2023",default-farmersmarket-4-3.jpg,313089,Earlysville Farmers Market,,,evillefarmersmkt@embarqmail.com,434-942-8034,https://earlysvillefarmersmarket.wordpress.com/,,,,,,,"4167 Earlysville Road Earlysville, VA 22936",Virginia,Earlysville,4167 Earlysville Road,22936,-78.48210267831956,38.15520446853824,,
farmers market,"Mar 27th, 2023",default-farmersmarket-4-3.jpg,313090,Eastern Orange Farmers Market,,,easternorangefarmersmarket@gmail.com,434-227-4561,https://easternorangefarmersmarket.blogspot.com/,,,,,,,"32301 Constitution Hwy Locust Grove, VA 22508",Virginia,Locust Grove,32301 Constitution Hwy,22508,-77.80991477327208,38.30501889587585,,
farmers market,"Mar 27th, 2023",default-farmersmarket-4-3.jpg,313091,Fairfax Community Farmers' Market,,,Fairfaxcity@hotmail.com,703-430-6164,http://www.fairfaxsaturdaymarket.com/,https://www.facebook.com/FairfaxSaturdayMarket,,,,,,"10500 Page Ave., Fairfax, VA, 22030",Virginia,Fairfax,10500 Page Ave.,22030,-77.31006480657871,38.84587917839659,,
farmers market,"Mar 27th, 2023",default-farmersmarket-4-3.jpg,313092,Fairfax County Farmers Markets,,,,703-642-0128,http://www.fairfaxcounty.gov/parks/farm-mkt.htm,,,,,,,"4603 Green Spring Rd Alexandria, VA 22312",Virginia,ALEXANDRIA,4603 GREEN SPRING RD,22312,-77.15792268202402,38.824223426844156,,
farmers market,"Mar 27th, 2023",default-farmersmarket-4-3.jpg,313093,Fairfax Sunday Farmers' Market,,,,,http://www.FairfaxSundayMarket.com,http://www.facebook.com/FairfaxSundayMkt/,,,,,,"10500 Page Avenue Fairfax, VA 22030 One block from Main Street, aAt the corner of West & Page Avenue, Fairfax. Lots of onsite parking. Family and Pet Friendly.",Virginia,FAIRFAX,10500 PAGE AVE,22030,-77.31006480657871,38.84587917839659,,
farmers market,"Mar 27th, 2023",default-farmersmarket-4-3.jpg,313094,Fairlington Farmers Market,,,farlingtonfarmersmarket@gmail.com,,http://www.fairlingtonfarmersmarket.org/home.html,https://www.facebook.com/FairlingtonFarmersMarket/?ref=stream,,,,,,"3308 S. Stafford Street Fairlington Community Ctr Arlington, VA 22206",Virginia,Arlington,3308 S. Stafford Street,22206,-77.0864411732768,38.834723119070894,,
farmers market,"Mar 27th, 2023",default-farmersmarket-4-3.jpg,313095,Falls Church Farmers Market,,,info@oaklanesoap.com,703-248-5024,https://www.fallschurchva.gov/547/Farmers-Market,https://www.facebook.com/FallsChurchFarmersMarket/,,,,,,"300 Park Avenue Falls Church, VA 22046",Virginia,Falls Church,300 Park Avenue,22046,-77.17276286848666,38.88495648621212,,
farmers market,"Mar 27th, 2023",default-farmersmarket-4-3.jpg,313096,Famers Market in Christiansburg,,,,540-391-0678,http://www.nrvgrown.blogspot.com,,,,,,,"100 Radford Street Christiansburg, VA 24073",Virginia,CHRISTIANSBURG,100 RADFORD ST,24073,-80.41468689496887,37.12713650230298,,
farmers market,"Mar 27th, 2023",default-farmersmarket-4-3.jpg,313097,Farmers Market @ St. Stephen's,,,,804-261-0841,http://www.saintstephensrichmond.net/,,,,,,,"6000 Grove Avenue Richmond, VA 23226",Virginia,Richmond,6000 Grove Avenue,23226,-77.52192425077928,37.57290821074268,,
farmers market,"Mar 27th, 2023",default-farmersmarket-4-3.jpg,313098,Farmers' Market at Citizen's Square,,,lburleson@rockymountva.org,540-483-7660,http://www.rockymountva.org/index.cfm/go/content.dspcontent/Page_Name/Farmers--Market.html,,,,,,,"435 Franklin St. , Historic Downtown Rocky Mount, Rocky Mount, VA, 24151",Virginia,Rocky Mount,435 Franklin St.,24151,-79.89192287369134,36.996808630718526,,
farmers market,"Mar 27th, 2023",default-farmersmarket-4-3.jpg,313099,Farmers' Market at City Center,,,,757-926-1400,http://www.citycenteratoysterpoint.com/events,,,,,,,"700 Town Center Dr., Newport News, VA, 23606",Virginia,Newport News,700 Town Center Dr.,23606,-76.4738794554861,37.08679924456401,,
farmers market,"Mar 27th, 2023",default-farmersmarket-4-3.jpg,313100,Farmers Market at New Highland Baptist Church,,,,804-550-9601,,https://www.facebook.com/nhbcfarmersmarket,,,,,,"9200 New Ashcake Road Mechanicsville, VA 23116",Virginia,Mechanicsville,9200 New Ashcake Road,23116,-77.4102195911845,37.698355293344065,,
farmers market,"Mar 27th, 2023",default-farmersmarket-4-3.jpg,313101,Farmers Market at St Stephens,,,,,http://www.saintstephensrichmond.net/farmersmarket,,,,,,,"6000 Grove Ave, Richmond, Virginia 23226",Virginia,Richmond,6000 Grove Ave,23226,-77.52192425077928,37.57290821074268,,
farmers market,"Mar 27th, 2023",default-farmersmarket-4-3.jpg,313102,Farmers Market Woodbridge,,,,,,http://www.facebook.com/farmersmarketwoodbridge,,,,,,"2700 Potomac Mills Circle Woodbridge, VA 22192 Front of Potomac Mills Mall/ Commuter's Parking Lot Parking outside the market in surrounding parking spaces",Virginia,WOODBRIDGE,2700 POTOMAC MILLS CIR,22192,-77.29419077762698,38.64633713976391,,
farmers market,"Mar 27th, 2023",default-farmersmarket-4-3.jpg,313103,Farmville Farmers' Market,,,,434-392-3333,https://farmvilleva.com/travel-tourism/farmville-farmers-market,,,,,,,"213 North St., Farmville, VA, 23901",Virginia,Farmville,213 North St.,23901,-78.39313480249959,37.30327188942855,,
farmers market,"Mar 27th, 2023",default-farmersmarket-4-3.jpg,313104,Floyd Farmers Market,,,info@floydfarmersmarket.org,540-589-6489,https://floydfarmersmarket.org/,https://www.facebook.com/FloydFarmersMarket,,,,,,"203 South Locust Street Suite H Floyd, VA 24091",Virginia,Floyd,203 South Locust Street,24091,-80.32003939527252,36.910459659945765,,
farmers market,"Mar 27th, 2023",default-farmersmarket-4-3.jpg,313105,Fluvanna Farmers Market,,,,434-295-8361,,https://www.facebook.com/Fluvanna-Farmers-Market-156258289864188,,,,,,"114 Crofton Plaza Palmyra, VA 22963",Virginia,Palmyra,114 Crofton Plaza,22963,-78.31760660710768,37.92453462319919,,
farmers market,"Mar 27th, 2023",default-farmersmarket-4-3.jpg,313106,Four Mile Run Farmers and Artisans Market,,,,215-514-4144,http://www.arlandria.org/p/4mr-market.html,,,,,,,"4109 Mt Vernon Ave Alexandria, VA 22305",Virginia,ALEXANDRIA,4109 MOUNT VERNON AVE,22305,-77.06404817486911,38.84313468254658,,
farmers market,"Mar 27th, 2023",default-farmersmarket-4-3.jpg,313107,Four Seasons Farmers Market,,,,757-268-2299,https://form.jotform.com/212283194228152,https://www.facebook.com/FourSeasonsMarketAmherst,,,,,,"206 South Main Street Amherst, VA 24521",Virginia,Amherst,206 South Main Street,24521,-79.05215299270589,37.58501612718321,,
farmers market,"Mar 27th, 2023",default-farmersmarket-4-3.jpg,313108,Franklin Farmers Market,,,,757-562-6900,http://www.downtownfranklinva.org/page/franklin-farmers-market/,,,,,,,"120 South Main Street FRANKLIN, VA 23851",Virginia,FRANKLIN,120 South Main Street,23851,-76.92172684842915,36.676766175640985,,
farmers market,"Mar 27th, 2023",default-farmersmarket-4-3.jpg,313109,Franklin's Market on Main,,,,,https://www.franklinva.com/government/departments/parks-and-recreation/farmers-market/,https://facebook.com/franklinmarketonmain,,,,,,"210 S Main St, Franklin, Virginia 23851",Virginia,Franklin,210 S Main St,23851,-76.92097904623259,36.67592385234749,,
farmers market,"Mar 27th, 2023",default-farmersmarket-4-3.jpg,313110,Fredericksburg Farmers Market - Mary Washington Healthcare,,,,,https://www.marywashingtonhealthcare.com/events-calendar/event-details/?event=27962,,,,,,,"1001 Sam Perry Blvd, Fredericksburg, Virginia 22401",Virginia,Fredericksburg,1001 Sam Perry Blvd,22401,-77.48476243818286,38.3078125317114,,
farmers market,"Mar 27th, 2023",default-farmersmarket-4-3.jpg,313111,"Fredericksburg, VA Farmers Market",,,,,https://www.thefarmersmarket.co/*https://instagram.com/fxbgfarmersmarketva,https://facebook.com/FXBGFarmersMarket,,,,,,"900 Prince Edward St, Fredericksburg, Virginia 22401",Virginia,Fredericksburg,900 Prince Edward St,22401,-77.46216357807805,38.30158872690188,,
farmers market,"Mar 27th, 2023",default-farmersmarket-4-3.jpg,313112,Freight Station Farmers Market,,,walkingwindfarmandflorist@gmail.com,304-229-3457,https://freightstationfarmersmarket.com/?fbclid=IwAR3-iNaqQAm8VhiY1S1ZgBbCUCP18efTxGnHNuWPAVK-2XZgXEP,https://www.facebook.com/FreightStationFarmersMarket/,,,,,,"315 W. Boscawen Street Winchester, VA 22601",Virginia,Winchester,315 W. Boscawen Street,22601,-78.1707244922415,39.1852350804109,,
farmers market,"Mar 27th, 2023",default-farmersmarket-4-3.jpg,313113,FRESHFARM Rosslyn Farmers Market,,,,,https://instagram.com/freshfarmdc*https://twitter.com/FRESHFARMDC*https://www.freshfarm.org/markets/rosslyn,https://facebook.com/freshfarmdc,,,,,,"1800 N Lynn St, Arlington, Virginia 22209",Virginia,Arlington,1800 N Lynn St,22209,-77.07084962764637,38.896123821679204,,
farmers market,"Mar 27th, 2023",default-farmersmarket-4-3.jpg,313114,Fries Farmers' Market,,,,276-238-3234,,,,,,,,"361 Link Rd. GALAX, VA 24333",Virginia,GALAX,361 Link Rd.,24333,-80.97941540475382,36.6195626059411,,
farmers market,"Mar 27th, 2023",default-farmersmarket-4-3.jpg,313115,Front Royal Farmers Market,,,,540-635-8413,http://frontroyalfarmersmarket.com/,,,,,,,"220 N Commerce Ave Front Royal, VA 22630",Virginia,FRONT ROYAL,220 N COMMERCE AVE,22630,-78.19088946753313,38.92218237941628,,
farmers market,"Mar 27th, 2023",default-farmersmarket-4-3.jpg,313116,Galax Farmers Market,,,farmersmarket@galaxva.com,276-733-4145,https://visitgalax.com/,https://www.facebook.com/search/top?q=galaxfarmersmarket,,,,,,"206 North Main Street, Galax, VA, USA",Virginia,Galax,206 North Main Street,24333,-80.92533475315365,36.66318685689828,,
farmers market,"Mar 27th, 2023",default-farmersmarket-4-3.jpg,313117,Game's Farmers Market,,,,,http://www.gamesfarmersmarket.com,,,,,,,"503 Harpersville Rd. Newport News, VA 23606",Virginia,NEWPORT NEWS,503 HARPERSVILLE RD,23601,-76.4595553933701,37.064577138575345,,
farmers market,"Mar 27th, 2023",default-farmersmarket-4-3.jpg,313118,Ghent Farmers' Market,,,,757-714-4032,,,,,,,,"730 Spotswood Avenue Norfolk, VA 23517",Virginia,Norfolk,730 Spotswood Avenue,23517,-76.29656141153022,36.868354008909506,,
farmers market,"Mar 27th, 2023",default-farmersmarket-4-3.jpg,313119,Goochland Farmers Market,,,,804-314-9141,http://www.rvagriculture.org,http://www.facebook.com/GoochlandFarmersMarket,,,,,,"1889 Sandy Hook Road Goochland, VA 23063 Located in a park-like setting one block South of Fairground road on route 522, across from the County's ball field parking lot.",Virginia,GOOCHLAND,1889 SANDY HOOK RD,23063,-77.8875384868564,37.695548560628076,,
farmers market,"Mar 27th, 2023",default-farmersmarket-4-3.jpg,313120,Great Falls Farmers Market,,,,917-673-3149,http://www.greatfallsfarmersmarket.org,http://www.facebook.com/GreatFallsCommunityFarmersMarket,,,,,,"778 Walker Road (Parking Lot) Great Falls, VA 22066",Virginia,GREAT FALLS,778 WALKER RD,22066,-77.28840850942129,38.99607397368184,,
farmers market,"Mar 27th, 2023",default-farmersmarket-4-3.jpg,313121,Green Bay Open-Air Market,,,,434-321-3674,http://greenbaymkt.weebly.com/,,,,,,,"140 Green Bay Road, Green Bay, VA 23942",Virginia,GREEN BAY,140 Green Bay Road,23942,-78.31416692270125,37.13546968160963,,
farmers market,"Mar 27th, 2023",default-farmersmarket-4-3.jpg,313122,Green Mills Market at Potomac,,,,540-841-2069,,,,,,,,"2700 Potomac Mills Cir Woodbridge, VA 22192",Virginia,Woodbridge,2700 Potomac Mills Cir,22192,-77.29419077762698,38.64633713976391,,
farmers market,"Mar 27th, 2023",default-farmersmarket-4-3.jpg,313123,Greene Farmers Market,,,greenefarmersmarket@gmail.com,434-985-6663,https://greenecommons.com/greene-farmers-market/,https://www.facebook.com/greenefarmersmarket/,,,,,,"40 Celt Road Stanardsville, VA 22973",Virginia,Stanardsville,40 Celt Road,22973,-78.4411237618735,38.29682488997772,,
farmers market,"Mar 27th, 2023",default-farmersmarket-4-3.jpg,313124,Harrisonburg Farmers Market,,,hburgfarmersmarket@gmail.com,540-476-3377,https://www.harrisonburgfarmersmarket.com/,https://www.facebook.com/hburgfarmersmarket/,,,,,,"228 South Liberty Street Harrisonburg, VA 22801",Virginia,Harrisonburg,228 South Liberty Street,22801,-78.87163997273358,38.44562946976078,,
farmers market,"Mar 27th, 2023",default-farmersmarket-4-3.jpg,313125,Haymarket Farmers' Market,,,,571-494-0897,http://www.townofhaymarket.org/index.php/events/farmers-market,https://www.facebook.com/haymarketfarmmarket,,,,,,"15000 Washington St., Haymarket, VA, 20169",Virginia,Haymarket,15000 Washington St.,20169,-77.63641428624236,38.81215682179523,,
farmers market,"Mar 27th, 2023",default-farmersmarket-4-3.jpg,313126,Haymarket Thursday Afternoon Market,,,haymarkettam@gmail.com,503-758-2093,,https://www.facebook.com/HaymarketThursdayAfternoonMarket,,,,,,"16015 John Marshall Hwy., Broad Run, VA, 20137",Virginia,Broad Run,16015 John Marshall Hwy.,20137,-77.66678472948598,38.820518100645344,,
farmers market,"Mar 27th, 2023",default-farmersmarket-4-3.jpg,313127,Heart of Virginia Farmers Market,,,,434-603-0115,,https://www.facebook.com/HOVFarmersMarket/?ref=page_internal,,,,,,"824 Buffalo Heights Road Farmville, VA 23901",Virginia,Farmville,824 Buffalo Heights Road,23901,-78.43521972254344,37.29923385139043,,
farmers market,"Mar 27th, 2023",default-farmersmarket-4-3.jpg,313128,Herndon Farmers Market,,,FCPAfarmmarkets@fairfaxcounty.gov,703-642-0128,http://www.fairfaxcounty.gov/parks/farmersmarkets/herndon,,,,,,,"765 Lynn Street Herndon, VA 20170",Virginia,Herndon,765 Lynn Street,20170,-77.38595764646975,38.97159407163594,,
farmers market,"Mar 27th, 2023",default-farmersmarket-4-3.jpg,313129,Hillsboro Farmers Market,,,,410-980-9793,http://www.hillsborofarmersmarket.org,,,,,,,"37098 Charles Town Pike, Hillsboro, VA 20132",Virginia,HILLSBORO,37098 CHARLES TOWN PIKE,20132,-77.72209340784713,39.19837310600629,,
farmers market,"Mar 27th, 2023",default-farmersmarket-4-3.jpg,313130,Historic Manassas Farmers' Market,,,visitmanassas@gmail.com,703-361-6599,http://visitmanassas.org/listings/farmers-market/,,,,,,,"9201 Center St., Manassas, VA, 20110",Virginia,Manassas,9201 Center St.,20110,-77.47349606980472,38.75093785860818,,
farmers market,"Mar 27th, 2023",default-farmersmarket-4-3.jpg,313131,Historic Roanoke City Market,,,dri@downtownroanoke.org,540-342-2028,https://www.downtownroanoke.org/explore/farmers-market,https://www.facebook.com/roanokecitymarket?ref=bookmarks,,,,,,"213 Market St. SE The Historic City Market Roanoke, VA 24011",Virginia,Roanoke,213 Market St. SE,24011,-79.93906944077054,37.271681481610806,,
farmers market,"Mar 27th, 2023",default-farmersmarket-4-3.jpg,313132,Hopewell's Third Thursday Marketplace,,,heather@hopewelldowntown.com,804-712-6650,https://www.hopewelldowntown.com/marketplace,,,,,,,"2015 1/2 E Broadway Avenue, HOPEWELL, VA 23860",Virginia,HOPEWELL,2015 1/2 E Broadway Avenue,23860,-77.30212940537484,37.302389459045685,,
farmers market,"Mar 27th, 2023",default-farmersmarket-4-3.jpg,313133,Isle of Wight & Smithfield Farmers' Markets,,,,757-357-2214,http://www.smithfieldfarmersmarket.org,http://www.facebook.com/SmithfieldFarmersMarket,,,,,,"115 Main Street Smithfield, VA 23430 Located in Historic Smithfield, VA off of Main Street at 115 Main Street, Smithfield, VA 23430",Virginia,SMITHFIELD,115 MAIN ST,23430,-76.63124024053266,36.98217552672095,,
farmers market,"Mar 27th, 2023",default-farmersmarket-4-3.jpg,313134,Kenbridge Farmers Market,,,tonymatthews@kenbridge.net,434-676-2452,https://www.kenbridgeva.net/,https://www.facebook.com/kenbrigefarmersmarket/,,,,,,"533 East Fifth Avenue Kenbridge, VA 23944",Virginia,Kenbridge,533 East Fifth Avenue,23944,-78.11738403682094,36.95936884032316,,
farmers market,"Mar 27th, 2023",default-farmersmarket-4-3.jpg,313135,King Street Station Farmers' Market,,,,,,,,,,,,"1755 Duke St. Alexandria, VA 22314 Market is held in the courtyard - bordered by Diagonal St., Reinekers Lane and Duke Street. Embassy Suites or Theismanns' are easy landmarks. 30 minutes free in und",Virginia,ALEXANDRIA,1755 DUKE ST,22314,-77.06157975505995,38.80460169926107,,
farmers market,"Mar 27th, 2023",default-farmersmarket-4-3.jpg,313136,Kingstowne Farmers Market,,,animalshelter@fairfaxcounty.gov,703-642-0128,https://www.fairfaxcounty.gov/parks/farm-mkt.htm,,,,,,,"5800 Kingstowne Center Alexandria, VA 22315",Virginia,Alexandria,5800 Kingstowne Center,22315,-77.13492610851617,38.775264945746684,,
farmers market,"Mar 27th, 2023",default-farmersmarket-4-3.jpg,313137,KQCD Farmers Market,,,,804-514-5400,http://WWW.KQCD.ORG,,,,,,,"120 White Marsh Lane Walkerton, VA 23177",Virginia,WALKERTON,120 WHITE MARSH LN,23177,-77.02272132737811,37.72592202152221,,
farmers market,"Mar 27th, 2023",default-farmersmarket-4-3.jpg,313138,La Plaza Market,,,info@laplazerva.com,804-921-2029,http://laplazarva.com/,https://www.facebook.com/laplazamarketrva,,,,,,"6925 Hull Street Rd., Richmond, VA, 23224",Virginia,Richmond,6925 Hull Street Rd.,23224,-77.52166002610784,37.4750135365241,,
farmers market,"Mar 27th, 2023",default-farmersmarket-4-3.jpg,313139,Lakeside Farmers Market,,,peter.francisco@verizon.net,804-262-6593,http://www.lakesidefarmersmarket.net/,,,,,,,"7517 N. Pinehill Dr. RICHMOND, VA 23228",Virginia,RICHMOND,7517 N. Pinehill Dr.,23228,-77.472695475566,37.624909019821466,,
farmers market,"Mar 27th, 2023",default-farmersmarket-4-3.jpg,313140,LEAP Mobile Market,,,,540-632-1360,http://leapforlocalfood.org/markets/mobile/,http://www.facebook.com/LEAPMobileMarket/,,,,,,"2750 Hoover St. NW Roanoke, VA 24017 The LEAP Mobile Market brings local, healthy, and fresh food to Roanoke neighborhoods that otherwise lack easy access to fresh produce. All stops are open to the p",Virginia,ROANOKE,2750 HOOVER ST NW,24017,-79.97855222817887,37.29242580750908,,
farmers market,"Mar 27th, 2023",default-farmersmarket-4-3.jpg,313141,Lebanon Farmers Market,,,,,,https://facebook.com/lebanonfarmersmarketva,,,,,,"137 Highland Dr, Lebanon, Virginia 24266",Virginia,Lebanon,137 Highland Dr,24266,-82.06886142191857,36.90363665557739,,
farmers market,"Mar 27th, 2023",default-farmersmarket-4-3.jpg,313142,Leesburg Farmers' Market,,,info@loudounfarmersmarkets.org,540-454-8089,http://loudounfarmersmarkets.org/,https://www.facebook.com/LeesburgFarmersMarket,,,,,,"32 Catoctin Cir. SE, Virginia Village Shopping Center, Leesburg, VA, 20175",Virginia,Leesburg,32 Catoctin Cir. SE,20175,-77.56641475105175,39.10716527213026,,
farmers market,"Mar 27th, 2023",default-farmersmarket-4-3.jpg,313143,LF Market,,,,757-484-4421,http://www.lfmarketva.com/,,,,,,,"5800 Knotts Neck Rd Suffolk, VA 23435",Virginia,Suffolk,5800 Knotts Neck Rd,23435,-76.46500715120679,36.86350081358393,,
farmers market,"Mar 27th, 2023",default-farmersmarket-4-3.jpg,313144,Local APX Market,,,info@churchmain.com,434-664-2279,https://churchmain.com/,,,,,,,"1848 Church Street Appomattox, VA 24522",Virginia,Appomattox,1848 Church Street,24522,-78.82745747308512,37.35275361206558,,
farmers market,"Mar 27th, 2023",default-farmersmarket-4-3.jpg,313145,Long Family Markets,,,longfamilymarkets@gmail.com,,https://www.longfamilymarkets.com/businesses,https://www.facebook.com/longfamilymarkets,,,,,,"36 Fresh Water Drive Fredericksburg, VA 22405",Virginia,Fredericksburg,36 Fresh Water Drive,22405,-77.42519544647708,38.306230451936194,,
farmers market,"Mar 27th, 2023",default-farmersmarket-4-3.jpg,313146,Long Farmers Market,,,,570-886-0822,,http://www.facebook.com/longfarmersmarket,,,,,,"121 University Boulevard Fredericksburg, VA 22406 Directly behind University of Mary Washington Stafford Campus on Route 17. Please use entrance across from the Walmart driveway. Market is in the West",Virginia,FREDERICKSBURG,121 UNIVERSITY BLVD,22406,-77.53253120964767,38.37070165612394,,
farmers market,"Mar 27th, 2023",default-farmersmarket-4-3.jpg,313147,Loudoun Station Saturday Farmers Market,,,info@loudounfarmersmarkets.org,540-454-8089,https://loudounfarmersmarkets.org/,,,,,,,"43800 Central Station Dr Ashburn, VA 20147",Virginia,Ashburn,43800 Central Station Dr,20147,-77.4869731618712,39.00690827984991,,
farmers market,"Mar 27th, 2023",default-farmersmarket-4-3.jpg,313148,Louisa Farmers' Market,,,produceboy03@gmail.com,540-967-1400,,https://www.facebook.com/louisafarmersmarket,,,,,,"213 E. Main St., Louisa, VA, 23093",Virginia,Louisa,213 E. Main St.,23093,-78.00160637364469,38.023478962227614,,
farmers market,"Mar 27th, 2023",default-farmersmarket-4-3.jpg,313149,Lovettsville Farmers Market,,,,540-454-8089,https://www.loudounfarmersmarkets.org/Lovettsville.php,,,,,,,"16 S. Berlin Pike Lovettsville, VA 20180",Virginia,Lovettsville,16 S. Berlin Pike,20180,-77.64201418293337,39.27010466692549,,
farmers market,"Mar 27th, 2023",default-farmersmarket-4-3.jpg,313150,Manassas Farmers Market,,,,703-361-6599,http://www.visitmanassas.org,,,,,,,"9431 West St. Manassas, VA 20110",Virginia,MANASSAS,9431 WEST ST,20110,-77.47331737736938,38.750796770782955,,
farmers market,"Mar 27th, 2023",default-farmersmarket-4-3.jpg,313151,Manassas Farmers Market (Thursday),,,,703-361-6599,https://media.visitmanassas.org/?p=175,,,,,,,"9201 Center Street Manassas, VA 20110",Virginia,Manassas,9201 Center Street,20110,-77.47349606980472,38.75093785860818,,
farmers market,"Mar 27th, 2023",default-farmersmarket-4-3.jpg,313152,Marion Regional Farmers Market,,,,,https://instagram.com/marionvafarmersmarket*https://www.marionva.org/marion-farmers-market,https://facebook.com/Marion Farmers Market,,,,,,"210 E Cherry St, Marion, Virginia 24354",Virginia,Marion,210 E Cherry St,24354,-81.52116652814962,36.83093419140096,,
farmers market,"Mar 27th, 2023",default-farmersmarket-4-3.jpg,313153,Marker Miller Orchards Farm Market and Bakery,,,,540-662-1391,http://www.markermillerorchards.com,,,,,,,"3035 Cedar Creek Grade Winchester, VA 22602",Virginia,WINCHESTER,3035 CEDAR CREEK GRADE,22602,-78.26981894080704,39.14545143949276,,
farmers market,"Mar 27th, 2023",default-farmersmarket-4-3.jpg,313154,Market at La Grange,,,,,,https://facebook.com/marketatlagrange,,,,,,"4970 Antioch Rd, Haymarket, Virginia 20169",Virginia,Haymarket,4970 Antioch Rd,20169,-77.68562840465607,38.85236499979916,,
farmers market,"Mar 27th, 2023",default-farmersmarket-4-3.jpg,313155,Marshall Farmer's Market,,,bobby@fieldandmainrestauraunt.com,,http://marshallvirginia.com/,http://facebook.com/marshallvamarket,,,,,,"8382 West Main Street Marshall, VA 20115",Virginia,Marshall,8382 West Main Street,20115,-77.85895197286955,38.86418603012629,,
farmers market,"Mar 27th, 2023",default-farmersmarket-4-3.jpg,313156,Martinsville Uptown Farmers' Market,,,,,http://www.martinsvilleuptown.net/farmers-market.cfm,,,,,,,"65 W Main St, Martinsville, Virginia 24112",Virginia,Martinsville,65 W Main St,24112,-79.87449759921232,36.69208431261579,,
farmers market,"Mar 27th, 2023",default-farmersmarket-4-3.jpg,313157,Mary Washington Hospital Farmer's Market,,,,540-372-1086,http://www.thefarmersmarket.co/fredericksburg-farmers-market/,,,,,,,"1001 Sam Perry Blvd. Fredericksburg, VA 22401",Virginia,Fredericksburg,1001 Sam Perry Blvd.,22401,-77.48476243818286,38.3078125317114,,
farmers market,"Mar 27th, 2023",default-farmersmarket-4-3.jpg,313158,Marymount Farmers Market,,,,,http://www.marymountfarmersmarket.org/,,,,,,,"2807 N. Glebe Road Arlington, VA 22207",Virginia,Arlington,2807 N. Glebe Road,22207,-77.12898149352661,38.90458535080694,,
farmers market,"Mar 27th, 2023",default-farmersmarket-4-3.jpg,313159,McCutcheon/Mount Vernon Farmers' Market,,,Megan.carroll@fairfaxcounty.gov,703-642-0128,http://www.fairfaxcounty.gov/parks/FarmersMarkets/mtvernonmkt.htm,,,,,,,"2501 Sherwood Hall Ln., Alexandria, VA, 22306",Virginia,Alexandria,2501 Sherwood Hall Ln.,22306,-77.07450401829419,38.744070548370196,,
farmers market,"Mar 27th, 2023",default-farmersmarket-4-3.jpg,313160,McLean Farmers Market,,,FCPAfarmmarkets@fairfaxcounty.gov,703-642-0128,https://www.fairfaxcounty.gov/parks/farmersmarkets/mclean,,,,,,,"1659 Chain Bridge Road McLean, VA 22101",Virginia,McLean,1659 Chain Bridge Road,22101,-77.18814765724119,38.92962301660138,,
farmers market,"Mar 27th, 2023",default-farmersmarket-4-3.jpg,313161,Middleburg Community Farmers Market,,,listserv@civicplus.com,540-687-5152,https://www.middleburgva.gov/mc-farmers-market-1.html,,,,,,,"105 West Federal Street Middleburg, VA 20117",Virginia,Middleburg,105 West Federal Street,20117,-77.73652011090296,38.96769841726629,,
farmers market,"Mar 27th, 2023",default-farmersmarket-4-3.jpg,313162,Midlothian Mines Farmers Market,,,,,http://www.growrva.com,http://www.facebook.com/growrva,,,,,,"13301 N. Woolridge Road Midlothian, VA 23114",Virginia,MIDLOTHIAN,13301 N WOOLRIDGE RD,23114,-77.64315013478905,37.494794588633304,,
farmers market,"Mar 27th, 2023",default-farmersmarket-4-3.jpg,313163,Mineral Farmer's Market,,,,,http://www.MineralMarket.org,https://facebook.com/MineralMarketVA,,,,,,"81 Louisa Ave, Mineral, Virginia 23117",Virginia,Mineral,81 Louisa Ave,23117,-77.90732912271045,38.01248306671647,,
farmers market,"Mar 27th, 2023",default-farmersmarket-4-3.jpg,313164,Montross Market Days,,,Bnelson56@va.metrocast.net,703-598-2112,http://www.visitmontross.com/montross-market-days/,,,,,,,"15803 King's Hwy., Courthouse Square, Montross, VA, 22520",Virginia,Montross,15803 King's Hwy.,22520,-76.82761014327144,38.09537697833018,,
farmers market,"Mar 27th, 2023",default-farmersmarket-4-3.jpg,313165,Narrows Farmers Market,,,,,http://townofnarrows.org/narrows-farmers-market/,,,,,,,"135 Monroe St, Narrows, Virginia 24124",Virginia,Narrows,135 Monroe St,24124,-80.81183144223135,37.33101560962183,,
farmers market,"Mar 27th, 2023",default-farmersmarket-4-3.jpg,313166,New Highland Baptist Farmers' Market,,,FarmersMarket@newhighlandbaptist.org,804-550-9601,http://newhighlandbaptist.org/farmers-market/,https://www.facebook.com/NHBCFarmersMarket,,,,,,"9200 New Ashcake Rd., Mechanicsville, VA, 23116",Virginia,Mechanicsville,9200 New Ashcake Rd.,23116,-77.4102195911845,37.698355293344065,,
farmers market,"Mar 27th, 2023",default-farmersmarket-4-3.jpg,313167,New Market Farmers' Market,,,,,,https://facebook.com/newmarketvafarmersmarket,,,,,,"277 W Old Cross Rd, New Market, Virginia 22844",Virginia,New Market,277 W Old Cross Rd,22844,-78.67959683819473,38.648385602411075,,
farmers market,"Mar 27th, 2023",default-farmersmarket-4-3.jpg,313168,Nokesville Farmers Market,,,,703-594-3237,http://www.mynokesville.org/,,,,,,,"13002 Fitzwater Drive Nokesville, VA 20181",Virginia,Nokesville,13002 Fitzwater Drive,20181,-77.58219480029288,38.69956133274323,,
farmers market,"Mar 27th, 2023",default-farmersmarket-4-3.jpg,313169,North Garden Farmers Market,,,,,,https://www.facebook.com/northgardenfarmersmarket,,,,,,"2545 Rural Ridge Ln North Garden, VA 22959",Virginia,North Garden,2545 Rural Ridge Ln,22959,-78.65086648301643,37.96771361604371,,
farmers market,"Mar 27th, 2023",default-farmersmarket-4-3.jpg,313170,North Stafford Farmers' Market,,,northstaffordfm@gmail.com,,http://www.northstaffordfm.com/,https://www.facebook.com/northstaffordfm,,,,,,"125 Hospital Center Blvd., behind Stafford Hospital, Stafford, VA, 22554",Virginia,Stafford,125 Hospital Center Blvd.,22554,-77.40876686336321,38.416075696262794,,
farmers market,"Mar 27th, 2023",default-farmersmarket-4-3.jpg,313171,Norton Friends and Farmer's Market,,,,276-679-0754,http://www.nortonva.gov/431/Farmers-Market,,,,,,,"815 Park Avenue, SW Norton, VA 24273",Virginia,Norton,"815 Park Avenue, SW",24273,-82.63013982137588,36.933519922492316,,
farmers market,"Mar 27th, 2023",default-farmersmarket-4-3.jpg,313172,Oak Marr Farmers Market,,,,703-642-0128,http://www.fairfaxcounty.gov/parks/wp-farm-mkt.htm,,,,,,,"3200 Jermantown Road (Oak Marr Recreation Center) Vienna, VA 22124",Virginia,OAKTON,3200 JERMANTOWN RD,22124,-77.31269383711788,38.874981202711275,,
farmers market,"Mar 27th, 2023",default-farmersmarket-4-3.jpg,313173,Oakton Farmers Market,,,,,https://instagram.com/freshfarmoakton*https://www.freshfarm.org/markets/oakton*https://twitter.com/FRESHFARMDC,https://facebook.com/FreshFarmOakton,,,,,,"2854 Hunter Mill Rd, Oakton, Virginia 22124",Virginia,Oakton,2854 Hunter Mill Rd,22124,-77.30119952858092,38.88480554903723,,
farmers market,"Mar 27th, 2023",default-farmersmarket-4-3.jpg,313174,Old Town Farmers' Market,,,OTW@winchesterva.gov,540-535-3660,http://oldtownwinchesterva.com/old-town-farmers-market/,,,,,,,"119 N. Loudoun St., Winchester, VA, 22601",Virginia,Winchester,119 N. Loudoun St.,22601,-78.16507905454478,39.18555433403093,,
farmers market,"Mar 27th, 2023",default-farmersmarket-4-3.jpg,313175,Old Town Farmers' Market,,,AlexPHEM@vdh.virginia.gov,,http://alexandriava.gov/FarmersMarket,,,,,,,"301 King Street Alexandria, VA 22314",Virginia,Alexandria,301 King Street,22314,-77.04262805548994,38.804522936080666,,
farmers market,"Mar 27th, 2023",default-farmersmarket-4-3.jpg,313176,Olde Towne Curb Market,,,,757-357-3502,,,,,,,,"100 Main Street Smithfield, VA 23431",Virginia,SMITHFIELD,100 MAIN ST,23430,-76.63110997102575,36.982256759825006,,
farmers market,"Mar 27th, 2023",default-farmersmarket-4-3.jpg,313177,OnTheSquareVA Farmers Market,,,,,https://instagram.com/onthesquarevamarket*http://www.rvagriculture.org,https://facebook.com/Onthesquarevafarmersmarket,,,,,,"109 Governor Street, Richmond, Virginia 23219",Virginia,Richmond,109 Governor Street,23219,-77.43251254156667,37.53691956065714,,
farmers market,"Mar 27th, 2023",default-farmersmarket-4-3.jpg,313178,Pamplin Depot Community Farmers Market,,,,,,,,,,,,"115 Main St, Pamplin, Virginia 23958",Virginia,Pamplin,115 Main St,23958,-78.68133237313106,37.26190516268386,,
farmers market,"Mar 27th, 2023",default-farmersmarket-4-3.jpg,313179,Pearisburg Farmers' Market,,,marketmgr@pearisburg.org,540-598-0470,,https://www.facebook.com/pearisburgcommunitymarket,,,,,,"1410 Wenonah Ave., Pearisburg, VA, 24134",Virginia,Pearisburg,1410 Wenonah Ave.,24134,-80.71934926069545,37.3263916951585,,
farmers market,"Mar 27th, 2023",default-farmersmarket-4-3.jpg,313180,Pike Park Farmers Market,,,partner@columbiapike.com,703-892-2776,https://columbia-pike.org/fm-pike-park/,,,,,,,"194 2nd Street Amherst, VA 24521",Virginia,Amherst,194 2nd Street,24521,-79.04830077658251,37.583217223564425,,
farmers market,"Mar 27th, 2023",default-farmersmarket-4-3.jpg,313181,POP! Market,,,,804-585-6209,,,,,,,,"Halifax Street and Harding Street Petersburg, VA 23803",Virginia,Petersburg,Halifax Street and Harding Street,23803,-77.40655999509923,37.221710005412675,,
farmers market,"Mar 27th, 2023",default-farmersmarket-4-3.jpg,313182,Portsmouth Farmer's Market - PortsEvents,,,,757-397-6395,http://www.portsmoutholdetownefarmersmarket.com/index.html,,,,,,,"Court and High Street Portsmouth, VA 23704",Virginia,Portsmouth,Court and High Street,23704,-76.30085998042527,36.835319985093236,,
farmers market,"Mar 27th, 2023",default-farmersmarket-4-3.jpg,313183,Powhatan Farmers' Market,,,lansma@comcast.net,804-921-4477,http://powhatanfarmersmarket.com/,https://www.facebook.com/pages/Powhatan-Farmers-Market/200424243305155,,,,,,"2470 Anderson Hwy., Powhatan, VA, 23139",Virginia,Powhatan,2470 Anderson Hwy.,23139,-77.81775240326894,37.521269003676686,,
farmers market,"Mar 27th, 2023",default-farmersmarket-4-3.jpg,313184,Powhatan Village Farmers Market,,,manager@rvagriculture.org,804-314-9141,https://www.rvagriculture.org/,,,,,,,"3841 Old Buckingham Road We are on the grounds of Bienvenue Powhatan, VA 23139",Virginia,Powhatan,3841 Old Buckingham Road,23139,-77.9169415032527,37.53768682761368,,
farmers market,"Mar 27th, 2023",default-farmersmarket-4-3.jpg,313185,Prince George Farmers' Market,,,,804-722-8678,http://www.princegeorgeva.org/index.aspx?page=808,,,,,,,"P. O. Box 62 Prince George, VA 23875",Virginia,Prince George,P. O. Box 62,23875,-77.28193999999996,37.25843000000003,,
farmers market,"Mar 27th, 2023",default-farmersmarket-4-3.jpg,313186,Pulaski Farmers Market,,,,540-994-4200,,,,,,,,"67 Commerce Street Pulaski, VA 24301",Virginia,PULASKI,67 COMMERCE ST,24301,-80.7815687746367,37.04600607961743,,
farmers market,"Mar 27th, 2023",default-farmersmarket-4-3.jpg,313187,Pulaski Farmers' Market - The Marketplace,,,info@pulaskivachamber.org,540-674-1991,http://www.pulaskichamber.info/,,,,,,,"20 South Washington Ave. Pulaski, VA 24301",Virginia,Pulaski,20 South Washington Ave.,24301,-80.77998195659501,37.04628343026569,,
farmers market,"Mar 27th, 2023",default-farmersmarket-4-3.jpg,313188,Pure Harvest Market,,,,804-699-8699,http://www.pureharvestmarket.com,http://www.facebook.com/PureHarvestMarket,,,,,,"6661 Hickory Fork RD Hayes, VA 23072",Virginia,HAYES,6661 HICKORY FORK RD,23072,-76.52676983699865,37.345987738209004,,
farmers market,"Mar 27th, 2023",default-farmersmarket-4-3.jpg,313189,Radford Farmers Market,,,,540-639-2202,,https://www.facebook.com/rfmkt,,,,,,"1100 Block of East Main Street Norwood Sq. parking lot Radford, VA 24141",Virginia,Radford,1100 Block of East Main Street,24141,-80.55788947800214,37.1409581514263,,
farmers market,"Mar 27th, 2023",default-farmersmarket-4-3.jpg,313190,Red Mill Green Market,,,,,http://redmillcommons.net,,,,,,,"2181 Upton Drive Virginia Beach, VA 23454",Virginia,VIRGINIA BCH,2181 UPTON DR,23454,-75.9985736073517,36.77128183176031,,
farmers market,"Mar 27th, 2023",default-farmersmarket-4-3.jpg,313191,Remington Farmers' Market,,,,540-439-3532,,,,,,,,"Main Street Remington, VA 22734",Virginia,Remington,Main Street,22734,-77.81080707559063,38.53437627072633,,
farmers market,"Mar 27th, 2023",default-farmersmarket-4-3.jpg,313192,Reston Farmers Market,,,info@restonfarmersmarket.com,703-318-9628,http://restonfarmersmarket.com/,,,,,,,"1609 Washington Plaza, Lake Anne Plaza Reston, VA 20190",Virginia,Reston,1609 Washington Plaza,20190,-77.34089725527024,38.969077271860584,,
farmers market,"Mar 27th, 2023",default-farmersmarket-4-3.jpg,313193,Reston Farmers Market by FRESHFARM,,,,,https://www.freshfarm.org/markets/reston*https://twitter.com/FRESHFARMDC,https://facebook.com/freshfarmreston,,,,,,"11900 Lawyers Rd, Reston, Virginia 20191",Virginia,Reston,11900 Lawyers Rd,20191,-77.3581529554972,38.92289255798693,,
farmers market,"Mar 27th, 2023",default-farmersmarket-4-3.jpg,313194,River Street Market,,,,,http://www.riverstreetmarket.com,http://www.facebook.com/riverstreetfarmersmarket,,,,,,"30 River Street Petersburg, VA 23803 Plenty of free parking in the cobblestone streets surroundng the market and public lots near the market.",Virginia,PETERSBURG,30 RIVER ST,23803,-77.4032743131846,37.23398468687644,,
farmers market,"Mar 27th, 2023",default-farmersmarket-4-3.jpg,313195,Roanoke City Market,,,,,https://www.downtownroanoke.org/explore/farmers-market,,,,,,,"Market Square SE, Roanoke, Virginia 24011",Virginia,Roanoke,Market Square SE,24011,-79.93906542357462,37.271792613978334,,
farmers market,"Mar 27th, 2023",default-farmersmarket-4-3.jpg,313196,Roanoke Historic City Market,,,,034-220-2815,http://www.downtownroanoke.org/explore/city-market,,,,,,,"Market Square, Downtown Roanoke Roanoke, VA 24011",Virginia,Roanoke,Market Square,24011,-79.93906542357462,37.271792613978334,,
farmers market,"Mar 27th, 2023",default-farmersmarket-4-3.jpg,313197,Rosslyn Farmers Market,,,,703-522-6628,,,,,,,,"1911 North Fort Myer Drive, Suite LL10 Arlington, VA 22209",Virginia,ARLINGTON,1911 N FORT MYER DR,22209,-77.07248339117652,38.897102790538355,,
farmers market,"Mar 27th, 2023",default-farmersmarket-4-3.jpg,313198,Rural Retreat Farmers Market at the Depot,,,info@therrdepot.com,276-206-2048,http://www.theruralretreatdepot.com/,,,,,,,"P.O. Box 843 Rural Retreat, VA 24368",Virginia,Rural Retreat,P.O. Box 843,24368,-81.27844439999996,36.89600290000004,,
farmers market,"Mar 27th, 2023",default-farmersmarket-4-3.jpg,313199,Saturday Community Farmers Market,,,,703-430-6164,http://www.fairfaxsaturdaymarket.com/,,,,,,,"518 Goldsmith Lane GREAT FALLS, VA 22066",Virginia,GREAT FALLS,518 Goldsmith Lane,22066,-77.33028962086709,39.02968212013328,,
farmers market,"Mar 27th, 2023",default-farmersmarket-4-3.jpg,313200,Scottsville Farmers Market,,,,,http://www.scottsvillefarmersmarket.org,https://facebook.com/@FarmersMarketScottsville,,,,,,"125 Fleet St, Scottsville, Virginia 24590",Virginia,Scottsville,125 Fleet St,24590,-78.49535327058685,37.79844678637959,,
farmers market,"Mar 27th, 2023",default-farmersmarket-4-3.jpg,313201,Second Street Farmer's Market,,,,,http://www.secondstageamherst.org,http://www.facebook.com/SecondStageAmherst,,,,,,"219 Second Street Amherst, VA 24521",Virginia,AMHERST,219 SECOND ST,24521,-79.04923801101137,37.58374952936119,,
farmers market,"Mar 27th, 2023",default-farmersmarket-4-3.jpg,313202,Shawsville Farmers Market,,,ShawsvilleFarmersMarket@gmail.com,540-381-1856,http://shawsvillefarmersmarket.webs.com/,,,,,,,"267 Alleghany Spring Road Shawsville, VA 24162",Virginia,Shawsville,267 Alleghany Spring Road,24162,-80.25578188740624,37.168536539263904,,
farmers market,"Mar 27th, 2023",default-farmersmarket-4-3.jpg,313203,Shenandoah MarketPlace,,,,540-652-1401,,https://www.facebook.com/Shenandoah-Marketplace-1604540023122052/,,,,,,"201 Maryland Avenue Shenandoah, VA 22849",Virginia,Shenandoah,201 Maryland Avenue,22849,-78.62273804248433,38.48395175475637,,
farmers market,"Mar 27th, 2023",default-farmersmarket-4-3.jpg,313204,Shore Drive Farm Market,,,,,,https://facebook.com/shoredrivefarmarket,,,,,,"2947 Shore Dr, Virginia Beach, Virginia 23451",Virginia,Virginia Beach,2947 Shore Dr,23451,-76.0742650349039,36.91003999994604,,
farmers market,"Mar 27th, 2023",default-farmersmarket-4-3.jpg,313205,Sister Cities French Market,,,,757-890-3500,http://www.visityorktown.org/225/Market-Days,http://www.facebook.com/yorktownmarketdays,,,,,,"331 Water Street Yorktown, VA 23690 From the Southside Take I-64 West to Exit 250B (Ft. Eustis/Yorktown). Take a left off the ramp and an immediate right onto Fort Eustis Blvd. Continue on Ft. Eustis",Virginia,YORKTOWN,331 WATER ST,23690,-76.50952316463771,37.23877879579052,,
farmers market,"Mar 27th, 2023",default-farmersmarket-4-3.jpg,313206,Skinquarter Farm Market,,,skinquarterfarmmarket@gmail.com,804-739-9089,,https://www.facebook.com/SkinquarterFarmMarket,,,,,,"20800 Hull Street Rd., Moseley, VA, 23120",Virginia,Moseley,20800 Hull Street Rd.,23120,-77.79125387985567,37.39307858599835,,
farmers market,"Mar 27th, 2023",default-farmersmarket-4-3.jpg,313207,Smart Markets Bristow,,,jean@smartmarkets.org,703-463-0690,http://smartmarkets.org,https://www.facebook.com/smartmarketsbristow/,,,,,,"8301 Linton Hall Rd., Bristow, VA, 20136",Virginia,Bristow,8301 Linton Hall Rd.,20136,-77.59496322848896,38.77387569612725,,
farmers market,"Mar 27th, 2023",default-farmersmarket-4-3.jpg,313208,Smart Markets Chantilly,,,jean@smartmarkets.org,703-463-0690,http://smartmarkets.org,https://www.facebook.com/SmartMarketsChantilly,,,,,,"3460 Centreville Rd., Chantilly, VA, 22051",Virginia,Chantilly,3460 Centreville Rd.,22051,-77.42254802167116,38.908244256556,,
farmers market,"Mar 27th, 2023",default-farmersmarket-4-3.jpg,313209,Smart Markets Huntington,,,jean@smartmarkets.org,,http://smartmarkets.org,,,,,,,"5918 N. Kings Hwy., Alexandria, VA, 22003",Virginia,Alexandria,5918 N. Kings Hwy.,22003,-77.07652769510932,38.78904165031174,,
farmers market,"Mar 27th, 2023",default-farmersmarket-4-3.jpg,313210,Smart Markets Lake Ridge,,,jean@smartmarkets.org,703-463-0690,http://smartmarkets.org,https://www.facebook.com/SmartMarketsTackettsMill,,,,,,"12619 Oakwood Dr., Woodbridge, VA, 22192",Virginia,Woodbridge,12619 Oakwood Dr.,22192,-77.2962197182531,38.6787974236768,,
farmers market,"Mar 27th, 2023",default-farmersmarket-4-3.jpg,313211,Smart Markets Oakton,,,jean@smartmarkets.org,703-463-0690,http://smartmarkets.org,https://www.facebook.com/smartmarketsoakton,,,,,,"2854 Hunter Mill Rd., Oakton, VA, 22124",Virginia,Oakton,2854 Hunter Mill Rd.,22124,-77.30119952858092,38.88480554903723,,
farmers market,"Mar 27th, 2023",default-farmersmarket-4-3.jpg,313212,Smart Markets Reston,,,jean@smartmarkets.org,703-463-0690,http://smartmarkets.org,https://www.facebook.com/smartmarketsreston,,,,,,"1860 Wiehle Ave., Reston, VA, 20190",Virginia,Reston,1860 Wiehle Ave.,20190,-77.33675698343387,38.9485835199439,,
farmers market,"Mar 27th, 2023",default-farmersmarket-4-3.jpg,313213,Smart Markets Springfield,,,jean@smartmarkets.org,703-463-0690,http://smartmarkets.org,https://www.facebook.com/SmartMarketsSpringfield,,,,,,"6699 Spring Mall Dr., Springfield, VA, 22150",Virginia,Springfield,6699 Spring Mall Dr.,22150,-77.18967752432822,38.77344312410067,,
farmers market,"Mar 27th, 2023",default-farmersmarket-4-3.jpg,313214,Smart Markets Tysons,,,jean@smartmarkets.org,703-463-0690,http://smartmarkets.org,https://www.facebook.com/SmartMarketsTysons,,,,,,"8400 Westpark Dr., McLean, VA, 22012",Virginia,McLean,8400 Westpark Dr.,22012,-77.23334419377535,38.92540114074718,,
farmers market,"Mar 27th, 2023",default-farmersmarket-4-3.jpg,313215,Smithfield Farmers Market,,,,757-759-4118,https://www.smithfieldfarmersmarket.org/,https://www.facebook.com/smithfieldfarmersmarket,,,,,,"115 Main Street Smithfield, VA 23430",Virginia,Smithfield,115 Main Street,23430,-76.63124024053266,36.98217552672095,,
farmers market,"Mar 27th, 2023",default-farmersmarket-4-3.jpg,313216,South Boston Farmers Market,,,info@downtownsob.com,434-222-8012,http://www.downtownsouthboston.com/?link=farmers_market,,,,,,,"300 Broad Street South Boston, VA 24592",Virginia,South Boston,300 Broad Street,24592,-78.89995351006831,36.69786988242246,,
farmers market,"Mar 27th, 2023",default-farmersmarket-4-3.jpg,313217,South Hill Farmers Market,,,,434-584-9777,http://www.southhillva.org/visitor-information/farmers-market,http://www.facebook.com/southhillfarmersmarket,,,,,,"105 W. Danville Street South Hill, VA 23970",Virginia,SOUTH HILL,105 W DANVILLE ST,23970,-78.13017774702537,36.724415162592784,,
farmers market,"Mar 27th, 2023",default-farmersmarket-4-3.jpg,313218,South of the James Farmers Market,,,,804-221-6667,,https://facebook.com/SOJmarket/,,,,,,"Forest Hill Avenue & 42nd Street Richmond, VA 23150",Virginia,Richmond,Forest Hill Avenue & 42nd Street,23150,-77.47856004046209,37.51839999925271,,
farmers market,"Mar 27th, 2023",default-farmersmarket-4-3.jpg,313219,South of the James Winter Market,,,,,http://sojmarket.com/,,,,,,,"3411 Semmes Ave Richmond, VA 23225",Virginia,Richmond,3411 Semmes Ave,23225,-77.46986800686916,37.5162070000154,,
farmers market,"Mar 27th, 2023",default-farmersmarket-4-3.jpg,313220,South Street Barn Market,,,,540-325-3768,http://www.southstreetbarnmarket.com,http://www.facebook.com/South-Street-Barn-Market,,,,,,"411 Muhlenburg St. Woodstock, VA 22664 We are located on the American Legion property at the corner of South St. and Muhlenburg St. Ample off-street and street parking.",Virginia,WOODSTOCK,411 S MUHLENBERG ST,22664,-78.50968433388852,38.878778286784524,,
farmers market,"Mar 27th, 2023",default-farmersmarket-4-3.jpg,313221,Southwest Virginia Farmers' Market,,,farmersmarket@carrrollcountyva.org,276-730-3128,http://swvafarmersmarket.org/,https://www.facebook.com/swvafarmersmarket,,,,,,"497 Farmers Market Dr., Hillsville, VA, 24343",Virginia,Hillsville,497 Farmers Market Dr.,24343,-80.77078427458244,36.738822183071115,,
farmers market,"Mar 27th, 2023",default-farmersmarket-4-3.jpg,313222,Spotsylvania Farmers Market - VDOT Commuter Lot,,,,,https://twitter.com/SpotsyFarmMkt*http://www.spotsylvaniafarmersmarket.com*https://instagram.com/spotsylvaniafarmersmarket,https://facebook.com/SpotsyFarmersMarket,,,,,,"12150 Gordon Rd, Fredericksburg, Virginia 22407",Virginia,Fredericksburg,12150 Gordon Rd,22407,-77.56284401638565,38.289728000894996,,
farmers market,"Mar 27th, 2023",default-farmersmarket-4-3.jpg,313223,Spotsylvania Farmers Market at Spotsylvania Regional Medical,,,,540-419-1746,https://www.spotsylvaniafarmersmarket.com/,,,,,,,"4600 Spotsylvania Parkway Fredericksburg, VA 22408",Virginia,Fredericksburg,4600 Spotsylvania Parkway,22408,-77.49639967917648,38.21947676925216,,
farmers market,"Mar 27th, 2023",default-farmersmarket-4-3.jpg,313224,Springfield Farmers Market,,,,,https://www.freshfarm.org/markets/springfield*https://twitter.com/FRESHFARMDC*https://instagram.com/freshfarmspringfield,https://facebook.com/freshfarmspringfield,,,,,,"6699, Springfield, Virginia 22150",Virginia,Springfield,6699,22150,-77.17533790374888,38.773396419721365,,
farmers market,"Mar 27th, 2023",default-farmersmarket-4-3.jpg,313225,St. Andrews Farmers' Market,,,standrewlutheran@verizon.net,757-541-8363,http://www.standrewlutheranportsmouthva.org/pages/,,,,,,,"4811 High STreet Portsmouth, VA 23703",Virginia,Portsmouth,4811 High STreet,23703,-76.37611562893119,36.849688922900704,,
farmers market,"Mar 27th, 2023",default-farmersmarket-4-3.jpg,313226,St. Paul's Downtown Farm Market,,,farmmarket@stpaulsnorfolk.org,757-627-4353,http://www.stpaulsnorfolk.org/outreach-2/downtown-market/,https://www.facebook.com/saintpaulsfarmmarket/,,,,,,"201 Saint Pauls Blvd., Norfolk, VA, 23510",Virginia,Norfolk,201 Saint Pauls Blvd.,23510,-76.28534646582122,36.847119159813936,,
farmers market,"Mar 27th, 2023",default-farmersmarket-4-3.jpg,313227,St. Stephen's Farmers' Market,,,,804-288-2867,http://saintstephensrichmond.net,,,,,,,"6000 Grove Avenue Richmond, VA 23226",Virginia,RICHMOND,6000 GROVE AVE,23226,-77.52192425077928,37.57290821074268,,
farmers market,"Mar 27th, 2023",default-farmersmarket-4-3.jpg,313228,Staunton-Augusta Farmers' Market,,,stauntonaugustafarmersmarket@gmail.com,540-448-1937,http://www.safarmersmarket.com,https://www.facebook.com/safarmersmarket,,,,,,"Byers St. and W. Johnson St., Staunton, VA, 24401",Virginia,Staunton,Byers St. and W. Johnson St.,24401,-79.07291000665766,38.1484599915093,,
farmers market,"Mar 27th, 2023",default-farmersmarket-4-3.jpg,313229,Strasburg Farmers Market,,,,,,https://facebook.com/Strasburgfarmersmarket,,,,,,"181 W King St, Strasburg, Virginia 22657",Virginia,Strasburg,181 W King St,22657,-78.36315318320044,38.98964335406826,,
farmers market,"Mar 27th, 2023",default-farmersmarket-4-3.jpg,313230,Stuart Farmers Market,,,,276-694-3811,,,,,,,,"320 Chestnut Street Stuart, VA 24171",Virginia,STUART,320 CHESTNUT AVE,24171,-80.26863186060224,36.638587208967245,,
farmers market,"Mar 27th, 2023",default-farmersmarket-4-3.jpg,313231,Sunflower Cottage Gourmet Farm Market,,,,540-869-8482,http://www.sunflowercottage.net,,,,,,,"150 Ridgemont Road Middletown, VA 22645",Virginia,MIDDLETOWN,150 RIDGEMONT RD,22645,-78.22111738136154,38.99554152612394,,
farmers market,"Mar 27th, 2023",default-farmersmarket-4-3.jpg,313232,Surry Community Farmers' Market,,,surryfarmersmarket@gmail.com,,,https://www.facebook.com/SurryCommunityFarmersMarket,,,,,,"12099 Rolfe Hwy., Surry, VA, 23883",Virginia,Surry,12099 Rolfe Hwy.,23883,-76.83403778263914,37.14016512765399,,
farmers market,"Mar 27th, 2023",default-farmersmarket-4-3.jpg,313233,Talbot Park Farmers Market,,,,,https://www.norfolkvafarmersmarket.com/talbot-park*https://instagram.com/talbotparkfarmersmarket,https://facebook.com/@talbotparkfarmersmarket,,,,,,"6400 Newport Ave, Norfolk, Virginia 23505",Virginia,Norfolk,6400 Newport Ave,23505,-76.28309586232058,36.90078613487333,,
farmers market,"Mar 27th, 2023",default-farmersmarket-4-3.jpg,313234,Tappahannock Farmers' Market,,,Manager@TappahannockMarket.com,804-445-2067,http://www.tappahannockmarket.com/,https://www.facebook.com/TappahannockMarket,,,,,,"Cross St. and Prince St., Tappahannock, VA, 22560",Virginia,Tappahannock,Cross St. and Prince St.,22560,-76.85959999303314,37.92849001843878,,
farmers market,"Mar 27th, 2023",default-farmersmarket-4-3.jpg,313235,Tazewell Farmers Market,,,,276-385-7414,,https://www.facebook.com/TazewellFarmersMarket/,,,,,,"5350 Witten Valley Road TAZEWELL, VA 24651",Virginia,TAZEWELL,5350 Witten Valley Road,24651,-81.56720211063615,37.099048262261846,,
farmers market,"Mar 27th, 2023",default-farmersmarket-4-3.jpg,313236,"The Bedford Farmer Managed Market, LLC",,,,,,https://www.facebook.com/TheBedfordFarmerManagedMarket/,,,,,,"PO Box 506 BEDFORD, VA 24523",Virginia,BEDFORD,PO Box 506,24523,-79.52289999999994,37.33428500000008,,
farmers market,"Mar 27th, 2023",default-farmersmarket-4-3.jpg,313237,The Carytown Farmers Market,,,,,https://twitter.com/CtownFarmersMkt*http://www.carytownmarket.com/,https://facebook.com/The-Carytown-Farmers-Market-251655224946456,,,,,,"3201 Maplewood Ave, Richmond, Virginia 23221",Virginia,Richmond,3201 Maplewood Ave,23221,-77.48480967581838,37.550051256320884,,
farmers market,"Mar 27th, 2023",default-farmersmarket-4-3.jpg,313238,The Community Farmers' Market,,,,,http://www.fairfaxsaturdaymarket.com/,,,,,,,"10500 Page Ave, Fairfax, Virginia 22030",Virginia,Fairfax,10500 Page Ave,22030,-77.31006480657871,38.84587917839659,,
farmers market,"Mar 27th, 2023",default-farmersmarket-4-3.jpg,313239,The FarmFarm Farmers' Market,,,info@barreloak.com,703-798-8308,http://www.barreloak.com/farmfarm,https://www.facebook.com/TotheFarmwego,,,,,,"3623 Grove Ln., Delaplane, VA, 20144",Virginia,Delaplane,3623 Grove Ln.,20144,-77.90617719997483,38.88715226832607,,
farmers market,"Mar 27th, 2023",default-farmersmarket-4-3.jpg,313240,The Market at Magnolia Green,,,,,http://themarketatmagnoliagreen.com/#home,https://facebook.com/themarketmg,,,,,,"17320 Hull Street Rd, Moseley, Virginia 23120",Virginia,Moseley,17320 Hull Street Rd,23120,-77.73110070611192,37.39198584310703,,
farmers market,"Mar 27th, 2023",default-farmersmarket-4-3.jpg,313241,The Marketplace,,,,540-994-5550,https://www.virginia.org/listing/the-marketplace-pulaski/11567/,https://www.facebook.com/pulaskimarketplace/,,,,,,"20 South Washington Street Pulaski, VA 24301",Virginia,Pulaski,20 South Washington Street,24301,-80.7792779900037,37.04586199347203,,
farmers market,"Mar 27th, 2023",default-farmersmarket-4-3.jpg,313242,The Markets Fare at East Beach,,,,240-370-4028,http://themarketsfare.com/,,,,,,,"8631 Albemarle Dr Norfolk, VA 23503",Virginia,Norfolk,8631 Albemarle Dr,23503,-76.27307144142605,36.941864335633625,,
farmers market,"Mar 27th, 2023",default-farmersmarket-4-3.jpg,313243,The Montpelier Center Farmers Market,,,,,http://www.montpeliercenter.org/farmers-market.html,https://facebook.com/TheMontpelierCenterFarmersMarket,,,,,,"17205 Mountain Rd, Montpelier, Virginia 23192",Virginia,Montpelier,17205 Mountain Rd,23192,-77.68831487082555,37.82393764458326,,
farmers market,"Mar 27th, 2023",default-farmersmarket-4-3.jpg,313244,The National Drive-Thru Market,,,,703-729-8000,,,,,,,,"18980 Upper Belmont Place Leesburg, VA 20176",Virginia,Leesburg,18980 Upper Belmont Place,20176,-77.48919963143261,39.08861997833514,,
farmers market,"Mar 27th, 2023",default-farmersmarket-4-3.jpg,313245,The Onancock Market,,,onancockmarket@gmail.com,757-710-2028,http://onancockmarket.com/,https://www.facebook.com/OnancockMarket,,,,,,"Market St. at Ames St., Onancock, VA, 23417",Virginia,Onancock,Market St. at Ames St.,23417,-75.74998998816591,37.71211998896307,,
farmers market,"Mar 27th, 2023",default-farmersmarket-4-3.jpg,313246,The South of the James Market,,,,,https://twitter.com/growrva*http://growrva.com/,https://facebook.com/GrowRVA,,,,,,"4021 Forest Hill Ave, Richmond, Virginia 23225",Virginia,Richmond,4021 Forest Hill Ave,23225,-77.47497927617023,37.51672943716656,,
farmers market,"Mar 27th, 2023",default-farmersmarket-4-3.jpg,313247,The Sunday Farmers' Market,,,,,http://www.fairfaxsundaymarket.com,,,,,,,"10500 Page Ave, Fairfax, Virginia 22030",Virginia,Fairfax,10500 Page Ave,22030,-77.31006480657871,38.84587917839659,,
farmers market,"Mar 27th, 2023",default-farmersmarket-4-3.jpg,313248,The Surry Farmers Market,,,pbernshausen@surrycountyva.gov,757-294-5271,http://surrycountytourism.com/Farmers_Market.htm,https://www.facebook.com/surrycountyva,,,,,,"45 School Street Surry, VA 23883",Virginia,Surry,45 School Street,23883,-76.83486806765096,37.13381777886574,,
farmers market,"Mar 27th, 2023",default-farmersmarket-4-3.jpg,313249,The Town of Pamplin City Farmers' Market,,,,434-248-6514,,,,,,,,"115 Main Street Pamplin, VA 23958",Virginia,Pamplin,115 Main Street,23958,-78.68133237313106,37.26190516268386,,
farmers market,"Mar 27th, 2023",default-farmersmarket-4-3.jpg,313250,The Virginia Beach Farmers Market,,,,,https://twitter.com/VABeachFarmMrkt*http://www.vbgov.com/farmersmarket,https://facebook.com/VBFarmersMarket,,,,,,"3640 Dam Neck Rd, Virginia Beach, Virginia 23453",Virginia,Virginia Beach,3640 Dam Neck Rd,23453,-76.0920749865901,36.77752399667051,,
farmers market,"Mar 27th, 2023",default-farmersmarket-4-3.jpg,313251,Town of Gate City Farmer's Market,,,,,http://www.townofgatecity.com/,,,,,,,"156 E Jackson St, Gate City, Virginia 24251",Virginia,Gate City,156 E Jackson St,24251,-82.57848442438934,36.63968208489487,,
farmers market,"Mar 27th, 2023",default-farmersmarket-4-3.jpg,313252,Town of Halifax Farmers Market,,,,434-476-2343,,https://www.facebook.com/townofhalifaxfarmersmarket/,,,,,,"209 South Main Street P.O. Box 627 Halifax, VA 24558",Virginia,Halifax,209 South Main Street,24558,-78.92838639585176,36.76321784171909,,
farmers market,"Mar 27th, 2023",default-farmersmarket-4-3.jpg,313253,Town of Hillsville Farmers Market,,,,,https://instagram.com/townohillsvillefarmersmarket,https://facebook.com/townofhillsvillefarmersmarket,,,,,,"405 N Main St, Hillsville, Virginia 24343",Virginia,Hillsville,405 N Main St,24343,-80.73671533822964,36.765828130099955,,
farmers market,"Mar 27th, 2023",default-farmersmarket-4-3.jpg,313254,Town of Mount Jackson Farmers' Market,,,townoffice@mountjackson.com,540-333-0285,http://www.mountjackson.com/,,,,,,,"136 Main Street Mount Jackson, VA 22842",Virginia,Mount Jackson,136 Main Street,22842,-78.64149604987078,38.74822443088696,,
farmers market,"Mar 27th, 2023",default-farmersmarket-4-3.jpg,313255,Tricycle Gardens' Four Season Farmers' Market,,,,804-231-7767,http://tricyclegardens.org/farmers-market/,https://www.facebook.com/tricyclegardens,,,,,,"823 N. 31st St., 31st Street Baptist Church, Richmond, VA, 23223",Virginia,Richmond,823 N. 31st St.,23223,-77.40897085566259,37.53289870279764,,
farmers market,"Mar 27th, 2023",default-farmersmarket-4-3.jpg,313256,Uptown Martinsville Farmers' Market,,,liz@martinsvilleuptown.net,276-632-5688,http://www.martinsvilleuptown.com,https://www.facebook.com/groups/48152046033/,,,,,,"65 W. Main St. , Martinsville, VA, 24114",Virginia,Martinsville,65 W. Main St.,24114,-79.87449759921232,36.69208431261579,,
farmers market,"Mar 27th, 2023",default-farmersmarket-4-3.jpg,313257,Urbanna Farmers Market,,,,,http://www.urbanna.com/pages/allevents.html,,,,,,,"Bonner St & State Rte T-1001, Urbanna, Virginia 23175",Virginia,Urbanna,Bonner St & State Rte T-1001,23175,-76.57869224407945,37.638530192874164,,
farmers market,"Mar 27th, 2023",default-farmersmarket-4-3.jpg,313258,Vienna Farmers Market,,,,703-281-1255,https://viennafarmersmarket.com/,,,,,,,"131 Church Street NE Vienna, VA 22180",Virginia,Vienna,131 Church Street NE,22180,-77.26534240238045,38.90336615700646,,
farmers market,"Mar 27th, 2023",default-farmersmarket-4-3.jpg,313259,Vienna Saturday Farmers' Market,,,manager@viennafarmersmarket.com,,http://www.viennafarmersmarket.com,https://www.facebook.com/pages/Vienna-Farmers-Market/176720262362072,,,,,,"301 Center St. S., Vienna, VA, 22180",Virginia,Vienna,301 Center St. S.,22180,-77.26260831581213,38.89956743703306,,
farmers market,"Mar 27th, 2023",default-farmersmarket-4-3.jpg,313260,Vinton Farmers Market,,,vintoninfo@vintonva.gov,540-983-0613,http://www.vintonva.gov/,,,,,,,"311 S. Pollard Street Vinton, VA 24179",Virginia,Vinton,311 S. Pollard Street,24179,-79.89804564200487,37.27890341191987,,
farmers market,"Mar 27th, 2023",default-farmersmarket-4-3.jpg,313261,Virginia Beach Farmers Market,,,FarmMrkt@vbgov.com,757-385-4388,https://www.vbgov.com/government/departments/agriculture/farmers-market/Pages/default.aspx,https://www.facebook.com/vbfarmersmarket,,,,,,"3640 Dam Neck Rd Virginia Beach, VA 23453",Virginia,Virginia Beach,3640 Dam Neck Rd,23453,-76.0920749865901,36.77752399667051,,
farmers market,"Mar 27th, 2023",default-farmersmarket-4-3.jpg,313262,Virginia Grown Farmers Market at the Olde Dominion Ag Ctr,,,odacsales@gmail.com,434-432-8026,http://oldedominionagriculturecomplex.com/,,,,,,,"19783 US Hwy. 29 South Chatham, VA 24531",Virginia,Chatham,19783 US Hwy. 29 South,24531,-79.40281903725969,36.86485069389514,,
farmers market,"Mar 27th, 2023",default-farmersmarket-4-3.jpg,313263,Wakefield Farmers Market,,,,703-642-0128,http://www.fairfaxcounty.gov/parks/wp-farm-mkt.htm,,,,,,,"8100 Braddock Road (Wakefield Park) Annandale, VA 22003",Virginia,ANNANDALE,8100 BRADDOCK RD,22003,-77.22468687079518,38.81129177376971,,
farmers market,"Mar 27th, 2023",default-farmersmarket-4-3.jpg,313264,Wallops Farmers Market,,,,,,https://www.facebook.com/WallopsFarmersMarket,,,,,,"34001 Mill Dam Road Wallops Island, VA 23337",Virginia,Wallops Island,34001 Mill Dam Road,23337,-75.48273300541692,37.934682987599956,,
farmers market,"Mar 27th, 2023",default-farmersmarket-4-3.jpg,313265,Warrenton Farmers Market,,,,,https://instagram.com/farmersmarketwarrenton*http://www.warrentonva.gov/visitors/local_attractions/index.php,https://facebook.com/warrentonfarmersmarkets,,,,,,"21 Main St, Warrenton, Virginia 20186",Virginia,Warrenton,21 Main St,20186,-77.7951171312285,38.7136239328489,,
farmers market,"Mar 27th, 2023",default-farmersmarket-4-3.jpg,313266,Warsaw Farmers Market,,,,,http://www.warsawfarmersmarket.com/about.html,,,,,,,"Main St & Court Cir, Warsaw, Virginia 22572",Virginia,Warsaw,Main St & Court Cir,22572,-76.75790001487262,37.958530005048274,,
farmers market,"Mar 27th, 2023",default-farmersmarket-4-3.jpg,313267,WaySide Inn Farmers' Market,,,,540-868-2389,,,,,,,,"7783 Main Street, The WaySide Inn Middletown, VA 22645",Virginia,MIDDLETOWN,7783 MAIN ST,22645,-78.27669889607986,39.030360349911824,,
farmers market,"Mar 27th, 2023",default-farmersmarket-4-3.jpg,313268,Wellness Connection Farmer's Market,,,,,http://www.wellnessconnectionllc.com,https://facebook.com/FarmersMarketWC,,,,,,"24600 Millstream Dr #470, Stone Ridge, Virginia 20105",Virginia,Stone Ridge,24600 Millstream Dr,20105,-77.5467076315987,38.937322567991245,,
farmers market,"Mar 27th, 2023",default-farmersmarket-4-3.jpg,313269,West End Farmers' Market,,,westendmkt@aol.com,804-564-9989,http://www.westendfarmersmarket.com/,https://www.facebook.com/West-End-Farmers-Market-95731106669,,,,,,"Gayton Rd. and Ridgefield Pkwy., In Front of Ollies, Henrico, VA, 23238",Virginia,Henrico,Gayton Rd. and Ridgefield Pkwy.,23238,-77.63797000871877,37.62394002062452,,
farmers market,"Mar 27th, 2023",default-farmersmarket-4-3.jpg,313270,West End Farmers Market,,,,,http://www.leapforlocalfood.org/westend,http://www.facebook.com/WestEndCommunityMarket/,,,,,,"1210 Patterson Avenue SW Roanoke, VA 24016 Under the covered pavilion behind Freedom First Credit Union",Virginia,ROANOKE,1210 PATTERSON AVE SW,24016,-79.96225896910735,37.27229642750735,,
farmers market,"Mar 27th, 2023",default-farmersmarket-4-3.jpg,313271,West End Farmers Market,,,,,http://www.westendfarmersmarket.org,http://www.facebook.com/WestEndFarmersMarket,,,,,,"4800 Brenman Park Drive (In Ben Brenman Park) Alexandria, VA 22304",Virginia,ALEXANDRIA,4800 BRENMAN PARK DR,22304,-77.11336762885148,38.80957082667843,,
farmers market,"Mar 27th, 2023",default-farmersmarket-4-3.jpg,313272,West Point Farmers Market,,,info@lmarketing.com,804-843-3330,http://www.west-point.va.us/,,,,,,,"329 6th Street WEST POINT, VA 23181",Virginia,WEST POINT,329 6th Street,23181,-76.79671491429198,37.53075868958741,,
farmers market,"Mar 27th, 2023",default-farmersmarket-4-3.jpg,313273,Westchester Farmers' Market,,,westchestermarketmanager@gmail.com,,https://www.westchesterfarmersmarketpowhatan.com/,,,,,,,"P.O. Box 892 POWHATAN, VA 23139",Virginia,POWHATAN,P.O. Box 892,23139,-77.92002469999994,37.54308590000005,,
farmers market,"Mar 27th, 2023",default-farmersmarket-4-3.jpg,313274,Westlake Farmers Market,,,contact@franklincountyfreshfoods.org,540-482-0577,http://www.franklincountyfreshfoods.org/about-us/,,,,,,,"Intersection of Booker T. Washington Hwy Enterprise Lane Hardy, VA 24101",Virginia,Hardy,Intersection of Booker T. Washington Hwy,24101,-79.7322117403245,37.12150898079571,,
farmers market,"Mar 27th, 2023",default-farmersmarket-4-3.jpg,313275,Westover Farmers Market,,,,,https://twitter.com/WestoverFarmMkt*http://www.westoverfarmersmarket.org/,https://facebook.com/westoverfarmersmarket,,,,,,"1644 N McKinley Rd, Arlington, Virginia 22205",Virginia,Arlington,1644 N McKinley Rd,22205,-77.14244874752572,38.885085442548316,,
farmers market,"Mar 27th, 2023",default-farmersmarket-4-3.jpg,313276,Winchester City Market,,,,540-539-6303,,,,,,,,"Loudoun Street Winchester, VA 22601",Virginia,Winchester,Loudoun Street,22601,-78.16218176268713,39.19322086902714,,
farmers market,"Mar 27th, 2023",default-farmersmarket-4-3.jpg,313277,Winchester Freight Station Farmers Market,,,,,,https://facebook.com/Freight-Station-Farmers-Market-304266982986,,,,,,"315 W Boscawen St, Winchester, Virginia 22601",Virginia,Winchester,315 W Boscawen St,22601,-78.1707244922415,39.1852350804109,,
farmers market,"Mar 27th, 2023",default-farmersmarket-4-3.jpg,313278,Windsor Farmer's Market,,,,757-870-2737,,,,,,,,"11407 Windsor Blvd Windsor, VA 23487",Virginia,Windsor,11407 Windsor Blvd,23487,-76.72708934272625,36.804108041958855,,
farmers market,"Mar 27th, 2023",default-farmersmarket-4-3.jpg,313279,Wise Farmers' Market,,,,,http://www.townofwise.net,https://facebook.com/WiseSpecialEvents,,,,,,"309 E Main St, Wise, Virginia 24293",Virginia,Wise,309 E Main St,24293,-82.57834982324603,36.97690546823793,,
farmers market,"Mar 27th, 2023",default-farmersmarket-4-3.jpg,313280,Woodbine Farm Market,,,,540-465-2729,http://www.woodbinefarmmarket.com,http://www.facebook.com/pages/Woodbine-Farm-Market/289806077760,,,,,,"5199 John Marshall Hwy Strasburg, VA 22657",Virginia,STRASBURG,5199 JOHN MARSHALL HWY,22657,-78.37073547740765,39.05174501387933,,
farmers market,"Mar 27th, 2023",default-farmersmarket-4-3.jpg,313281,Woods Farmers Market,,,,804-590-9231,,,,,,,,"7200 Hickory Road South Chesterfield, VA 23803",Virginia,SOUTH CHESTERFIELD,7200 HICKORY RD,23803,-77.49402268630601,37.26388261957602,,
farmers market,"Mar 27th, 2023",default-farmersmarket-4-3.jpg,313282,Woodstock Farmers Market,,,,540-459-3621,http://www.townofwoodstockva.com/index.aspx?nid=328,,,,,,,"4084 Jadwyn Road Woodstock, VA 22664",Virginia,Woodstock,4084 Jadwyn Road,22664,-78.53829610246456,38.913142675333866,,
farmers market,"Mar 27th, 2023",default-farmersmarket-4-3.jpg,313283,YNot Wednesday Farmers Market at Town Center,,,info@sandlercenter.org,757-385-2787,http://www.sandlercenter.org/ynotwednesdays,,,,,,,"201 Market Street Virginia Beach, VA 23450",Virginia,Virginia Beach,201 Market Street,23450,-76.13590395829449,36.84224901108176,,
farmers market,"Mar 27th, 2023",default-farmersmarket-4-3.jpg,313284,Yorktown Market Days,,,tourism@yorkcounty.gov,757-890-3500,https://www.visityorktown.org/225/Market-Days,,,,,,,"331 Water Street Yorktown, VA 23690",Virginia,Yorktown,331 Water Street,23690,-76.50952316463771,37.23877879579052,,
farmers market,"Mar 27th, 2023",default-farmersmarket-4-3.jpg,313285,Zion Crossroads Farmers and Flea Market,,,,434-589-3205,,,,,,,,"78 Zion Park Ct Troy, VA 22974",Virginia,TROY,78 ZION PARK RD,22974,-78.21424793962332,37.968040261009754,,
farmers market,"May 20th, 2020",default-farmersmarket-4-3.jpg,301101,Purcellville Farmers' Market,,Kelley A Partlow,manager@purcellvillefarmersmarket.com,540-751-8550,https://www.purcellvillefarmersmarket.com/,https://www.facebook.com/PurcellvilleFarmersMarket/,,,,,,"717 E Main Street, Purcellville, Virginia 20132",Virginia,Purcellville,717 E Main Street,20132,-77.703843,39.136603,April to November,"Fresh fruits, Fresh vegetables, Baked goods, Bedding plants, Coffee/tea, Crafts/woodworking items, Cut flowers, Dairy products., Eggs, Fresh/dried herbs, Honey, Juices/non-alcoholic ciders, Maple products, Pet food, Poultry/fowl meat and products, Red/other non-poultry meat and products, Soap/body care products"
farmers market,"May 5th, 2022",farmersmarket_301335_11843_20220505215058.png,301335,Heathsville Farmers Market,,Corinne Becker,info@rhhtfoundationinc.org,804-580-3377,www.rhhtfoundationinc.org,https://www.facebook.com/RHHTFoundationinc,,,,,,"73 Monument Place, Heathsville, Virginia 22473",Virginia,Heathsville,73 Monument Place,22473,-76.473204,37.916391,April to October,"Fresh fruits, Fresh vegetables, Baked goods, Canned or preserved fruits/vegetables, Crafts/woodworking items, Cut flowers, Fish/seafood, Nuts, Prepared foods, Red/other non-poultry meat and products, Soap/body care products"
farmers market,"Sep 10th, 2020",default-farmersmarket-4-3.jpg,300080,Forest Lakes Farmers Market,,Alisa Wildman,Alisawildman@gmail.com,434-531-2733,,https://www.facebook.com/ForestLakesFarmersmarket,,,,,,"1650 Ashwood Blvd., Charlottesville, Virginia 22911",Virginia,Charlottesville,1650 Ashwood Blvd.,22911,-78.44106,38.1087,May to October,"Fresh fruits, Fresh vegetables, Baked goods, Bedding plants, Canned or preserved fruits/vegetables, Coffee/tea, Crafts/woodworking items, Cut flowers, Eggs, Fresh/dried herbs, Honey, Maple products, Nursery stock, Nuts, Poultry/fowl meat and products, Red/other non-poultry meat and products, Soap/body care products"
farmers market,"Sep 10th, 2020",default-farmersmarket-4-3.jpg,301330,The Albemarle Farmers Market,,Alisa Wildman,Alisawildman@gmail.com,434-531-2733,Www.facebook.com/albemarlefarmersmarket,Albemarle farmersmarket,,,,,,"Towncenter lane, Charlottesville, Virginia 22911",Virginia,Charlottesville,Towncenter lane,22911,-78.445556,38.126837,May to September,"Fresh fruits, Fresh vegetables, Baked goods, Bedding plants, Canned or preserved fruits/vegetables, Coffee/tea, Crafts/woodworking items, Cut flowers, Eggs, Fresh/dried herbs"
farmers market,"Sep 11th, 2020",default-farmersmarket-4-3.jpg,300259,Chesterfield County Farmers Market,,Deborah Koller,FarmersMarket@Chesterfield.gov,8047514401,,https://www.facebook.com/CFitFarmersMarket,,,,,,"near 6701 Mimms Loop, Chesterfield, Virginia 23832",Virginia,Chesterfield,near 6701 Mimms Loop,23832,-77.504419,37.376728,May to August,"Fresh fruits, Fresh vegetables, Baked goods, Canned or preserved fruits/vegetables, Coffee/tea, Crafts/woodworking items, Eggs, Fish/seafood, Honey, Maple products, Mushrooms, Poultry/fowl meat and products, Soap/body care products"
farmers market,"Sep 27th, 2021",default-farmersmarket-4-3.jpg,301601,The Historic City Market,,Eric L Pendleton,ericp@downtownroanoke.org,5403422028,Downtownroanoke.org,The Historic City Market,,,,,,"213 Market St SE 3rd Floor, Downtown Roanoke Inc., Roanoke, Virginia 24011",Virginia,Roanoke,213 Market St,24011,-79.939064,37.271606,Year-round,"Fresh fruits, Fresh vegetables, Baked goods, Bedding plants, Canned or preserved fruits/vegetables, Coffee/tea, Crafts/woodworking items, Cut flowers, Eggs, Fresh/dried herbs, Honey, Poultry/fowl meat and products, Red/other non-poultry meat and products, Soap/body care products"
on-farm market,"Apr 10th, 2015",default-onfarmmarket-4-3.jpg,701243,Broma Fields,,Melissa Clark,clarkmk@dukes.jmu.edu,540 298-2522,,,,,,,,"3418 Blose Road, Elkton, Virginia 22827",Virginia,Elkton,3418 Blose Road,22827,-78.599345,38.4463616,,
on-farm market,"Apr 12th, 2016",default-onfarmmarket-4-3.jpg,700257,Oliver Farms LLC,,Jimmy Oliver,orders@oliverproduce.com,757-255-4563,www.oliverproduce.com,"Oliver Farms Produce - Smithfield, VA",,,,,,"18222 Longview Drive, Smithfield, Virginia 23430",Virginia,Smithfield,18222 Longview Drive,23430,-76.606740,36.889185,,
on-farm market,"Apr 14th, 2022",onfarmmarket_700287_13748_20220414144200.png,700287,Dickie Bros. Orchard,,John Bruguiere,John@DickieBros.com,434-277-5516,dickiebros.com,,,,,,,"2685 Dickie Road, Roseland, Virginia 22967",Virginia,Roseland,2685 Dickie Road,22967,-79.043735,37.7743573,,
on-farm market,"Apr 3rd, 2015",default-onfarmmarket-4-3.jpg,701237,Mowery Orchard LLC,,Yvette Bullock,info@moweryorchard.com,5404598645,www.MoweryOrchard.com,www.facebook.com/MoweryOrchard,,,,,,"24247 Senedo Road, Woodstock, Virginia 22664",Virginia,Woodstock,24247 Senedo Road,22664,-78.536544,38.8736475,,
on-farm market,"Apr 4th, 2015",default-onfarmmarket-4-3.jpg,701238,"Aeyles Farm, LLC",,Catherine Tyler,aeylesfarm@hotmail.com,434-825-4092,,,,,,,,"553 Big River Road, Goshen, Virginia 24439",Virginia,Goshen,553 Big River Road,24439,-79.505417,38.019411,,
on-farm market,"Apr 5th, 2019",default-onfarmmarket-4-3.jpg,701475,"Botanical Bites & Provisions, LLC",,Anita Roberson,BotanicalbitesandProvisions@gmail.com,5402870635,https://www.botanicalbitesandprovisionsllc.com/,,,,,,,"4738 Massaponax Church Road, Fredericksburg, Virginia 22408",Virginia,Fredericksburg,4738 Massaponax Church Road,22408,-77.498095,38.193824,,
on-farm market,"Aug 11th, 2014",default-onfarmmarket-4-3.jpg,700828,Riverstone Organic Farm Shop,,Kat Johnson,Riverstone@swva.net,650-814-6426,www.riverstoneorganicfarm.com,www.facebook.com/riverstoneorganicfarm,,,,,,"708 Thompson Road SE, Floyd, Virginia 24091",Virginia,Floyd,708 Thompson Road SE,24091,-80.207099,36.9496830,,
on-farm market,"Aug 13th, 2014",default-onfarmmarket-4-3.jpg,700114,Life Enrichment Sciences,,Ben Gorrell,admin@lifeenrichmentsciences.com,804-824-8235,http://www.lifeenrichmentsciences.com,https://www.facebook.com/lesciences,,,,,,"6155 Hall Town Rd, Gloucester, Virginia 23061",Virginia,Gloucester,6155 Hall Town Rd,23061,-76.543525,37.3731561,,
on-farm market,"Aug 13th, 2014",default-onfarmmarket-4-3.jpg,700282,"Hope of Glory Farm, LLC",,Judi Bisson,judi@hopeofgloryfarm.com,434-286-2121,http://www.hopeofgloryfarm.com/,,,,,,,"86 Old Spring Hill Rd, Scottsville, Virginia 24590",Virginia,Scottsville,86 Old Spring Hill Rd,24590,-78.462800,37.808923,,
on-farm market,"Aug 13th, 2014",default-onfarmmarket-4-3.jpg,700618,Leaning Oak Farm,,Norman Dart,normdart@gmail.com,804-814-0017,,,,,,,,"3800 Newbys Bridge Road , Chesterfield, Virginia 23832",Virginia,Chesterfield,3800 Newbys Bridge Road,23832,-77.535499,37.455605,,
on-farm market,"Aug 13th, 2014",default-onfarmmarket-4-3.jpg,700660,Burnside Farms,,Leslie Dawley,mike@burnsidefarms.com,703-930-3052,www.burnsidefarms.com,www.facebook.com/burnsidefarms,twitter.com/burnsidefarms,,,,,"4905 James Madison Hwy, Haymarket, Virginia 20169",Virginia,Haymarket,4905 James Madison Hwy,20169,-77.636983,38.848823,,
on-farm market,"Aug 13th, 2014",default-onfarmmarket-4-3.jpg,700832,Pampatike Organic Farm,,Carroll N. Curtis,carrollcurtis@pampatike.com,,www.pampatike.com,,,,,,,", King William, Virginia",Virginia,King William,,,-77.111273,37.699796,,
on-farm market,"Aug 14th, 2021",default-onfarmmarket-4-3.jpg,701608,Hop-Ayr Farms,,Amy Hopping,jakobah@alum.mit.edu,617-571-3832,,https://www.facebook.com/HopAyrFarms/,,,,,,"43 Hillcrest Drive, Ruby, Virginia 22556",Virginia,Ruby,43 Hillcrest Drive,22556,-77.538391,38.503077,,
on-farm market,"Aug 20th, 2014",default-onfarmmarket-4-3.jpg,700149,Dragonfly Farms,,Bruce Johnson,bruce@dragonflyfarms.com,804-512-9944,www.dragonflyfarms.com,https://www.facebook.com/dragonflyfarms,,,,,,"16259 Trainham Road, Beaverdam, Virginia 23015",Virginia,Beaverdam,16259 Trainham Road,23015,-77.660639,37.942159,,
on-farm market,"Aug 25th, 2014",default-onfarmmarket-4-3.jpg,700745,The Farm at Boulevard Flower Gardens,,Jennifer Pennison,info@boulevardflowergardens.com,804-526-4000,www.boulevardflowergardens.com,www.facebook.com/blvd.flower.gardens,,,,,,"2100 Ruffin Mill Road, Colonial Heights , Virginia 23834",Virginia,Colonial Heights,2100 Ruffin Mill Road,23834,-77.390184,37.309449,,
on-farm market,"Aug 26th, 2014",default-onfarmmarket-4-3.jpg,700930,The Berrypatch,,Kent Davis,kentdavis@embarqmail.com,963-0659,,,,,,,,"3035 Peavine Hollow Rd, Crozet, Virginia 22932",Virginia,Crozet,3035 Peavine Hollow Rd,22932,-78.605054,38.180684,,
on-farm market,"Aug 28th, 2014",default-onfarmmarket-4-3.jpg,700969,Digging Dog Farm,,Geri Hess,diggingdogfarm@vabb.com,540-207-0401,www.thediggingdogfarm.com,,,,,,,", Richardsville, Virginia 22736",Virginia,Richardsville,,22736,-77.740219,38.392769,,
on-farm market,"Aug 29th, 2014",default-onfarmmarket-4-3.jpg,700986,The Home Farm Store sells Ayrshire Farm products and products from neighboring Virginia farms,,Emily Miller,shop@homefarmstore.com,540-687-8882,www.AyrshireFarm.com,www.facebook.com/ayrshirefarmshires,,,,,,"1 East Washington ST, Middleburg , Virginia 20117",Virginia,Middleburg,1 East Washington ST,20117,-77.735422,38.9690132,,
on-farm market,"Aug 4th, 2014",default-onfarmmarket-4-3.jpg,700801,"Hudson Heritage Farms, LLC",,Denise S. Hudson,hudsonheritage@aol.com,4347539327,https://sites.google.com/site/hudsonheritagefarms/,https://www.facebook.com/pages/Hudson-Heritage-Farms-LLC/172016466152452,,,,,,"14242 River Road, South Boston, Virginia 24592",Virginia,South Boston,14242 River Road,24592,-79.124869,36.6753273,,
on-farm market,"Aug 7th, 2014",default-onfarmmarket-4-3.jpg,700058,Puffenbargers Sugar Orchard,,Ivan Puffenbarger,puffenbargersmaple@gmail.com,540-474-2771,www.puffenbargersugarorchard.com,https://www.facebook.com/puffenbargersugarorchard,,,,,,"17 Maple Syrup Lane, Blue Grass, Virginia 24413",Virginia,Blue Grass,17 Maple Syrup Lane,24413,-79.557554,38.459176,,
on-farm market,"Feb 11th, 2016",default-onfarmmarket-4-3.jpg,700279,Keenbell Farm,,CJ Isbell,keenbellfarm@gmail.com,804-767-0530,www.keenbellfarm.com,www.facebook.com/keenbellfarm,https://www.twitter.com/keenbellfarm,,,,,"18437 Vontay Rd., Rockville, Virginia 23146",Virginia,Rockville,18437 Vontay Rd.,23146,-77.741988,37.754330,,
on-farm market,"Feb 11th, 2016",default-onfarmmarket-4-3.jpg,701315,Skipper Farms,,Skipper Farms,skipperfarms@gmail.com,757-368-0355,Skipperfarms.com,Skipper Farms,,,,,,"1305 Kempsville Rd., Chesapeake, Virginia 23320",Virginia,Chesapeake,1305 Kempsville Rd.,23320,-76.205714,36.7616620,,
on-farm market,"Feb 18th, 2021",default-onfarmmarket-4-3.jpg,701587,Hayes Valley Farms,,Christina Hayes,Hayesfarmlife@gmail.com,276-299-3747,Https://www.hayesvalleyfarms.com,Https://www.facebook.com/hayesvalleyfarms,Https://www.twitter.com/hayesvalleyfarms,,,,,"1341 Matson Drive, Marion , Virginia 24354",Virginia,Marion,1341 Matson Drive,24354,-81.513384,36.810976,,
on-farm market,"Feb 21st, 2015",default-onfarmmarket-4-3.jpg,701216,Miller Farms Market,,Ben Miller,info@millerfarmsmarket.com,540 850 5009,millerfarmsmarket.com,miller farms market,,,,,,"12101 Orange Plank Rd, Locust Grove, Virginia 22508",Virginia,Locust Grove,12101 Orange Plank Rd,22508,-77.753991,38.276201,,
on-farm market,"Jan 12th, 2021",default-onfarmmarket-4-3.jpg,701573,Fields Edge Farm Store,,Steven Houde,info@fieldsedgefarms.com,540-789-2347,www.fieldsedgefarms.com,https://www.facebook.com/fieldsedgefarms,https://twitter.com/fieldsedgefarm,,,,www.fieldsedgefarms.com,"1834 Rush Fork Rd SW, Floyd, Virginia 24091",Virginia,Floyd,1834 Rush Fork Rd SW,24091,-80.411973,36.834950,,
on-farm market,"Jul 15th, 2015",default-onfarmmarket-4-3.jpg,701286,Old Quarter Farm,,Julia Bredder,oldqtrfarm@gmail.com,804-529-9873,,,,,,,,"3572 Lewisetta Road, Lottsburg, Virginia 22511",Virginia,Lottsburg,3572 Lewisetta Road,22511,-76.501531,38.003264,,
on-farm market,"Jul 23rd, 2014",default-onfarmmarket-4-3.jpg,700408,Avery's Branch Farms,,Tim Alexander,averysbranchfarms@yahoo.com,757-651-6731,www.averysbranchfarms.com,https://www.facebook.com/averysbranch,,,,,Avery\'s Branch Farms Blog,"16923 Genito Rd., Amelia, Virginia 23002",Virginia,Amelia,16923 Genito Rd.,23002,-77.991743,37.4460021,,
on-farm market,"Jul 26th, 2014",default-onfarmmarket-4-3.jpg,700148,Dreamland Alpacas,,Debbie McLeish,dreamlandalpacas@aol.com,276-494-6798,dreamlandalpacas@aol.com,https://www.facebook.com/DreamlandAlpacasLLC,,,,,,"13050 Bell Lane, Meadowview, Virginia 24361",Virginia,Meadowview,13050 Bell Lane,24361,-81.861529,36.767740,,
on-farm market,"Jul 26th, 2014",default-onfarmmarket-4-3.jpg,700203,White Oak Lavender Farm,,Julie Haushalter,whiteoaklavender@gmail.com,540-421-6345,,,,,,,,"5060 Newcomer Lane, Harrisonburg, Virginia 22801",Virginia,Harrisonburg,5060 Newcomer Lane,22801,-78.840598,38.364321,,
on-farm market,"Jul 26th, 2014",default-onfarmmarket-4-3.jpg,700409,Autumn Grove Farm,,Bill RIGGAN,autumngrovefarm@verizon.net,804-543-3263,,,,,,,,"221 Ligontown Road, Farmville, Virginia 23901",Virginia,Farmville,221 Ligontown Road,23901,-78.262985,37.384715,,
on-farm market,"Jul 26th, 2014",default-onfarmmarket-4-3.jpg,700420,"Practically Country at Bay Haven Farm, LLC",,Anna Cohen,acohen@bayhavenfarm.com,703-401-4054,www.practicallycountry.com,,,,,,"http://www.bayhavenfarm.com/Bay_Haven_Farm,_LLC/The_Farm_Hands_Almanac/The_Farm_Hands_Almanac.html","19028 Sullystone Ln, Round HIll, Virginia 20141",Virginia,Round HIll,19028 Sullystone Ln,20141,-77.790767,39.0912750,,
on-farm market,"Jul 26th, 2014",default-onfarmmarket-4-3.jpg,700729,A Dozen Eggs,,Belinda Moh,info@PastureRaisedEggs.com,703-829-2317,www.pastureraisedeggs.com,,,,,,,"37938 Charles Town Pike, Purcellville, Virginia 20132",Virginia,Purcellville,37938 Charles Town Pike,20132,-77.690603,39.188266,,
on-farm market,"Jul 27th, 2014",default-onfarmmarket-4-3.jpg,700050,River Oak Farm,,Adam Aucoin Cassy Kelly,info@riveroakfarm.com,434-996-9112,,https://www.facebook.com/riveroakfarm,,,,,,"173 Woodson Rd., Lowesville, Virginia 22967",Virginia,Lowesville,173 Woodson Rd.,22967,-79.066900,37.723022,,
on-farm market,"Jul 27th, 2014",default-onfarmmarket-4-3.jpg,700189,3 Birds Berry Farm,,"Bill Sembello & Irene Lamb, MR",3birdsberryfarm@gmail.com,540-552-4195,3birdsberryfarm.com,https://www.facebook.com/3BirdsBerryFarm,,,,,,"1876 Brooksfield Rd, Blacksburg, Virginia 24060",Virginia,Blacksburg,1876 Brooksfield Rd,24060,-80.491034,37.216789,,
on-farm market,"Jul 27th, 2014",default-onfarmmarket-4-3.jpg,700530,Buckland Farm Market,,,bucklandfarmmarket@gmail.com,540-341-4739,,,,,,,,"4484 Lee Hwy, New Baltimore, Virginia 22824",Virginia,New Baltimore,4484 Lee Hwy,22824,-77.700951,38.770307,,
on-farm market,"Jul 27th, 2014",default-onfarmmarket-4-3.jpg,700637,Appleseed Country Johnsons Orchards and Peaks of Otter Winery,,Danny Johnson,appleseed@earthlink.net,540-586-3707,www.JohnsonsOrchards.com,,,,,,,"2122 Sheep Creek Road, Bedford, Virginia 24523",Virginia,Bedford,2122 Sheep Creek Road,24523,-79.625107,37.397604,,
on-farm market,"Jul 27th, 2014",default-onfarmmarket-4-3.jpg,700708,Golden Eagle Alpaca Farm,,John Gasser,john@goldeneaglealpacafarm.com,757/438-2997,www.goldeneaglealpacafarm.com,,,,,,,"2505 Pittmantown Rod, Suffolk, Virginia 23438",Virginia,Suffolk,2505 Pittmantown Rod,23438,-76.785636,36.5605110,,
on-farm market,"Jul 27th, 2014",default-onfarmmarket-4-3.jpg,700731,"Owen Farm Tours, LLC",,Pattie Owen,info@owenfarmtours.com,434-685-4123,www.owenfarmtours.com,https://www.facebook.com/pages/Owen-Farm-Tours/259048657461865,,,,,,"1668 Silver Creek Road, Danville, Virginia 24540",Virginia,Danville,1668 Silver Creek Road,24540,-79.536983,36.6433000,,
on-farm market,"Jul 28th, 2014",default-onfarmmarket-4-3.jpg,700043,Saddle Ridge Farm,,Keith Farrish,saddleridgefood@gmail.com,703-887-8041,http://www.saddleridgefarm.net/,https://www.facebook.com/saddleridgefarm,https://twitter.com/Saddleridgefarm,,,,,"10208 Jamesons Mill Road, Culpeper, Virginia 22701",Virginia,Culpeper,10208 Jamesons Mill Road,22701,-77.965583,38.563358,,
on-farm market,"Jul 28th, 2014",default-onfarmmarket-4-3.jpg,700192,"Ticonderoga Farms, Inc.",,Molly Mc Grady,marketing@ticonderoga.com,703-327-4424,www.ticonderoga.com,https://www.facebook.com/ticonderogafarms,,,,,,"26469 Ticonderoga Road, Chantilly, Virginia 20152",Virginia,Chantilly,26469 Ticonderoga Road,20152,-77.539724,38.885636,,
on-farm market,"Jul 28th, 2014",default-onfarmmarket-4-3.jpg,700235,Lovers Retreat Farm & Dairy,,Cynthia Wilson,sales@loversretreatfarm.com,804-758-5094,,,,,,,,"1495 Lovers Retreat Lane, Saluda, Virginia 23149",Virginia,Saluda,1495 Lovers Retreat Lane,23149,-76.636272,37.607129,,
on-farm market,"Jul 29th, 2014",default-onfarmmarket-4-3.jpg,700019,Patowmack Farm,,Beverly Morton,info@patowmackfarm.com,540-822-9017,www.patowmackfarm.com,https://www.facebook.com/TheRestaurantatPatowmackFarm,https://www.twitter.com/patowmackfarm,,,,,"42461 Lovettsville Rd., Lovettsville, Virginia 20180",Virginia,Lovettsville,42461 Lovettsville Rd.,20180,-77.555873,39.278467,,
on-farm market,"Jul 29th, 2014",default-onfarmmarket-4-3.jpg,700355,Vintage Virginia Apples LLC,,Charlotte Shelton,fruit@albemarleciderworks.com,434-297-2326,https://www.albemarleciderworks.com/,https://www.facebook.com/pages/Albemarle-CiderWorks/132600710110733,https://twitter.com/AlbCiderWorks,,,,https://www.albemarleciderworks.com/blog,"2545 Rural Ridge Lane, North Garden, Virginia 22959",Virginia,North Garden,2545 Rural Ridge Lane,22959,-78.650136,37.9665310,,
on-farm market,"Jul 29th, 2014",default-onfarmmarket-4-3.jpg,700444,Vaughan Farms Produce,,Robert H. Vaughan,vaughanfarmsproduce@yahoo.com,757-615-4888,www.vaughanfarmsproduce.com/Home_Page.php,,,,,,,"1258 Princess Anne Road, Virginia Beach, Virginia 23457",Virginia,Virginia Beach,1258 Princess Anne Road,23457,-76.026145,36.67243,,
on-farm market,"Jul 2nd, 2015",default-onfarmmarket-4-3.jpg,701274,Westmoreland Berry Farm and Market,,Kane Lloyd,kanelloyd@westmorelandberryfarm.com,804-224-9171,www.westmorelandberryfarm.com,Westmoreland Berry Farm,@westmorelandberryfarm,,,,,"1235 Berry Farm Lane, Colonial Beach, Virginia 22443",Virginia,Colonial Beach,1235 Berry Farm Lane,22443,-77.047207,38.1364403,,
on-farm market,"Jul 30th, 2014",default-onfarmmarket-4-3.jpg,700130,Harmony Harvest Farm LLC,,Jessica Hall,info@harmonyharvestfarm.com,540-230-0100,www.harmonyharvestfarm.com,https://www.facebook.com/harmonyharvestfarm,https://www.twitter.com/harmonyhrvst,,,,,"201 Little Run Road, Weyers Cave, Virginia 24486",Virginia,Weyers Cave,201 Little Run Road,24486,-78.889606,38.2538520,,
on-farm market,"Jul 30th, 2014",default-onfarmmarket-4-3.jpg,700242,Empress Farm,,Michael Taylor,rabbits.for.you@gmail.com,804-994-2221,www.empressfarmfoods.com,,,,,,,"2336 King William Rd., Hanover, Virginia 23069",Virginia,Hanover,2336 King William Rd.,23069,-77.298099,37.810634,,
on-farm market,"Jul 30th, 2014",default-onfarmmarket-4-3.jpg,700405,Beagle Ridge Herb Farm,,Ellen Reynolds,beagleridge@gmail.com,276-621-4511,www.beagleridgeherbfarm.com,https://www.facebook.com/beagleridge,,,,,,"1934 Matney Flats Rd, Wytheville, Virginia 24382",Virginia,Wytheville,1934 Matney Flats Rd,24382,-81.078390,36.8754143,,
on-farm market,"Jun 17th, 2015",default-onfarmmarket-4-3.jpg,701273,Loudounberry Farm & Garden,,Jeff Ertman,jeff@loudounberryfarm.com,(703) 772-8104,www.loudounberryfarm.com,https://www.facebook.com/Loudounberry,,,,,,"14917 James Monroe Hwy, Leesburg, Virginia 20176",Virginia,Leesburg,14917 James Monroe Hwy,20176,-77.537558,39.203664,,
on-farm market,"Jun 18th, 2015",default-onfarmmarket-4-3.jpg,700138,Gallmeyer Farms Veggie Stand,,Steve Gallmeyer,Steve@gallmeyerfarms.com,804-222-2285,http://gallmeyerfarms.com,https://www.facebook.com/gallmeyerfarms,,,,,,"4506 Millers Lane, Richmond, Virginia 23231",Virginia,Richmond,4506 Millers Lane,23231,-77.365067,37.525187,,
on-farm market,"Mar 17th, 2022",default-onfarmmarket-4-3.jpg,701650,Floyd Ecovillage Farmstore,,Christine Mann,rivenwoodgardens@gmail.com,314-456-9219,https://rivenwoodgardens.com/,https://www.facebook.com/RivenwoodGardens,,,,,,"Garden Lane, Floyd, Virginia 24091",Virginia,Floyd,Garden Lane,24091,-80.283322,36.910407,,
on-farm market,"Mar 23rd, 2015",default-onfarmmarket-4-3.jpg,700807,Indian Valley Farms LLC,,Randy Cohen,indianvalleyfarms@gmail.com,540-922-3892,,https://www.facebook.com/pages/Indian-Valley-Farms/127404783941073,,,,,,"824 Indian Valley Post  Office Rd, Indian Valley, Virginia 24105",Virginia,Indian Valley,824 Indian Valley Post  Office Rd,24105,-80.562880,36.900940,,
on-farm market,"Mar 23rd, 2015",default-onfarmmarket-4-3.jpg,701228,Deer Haven Blueberry Patch,,Richard Slakman,info@deerhavenblueberrypatch.com,276-730-4047,www.deerhavenblueberrypatch.comn,Deer Haven Blueberry Patch,,,,,,"118 Raven Ridge, Allisonia , Virginia 24347",Virginia,Allisonia,118 Raven Ridge,24347,-80.699440,36.872617,,
on-farm market,"Mar 24th, 2017",default-onfarmmarket-4-3.jpg,701399,Mount Pleasant Farms,,Jen Vaughan,info@mountpleasantfarms.com,7574820739,www.mountpleasantfarms.com,https://www.facebook.com/mountpleasantfarms/?ref=aymt_homepage_panel,,,,,,"2201 Mount Pleasant Road, Chesapeake, Virginia 23322",Virginia,Chesapeake,2201 Mount Pleasant Road,23322,-76.141122,36.713688,,
on-farm market,"Mar 29th, 2015",default-onfarmmarket-4-3.jpg,700307,Over The Grass Farm,,James Baggett / Deborah Gardener,info@overthegrassfarm.net,540-253-5228,overthegrassfarm.com,,,,,,,"6485 Rock Hill Mill Rd, The Plains, Virginia 20198",Virginia,The Plains,6485 Rock Hill Mill Rd,20198,-77.776489,38.900506,,
on-farm market,"Mar 31st, 2015",default-onfarmmarket-4-3.jpg,700201,Wildwood Alpacas,,Sue Hammer & Judy Howe,wildwoodpacas@yahoo.com,804-633-3310,wildwoodalpacas@aol.com,https://www.facebook.com/wildwood.alpacas?fref=ts,,,,,,"8046 Fredericksburg Tpke, Woodford, Virginia 22580",Virginia,Woodford,8046 Fredericksburg Tpke,22580,-77.393818,38.1521390,,
on-farm market,"Mar 31st, 2015",default-onfarmmarket-4-3.jpg,701235,Ikenberry Orchards,,Ava Gwen Ikenberry,Ikenberryorchard@Gmail.com,540-992-6166,Ikenberryorchards.com,Ikenberry Orchards,n/a,,,,n/a,"2557 Roanoke Road, Daleville, Virginia 24083",Virginia,Daleville,2557 Roanoke Road,24083,-79.909947,37.4210502,,
on-farm market,"May 13th, 2015",default-onfarmmarket-4-3.jpg,700711,Jeter Farm Fall Festival and Country Store,,Rose Jeter,jeterfarm@gmail.com,540-977-5314,www.jeterfarm.com,https://www.facebook.com/pages/Jeter-Farm/138337886208034,https://twitter.com/JeterFarm,,,,,"181 Blue Ridge Boulevard, Roanoke, Virginia 24012",Virginia,Roanoke,181 Blue Ridge Boulevard,24012,-79.864281,37.331027,,
on-farm market,"May 4th, 2016",default-onfarmmarket-4-3.jpg,701336,Mackintosh Fruit Farm,,Lori and Bill Mackintosh,lori@mackintoshfruitfarm.com,5409556225,http://www.mackintoshfruitfarm.com/,https://www.facebook.com/Mackintosh-Fruit-Farm-111618915548297/,,,,,http://www.mackintoshfruitfarm.com/category/blog/,"1608 Russell Rd, Berryville, Virginia 22611",Virginia,Berryville,1608 Russell Rd,22611,-78.043481,39.1940937,,
on-farm market,"Oct 1st, 2015",default-onfarmmarket-4-3.jpg,701299,Sinclair Farm,,Debbie Sinclair,csa@sinclairfarm.com,540-477-9268,http://www.sinclairfarm.com,http://www.facebook.com/sinclair,,,,,,"1167 Crooked Run Rd., Mount Jackson , Virginia 22842",Virginia,Mount Jackson,1167 Crooked Run Rd.,22842,-78.689532,38.764631,,
on-farm market,"Oct 22nd, 2014",default-onfarmmarket-4-3.jpg,700256,Our Father's Farm LLC,,Kim Fuhrmann,orders@ourfathersfarmva.com,434-656-1188,www.ourfathersfarmva.com,,,,,,,"2664 Deer View Rd, Gretna, Virginia 24557",Virginia,Gretna,2664 Deer View Rd,24557,-79.298937,36.9766800,,
on-farm market,"Oct 23rd, 2019",default-onfarmmarket-4-3.jpg,700509,Messicks Farm Market,,Caitlin Taylor,manager@messicksfarmmarket.com,(540)-439-8900,Messicksfarmmarket.com,https://www.facebook.com/MessicksFarmMarket,,,,,,"6025 Catlett Road, Bealeton, Virginia 22712",Virginia,Bealeton,6025 Catlett Road,22712,-77.750604,38.594749,,
on-farm market,"Oct 3rd, 2014",default-onfarmmarket-4-3.jpg,701120,Goat Hill on Farm Market,,"Goat Hill, John O\'Malley BURNS",travelling.goat@gmail.com,5405227878,goathill.farm,https://www.facebook.com/thefarmatlittlewashington?ref=hl,,,,,,"365 Tiger Valley Rd., Washington, Virginia 22747",Virginia,Washington,365 Tiger Valley Rd.,22747,-78.147868,38.702165,,
on-farm market,"Sep 12th, 2014",default-onfarmmarket-4-3.jpg,701063,"Misty Meadows, LLC",,Tracey Chaney,mistymeadowsfarm@live.com,434-446-3739,,misty.meadows.llc,,,,,,"13185 River Rd, South Boston, Virginia 24592",Virginia,South Boston,13185 River Rd,24592,-79.104673,36.6755206,,
on-farm market,"Sep 12th, 2019",default-onfarmmarket-4-3.jpg,701491,Sapphire Farms,,Heather White,sapphirefarmsva@gmail.com,4347707945,https://www.sapphirefarmsva.com/,https://www.facebook.com/pastureanimals/?ref=bookmarks,,,,,,"3174 Thompson Store Road, Vernon Hill, Virginia 24597",Virginia,Vernon Hill,3174 Thompson Store Road,24597,-79.078874,36.785534,,
on-farm market,"Sep 13th, 2014",default-onfarmmarket-4-3.jpg,701066,Dansby's Berry and Asparagus Farm,,John and Elaine Dansby,Dansbyelaine@ymail.com,540-576-3658,Dansbyelaine@ymail.com,,,,,,,"4481 Colonial Turnpike, Rocky Mount, Virginia 24151",Virginia,Rocky Mount,4481 Colonial Turnpike,24151,-79.761102,36.954019,,
on-farm market,"Sep 16th, 2014",default-onfarmmarket-4-3.jpg,700185,"Alpaca Pastures of Virginia, Inc",,Patrick and Sherry McEvoy,AlpacaPasturesVa@aol.com,804-449-1423,www.AlpacaPasturesVA.com,https://www.facebook.com/AlpacaPasturesVA,,,,,,"18388 Beaver Dam Road, Beaverdam, Virginia 23015",Virginia,Beaverdam,18388 Beaver Dam Road,23015,-77.659154,37.912894,,
on-farm market,"Sep 17th, 2014",default-onfarmmarket-4-3.jpg,700246,Pleasant Fields Farm,,Mildred Rudolph,pleasantfields@aol.com,804-304-5984,,Pleasant Fields Farm,,,,,,"1765 Nelsons Bridge Road, Hanover, Virginia 23069",Virginia,Hanover,1765 Nelsons Bridge Road,23069,-77.373362,37.827413,,
on-farm market,"Sep 17th, 2014",default-onfarmmarket-4-3.jpg,700356,Born Free Farm,,Born Free,free.born39@yahoo.com,276-346-3851,http://bornfreefarm.webs.com/apps/webstore/,,,,,,,"P.O. BOX 31, JONESVILLE, Virginia 24263",Virginia,JONESVILLE,P.O. BOX 31,24263,-83.248354,36.614715,,
on-farm market,"Sep 23rd, 2014",default-onfarmmarket-4-3.jpg,700844,Bee Berry Farm,,,busybees@beeberry.farm,,http://beeberryfarm.net/,,,,,,,"1588 Blue Grass Trail, newport, Virginia",Virginia,newport,1588 Blue Grass Trail,,-80.446136,37.3150920,,
on-farm market,"Sep 30th, 2014",default-onfarmmarket-4-3.jpg,700271,Mt Olympus Berry Farm,,Mary West,mary@mtolympusfarm.com,804-387-1450,http://www.mtolympusfarm.com/mtolympusfarm/home.html,https://www.facebook.com/pages/Mt-Olympus-Berry-Farm/46671088391?ref=bookmarks,,,,,,"23298 Jefferson Davis Hwy, Ruther Glen, Virginia 22546",Virginia,Ruther Glen,23298 Jefferson Davis Hwy,22546,-77.482772,37.9422895,,
on-farm market,"Sep 3rd, 2014",default-onfarmmarket-4-3.jpg,700040,Seven Oaks Lavender Farm,,Deborah Williamson,deborah@sevenoakslavenderfarm.com,540-272-7839,www.sevenoakslavenderfarm.com,https://www.facebook.com/sevenoakslavender,,,,,,"8769 Old Dumfries Rd., Catlett, Virginia 20119",Virginia,Catlett,8769 Old Dumfries Rd.,20119,-77.662374,38.6778300,,
on-farm market,"Sep 4th, 2014",default-onfarmmarket-4-3.jpg,701020,Drewry Farm,,Michael Drewry,michael_drewry@yahoo.com,7578993636,www.drewryfarms.com,www.facebook.com-Drewry.Farm.Blueberries,,,,,,"541 Strawberry Lane, Wakefield, Virginia 23888",Virginia,Wakefield,541 Strawberry Lane,23888,-76.965472,37.002663,,
on-farm market,"Sep 5th, 2014",default-onfarmmarket-4-3.jpg,701024,Puffenbargers Farm Beef,,Doug Puffenbarger,dpandtp@htcnet.org,540-474-5712,,Puffenbarger\'s Farm,,,,,,"2476 Maple Sugar Road, Blue Grass, Virginia 24413",Virginia,Blue Grass,2476 Maple Sugar Road,24413,-79.613586,38.4360611,,
on-farm market,"Sep 7th, 2020",default-onfarmmarket-4-3.jpg,701556,GrazeUp Farm LLC,,Chelsie Rice,Grazeupfarm@gmail.com,7575854284,www.grazeupfarm.com,https://www.facebook.com/grazeupfarm,,,,,https://www.grazeupfarm.com/recipes,"188 Seatons Ln, West Point, Virginia 23181",Virginia,West Point,188 Seatons Ln,23181,-76.890206,37.591739,,
