Type,ModifyDate,Image,ListingID,Name,Description,ContactName,ContactEmail,ContactPhone,Website,Facebook,Twitter,Instagram,Pinterest,Youtube,Blog,Address,State,City,Street,Zip,Longitude,Latitude,Dates,Products
farmers market,"Apr 17th, 2022",farmersmarket_301704_14104_20220417202440.png,301704,Grove Street farmers Market,,Monica Albert,grovestreetfarmersmarket@gmail.com,352-514-4140,https://www.grovestreetfarmersmarket.com,https://www.facebook.com/grovestreetfarmersmarket/,,  https://www.instagram.com â€º grovestreetfarmersmarket,,,,"1001 Northwest 4th Street, Gainesville, FL, USA 32601",Florida,Gainesville,1001 Northwest 4th Street,32601,-82.3284448,29.6613472,Year-round,"Fresh fruits, Fresh vegetables, Baked goods, Bedding plants, Canned or preserved fruits/vegetables, Coffee/tea, Crafts/woodworking items, Cut flowers, Dairy products., Eggs, Fish/seafood, Fresh/dried herbs, Honey, Juices/non-alcoholic ciders, Mushrooms, Nursery stock (trees), Nuts, Pet food, Poultry/fowl meat and products, Prepared foods, Red/other non-poultry meat and products, Soap/body care products, Tofu/non-animal protein"
farmers market,"Aug 25th, 2020",default-farmersmarket-4-3.jpg,301316,Delray GreenMarket,,Lori Nolan,nolan@mydelraybeach.com,5612767511,delraycra.org,Delray Beach GreenMarket,,,,,,"NE 2nd Avenue, half block east of Atlantic Avenue, Delray Beach, Florida 33444",Florida,Delray Beach,"NE 2nd Avenue, half block east of Atlantic Avenue",33444,-80.071595,26.462365,,"Fresh fruits, Fresh vegetables, Baked goods, Canned or preserved fruits/vegetables, Coffee/tea, Cut flowers, Dairy products., Eggs, Fish/seafood, Fresh/dried herbs, Honey, Juices/non-alcoholic ciders, Mushrooms, Pet food, Poultry/fowl meat and products, Prepared foods, Red/other non-poultry meat and products, Soap/body care products, Wild harvested forest products"
farmers market,"Aug 31st, 2020",default-farmersmarket-4-3.jpg,301324,Main Street DeFuniak Farmer's Market,,Chelsea Blaich,Director@Mainstreetdfs.org,8502969051,http://www.mainstreetdfs.org/farmers-market/,https://www.facebook.com/MainStreetDFS/,,,,,,"Baldwin Avenue between 7th and 8th St., DeFuniak Springs, Florida 32435",Florida,DeFuniak Springs,Baldwin Avenue between 7th and 8th St.,32435,-86.113700,30.720266,July to September,"Fresh fruits, Fresh vegetables, Baked goods, Bedding plants, Canned or preserved fruits/vegetables, Crafts/woodworking items, Dairy products., Dry beans, Eggs, Fish/seafood, Fresh/dried herbs, Honey, Maple products, Nursery stock, Pet food, Soap/body care products"
farmers market,"Aug 3rd, 2020",default-farmersmarket-4-3.jpg,300063,Yellow Green Farmers Market,,Mark Menagh,info@ygfarmersmarket.com,954-513-3990,www.ygfarmersmarket.com,https://www.facebook.com/YGFarmersMarket,https://twitter.com/ygfarmersmarket,,,https://www.youtube.com/channel/UCvxcGswgI6TnAvlu3nSqB1g?,,"1940 North 30th Road, Hollywood, Florida 33021",Florida,Hollywood,1940 North 30th Road,33021,-80.169243,26.030260,Year-round,"Fresh fruits, Fresh vegetables, Baked goods, Bedding plants, Canned or preserved fruits/vegetables, Coffee/tea, Crafts/woodworking items, Cut flowers, Dairy products., Dry beans, Eggs, Fish/seafood, Fresh/dried herbs, Grains/flour, Honey, Juices/non-alcoholic ciders, Maple products, Mushrooms, Nursery stock, Nuts, Pet food, Poultry/fowl meat and products, Prepared foods, Red/other non-poultry meat and products, Soap/body care products, Tofu/non-animal protein, Wine, spirits, beer, hard cider"
farmers market,"Dec 28th, 2020",default-farmersmarket-4-3.jpg,300219,Legion Park Farmers Market,,Arthur R Friedrich,art@urbanoasisproject.org,7864274698,urbanoasisproject.org,https://www.facebook.com/LegionParkFarmersMarket/,https://twitter.com/urbanoasisproj,,,,,"6601 Biscayne Blvd, Miami, Florida 33138",Florida,Miami,6601 Biscayne Blvd,33138,-80.183684,25.836451,Year-round,"Fresh fruits, Fresh vegetables, Baked goods, Bedding plants, Canned or preserved fruits/vegetables, Coffee/tea, Crafts/woodworking items, Cut flowers, Eggs, Fish/seafood, Fresh/dried herbs, Grains/flour, Honey, Juices/non-alcoholic ciders, Mushrooms, Pet food, Prepared foods, Red/other non-poultry meat and products, Soap/body care products"
farmers market,"Dec 28th, 2020",default-farmersmarket-4-3.jpg,300335,South Miami Farmers Market,,Arthur R Friedrich,art@urbanoasisproject.org,7864274698,http://www.urbanoasisproject.org/farmers-markets.html,,,,,,,"6130 Sunset Dr, Miami, Florida 33143",Florida,Miami,6130 Sunset Dr,33143,-80.291066,25.704072,Year-round,"Fresh fruits, Fresh vegetables, Baked goods, Canned or preserved fruits/vegetables, Coffee/tea, Crafts/woodworking items, Cut flowers, Eggs, Fish/seafood, Fresh/dried herbs, Grains/flour, Honey, Juices/non-alcoholic ciders, Mushrooms, Nuts, Prepared foods, Red/other non-poultry meat and products, Soap/body care products"
farmers market,"Dec 28th, 2020",default-farmersmarket-4-3.jpg,300740,Market Mondays at the Arsht Center,,Arthur R Friedrich,art@urbanoasisproject.org,7864274698,urbanoasisproject.org,https://www.facebook.com/urbanoasisproject,,,,,,"1301 Biscayne Blvd, Miami, Florida 33132",Florida,Miami,1301 Biscayne Blvd,33132,-80.189855,25.787138,Year-round,"Fresh fruits, Fresh vegetables, Baked goods, Canned or preserved fruits/vegetables, Coffee/tea, Dairy products., Eggs, Fresh/dried herbs, Honey, Juices/non-alcoholic ciders, Mushrooms, Pet food, Prepared foods, Red/other non-poultry meat and products, Soap/body care products, Tofu/non-animal protein"
farmers market,"Dec 28th, 2020",default-farmersmarket-4-3.jpg,301361,Vizcaya Village Farmers Market,,Arthur R Friedrich,art@urbanoasisproject.org,7864274698,urbanoasisproject.org,https://www.facebook.com/urbanoasisproject,,,,,,"3250 S. Miami Ave, Miami, Florida 33129",Florida,Miami,3250 S. Miami Ave,33129,-80.212735,25.747026,Year-round,"Fresh fruits, Fresh vegetables, Baked goods, Coffee/tea, Eggs, Fish/seafood, Honey, Juices/non-alcoholic ciders, Mushrooms, Pet food, Prepared foods, Red/other non-poultry meat and products, Soap/body care products, Tofu/non-animal protein"
farmers market,"Feb 17th, 2021",default-farmersmarket-4-3.jpg,300608,Orange Park Farmer's & Arts Market,,Emily Dockery,edockery@townop.com,9042783043,www.OrangeParkMarket.com,@OrangeParkMarket,,,,,,"2042 Park Ave, Orange Park, Florida 32073",Florida,Orange Park,2042 Park Ave,32073,-81.701664,30.165484,September to June,"Fresh fruits, Fresh vegetables, Baked goods, Bedding plants, Canned or preserved fruits/vegetables, Coffee/tea, Crafts/woodworking items, Eggs, Fish/seafood, Fresh/dried herbs, Honey, Maple products, Mushrooms, Pet food, Poultry/fowl meat and products, Prepared foods, Red/other non-poultry meat and products, Soap/body care products"
farmers market,"Feb 9th, 2022",default-farmersmarket-4-3.jpg,301651,South Collier Farmer's Market,,Russ Underwood,info@southcollierfarmersmarket.com,2399892319,https://SouthCollierFarmersMarket.com,https://www.facebook.com/SouthCollierFarmersMarket,https://twitter.com/southcollierfm,,,https://www.youtube.com/channel/UCkpRnTwmz-Ioac8TrDURbvw,,"6060 Collier Blvd, Naples, Florida 34114",Florida,Naples,6060 Collier Blvd,34114,-81.698398,26.045266,December to April,"Fresh fruits, Fresh vegetables, Baked goods, Bedding plants, Canned or preserved fruits/vegetables, Coffee/tea, Crafts/woodworking items, Cut flowers, Dairy products., Fish/seafood, Honey, Mushrooms, Nuts, Pet food, Prepared foods, Soap/body care products, Wild harvested forest products"
farmers market,"Jan 25th, 2021",default-farmersmarket-4-3.jpg,300318,Pinecrest Farmers Market,,Green Market Co-op,Info@greenmarketco-op.org,786-667-6992,www.greenmarketco-op.org,https://www.facebook.com/greenmarketco.op/,https://twitter.com/GreenMarket_FL,,,https://www.youtube.com/channel/UC-evWnGLPGDR9y-HNqku7yQ,,"11000 S. Red Road, Pinecrest, Florida 33156",Florida,Pinecrest,11000 S. Red Road,33156,-80.285895,25.669124,Year-round,"Fresh fruits, Fresh vegetables, Baked goods, Bedding plants, Canned or preserved fruits/vegetables, Coffee/tea, Crafts/woodworking items, Cut flowers, Dairy products., Dry beans, Eggs, Fish/seafood, Fresh/dried herbs, Honey, Juices/non-alcoholic ciders, Mushrooms, Nursery stock, Nuts, Pet food, Poultry/fowl meat and products, Prepared foods, Red/other non-poultry meat and products, Soap/body care products, Tofu/non-animal protein"
farmers market,"Jan 25th, 2021",default-farmersmarket-4-3.jpg,301389,Cape Coral Farmers Market,,Claudia St. Onge,cso@capecoralchamber.com,2395496900,2051 Cape Coral Pkwy. E.,Cape Coral Farmers Market,,,,,,"SE 47th Terrace & SE 10th Place, Cape Coral, Florida 33904",Florida,Cape Coral,SE 47th Terrace & SE 10th Place,33904,-81.954459,26.564457,Year-round,"Fresh fruits, Fresh vegetables, Baked goods, Bedding plants, Canned or preserved fruits/vegetables, Coffee/tea, Crafts/woodworking items, Cut flowers, Dairy products., Dry beans, Eggs, Fish/seafood, Fresh/dried herbs, Honey, Juices/non-alcoholic ciders, Maple products, Mushrooms, Nursery stock, Pet food, Poultry/fowl meat and products, Prepared foods, Red/other non-poultry meat and products, Soap/body care products, Tofu/non-animal protein, Wild harvested forest products"
farmers market,"Jan 4th, 2022",default-farmersmarket-4-3.jpg,301625,Circle Square Commons Farmers Market,,Gary Pierre,info@CircleSquareCommonsFarmersMarket.com,3528543670,www.circlesquarecommons.com,https://www.facebook.com/csctownsquare,,,,,,"8445 SW 80th Street, Ocala, Florida 34481",Florida,Ocala,8445 SW 80th Street,34481,-82.257895,29.106489,Year-round,"Fresh fruits, Fresh vegetables, Baked goods, Canned or preserved fruits/vegetables, Crafts/woodworking items, Dairy products., Eggs, Honey, Poultry/fowl meat and products, Red/other non-poultry meat and products, Soap/body care products"
farmers market,"Jan 5th, 2021",default-farmersmarket-4-3.jpg,300570,Union Street Farmers Market @ Celebration Pointe,,Charles Lybrand,charlielf@msn.com,3864623192,unionstreetfarmersmkt.com,Union Street Farmers Market,,,,,,"4949 Celebration Pointe Ave, Gainesville , Florida 32608",Florida,Gainesville,4949 Celebration Pointe Ave,32608,-82.395520,29.625490,Year-round,"Fresh fruits, Fresh vegetables, Baked goods, Bedding plants, Canned or preserved fruits/vegetables, Coffee/tea, Crafts/woodworking items, Cut flowers, Dairy products., Eggs, Fish/seafood, Fresh/dried herbs, Honey, Juices/non-alcoholic ciders, Mushrooms, Nuts, Pet food, Poultry/fowl meat and products, Prepared foods, Red/other non-poultry meat and products"
farmers market,"Mar 20th, 2020",default-farmersmarket-4-3.jpg,301060,Soutel Community Market,,Samuel Phillips,support@soutelcommunitymarket.com,904-290-1766,4750 Soutel Dr,https://www.facebook.com/SoutelCommunityMarket/,https://twitter.com/SoutelM,,,,,"4750 Soutel Dr, Jacksonville, Florida 32208",Florida,Jacksonville,4750 Soutel Dr,32208,-81.720010,30.403740,April to October,"Fresh fruits, Fresh vegetables, Canned or preserved fruits/vegetables, Coffee/tea, Prepared foods, Soap/body care products"
farmers market,"Mar 20th, 2023",default-farmersmarket-4-3.jpg,309274,Apollo Beach Outdoor Market,,,,,http://www.jens-market.com/market-locations.html,,,,,,,"6176 N. US Hwy. 41 , Apollo Beach, FL, 33572",Florida,Apollo Beach,6176 N. US Hwy. 41,33572,-82.39256931557465,27.76790617617301,,
farmers market,"Mar 20th, 2023",default-farmersmarket-4-3.jpg,309275,Abacoa Town Center Green Market,,,,561-756-3600,https://www.slowfoodgtc.com/,,,,,,,"Town Center Drive Jupiter, FL 33458",Florida,Jupiter,Town Center Drive,33458,-80.11462126032335,26.889722300597697,,
farmers market,"Mar 20th, 2023",default-farmersmarket-4-3.jpg,309276,Alachua Farmers Market,,,,386-462-3333,http://alachuafarmersmarket.com,http://www.facebook.com/alachuafarmersmarket,,,,,,"14801 Main Street Alachua, FL 32615 Just 2 blocks from 441. The market is located behind the Chamber of Commerce office at 14801 Main Street Alachua, FL 32615. Parking is right in front of the market",Florida,ALACHUA,14801 MAIN ST,32615,-82.49566620554452,29.790725267553626,,
farmers market,"Mar 20th, 2023",default-farmersmarket-4-3.jpg,309277,Alico Crossing Market,,,,239-333-9906,http://www.getucooking.com,http://www.facebook.com/AlicoCrossingMarket,,,,,,"17051 Jean St. #7 Fort Myers, FL 33967 Corner of Alico Road and Jean St. Alico Road exit 128 off I75 turn west and travel about 1 mile. Market is located on the south side of Alico Road in a Terracott",Florida,FORT MYERS,17051 JEAN ST,33967,-81.82901615376133,26.49186352001724,,
farmers market,"Mar 20th, 2023",default-farmersmarket-4-3.jpg,309278,Alliance for the Arts Green Market,,,greenmarket@artinlee.org,239-939-2787,http://www.artinlee.org/visit/greenmarket/,https://www.facebook.com/AllianceGreenMarket,,,,,,"10091 McGregor Blvd., Fort Myers, FL, 33919",Florida,Fort Myers,10091 McGregor Blvd.,33919,-81.89123918376251,26.595347476469303,,
farmers market,"Mar 20th, 2023",default-farmersmarket-4-3.jpg,309279,Aventura Farmers Market,,,,,http://aventuramall.com/aventura-market/,,,,,,,"19501 Biscayne Blvd. Aventura, FL 33180 Located on the Lower Level",Florida,AVENTURA,19501 BISCAYNE BLVD,33160,-80.14689529519562,25.95706230064707,,
farmers market,"Mar 20th, 2023",default-farmersmarket-4-3.jpg,309280,"Baker County Farmers' Market, Inc.",,,,904-259-6433,,,,,,,,"160 West Blvd. Beside Football Stadium Macclenny, FL 32063",Florida,Macclenny,160 West Blvd.,32063,-82.12806300359222,30.28319901334271,,
farmers market,"Mar 20th, 2023",default-farmersmarket-4-3.jpg,309281,Battens Farmers Market,,,,954-990-7820,https://www.newbattensfarmersmarket.com/,https://www.facebook.com/#!/pages/Battens-Farmers-Market/100985683329500,,,,,,"5151 SW 64th Avenue Davie, FL 33314",Florida,Davie,5151 SW 64th Avenue,33314,-80.23182771193216,26.056719764991787,,
farmers market,"Mar 20th, 2023",default-farmersmarket-4-3.jpg,309282,Beach Baptist Farmers Market Fort Myers Beach,,,,,http://41markets.com,http://www.facebook.com/beachbaptistfarmersmarket,,,,,,"130 Connecticut Street Fort Myers Beach, FL 33931 Go to the middle of the island on Estero Blvd until you come to Connecticut Street. We are at the First Baptist Church on the corner of both streets.",Florida,FORT MYERS BEACH,130 CONNECTICUT ST,33931,-81.9304132323569,26.443105674275674,,
farmers market,"Mar 20th, 2023",default-farmersmarket-4-3.jpg,309283,Beaches Green Market,,,martin@beacheslocalfoodnetwork.org,904-270-0273,https://www.beacheslocalfoodnetwork.org/,,,,,,,"A1A and Florida Boulevard Neptune Beach, FL 32266",Florida,Neptune Beach,A1A and Florida Boulevard,32266,-81.4140849213024,30.31786298465329,,
farmers market,"Mar 20th, 2023",default-farmersmarket-4-3.jpg,309284,Beaches Green Market,,,martin@beacheslocalfoodnetwork.org,904-270-0273,https://www.beacheslocalfoodnetwork.org/,https://www.facebook.com/beacheslocalfoodnetwork#!/pages/Neptune-Beach-FL/Beaches-Local-Food-Network/,,,,,,"1166 3rd Ave. North Jacksonville Beach, FL 32250",Florida,Jacksonville Beach,1166 3rd Ave. North,32250,-81.40196753258422,30.290634460734726,,
farmers market,"Mar 20th, 2023",default-farmersmarket-4-3.jpg,309285,Boca Raton GreenMarket,,,,561-299-8684,,,,,,,,"201 West Palmetto Park Rd (Adjacent to Boca Raton City Hall) Boca Raton, FL 33432",Florida,Boca Raton,201 West Palmetto Park Rd,33432,-80.08994527641171,26.35047429910994,,
farmers market,"Mar 20th, 2023",default-farmersmarket-4-3.jpg,309286,Bonita Shores Club Farmer's Market,,,,239-980-4341,http://www.inyoniorganicfarm.store,http://www.facebook.com/inyoniorganicfarm,,,,,,"315 West Avenue Bonita Springs, FL 34134 This market will begin Wednesday, November 18, 2020! The Bonita Shores Club Farmer's Market will be OUTSIDE in the parking lot of the Club. This market will h",Florida,BONITA SPGS,315 WEST AVE,34134,-81.82713840991123,26.326702416617135,,
farmers market,"Mar 20th, 2023",default-farmersmarket-4-3.jpg,309287,BTN Lake Nona Farmers' Market,,,lakenonafarmersmarket@gmail.com,,,https://www.facebook.com/LakeNonaFarmersFreshMarket,,,,,,"12350 Narcoossee Rd., Valencia College, Orlando, FL, 32832",Florida,Orlando,12350 Narcoossee Rd,32832,-81.24462581918476,28.38212585157524,,
farmers market,"Mar 20th, 2023",default-farmersmarket-4-3.jpg,309288,Butler Plaza Satellite Market,,,,352-371-8236,,,,,,,,"3736 SW Archer Road Gainesville, FL 32608",Florida,Gainesville,3736 SW Archer Road,32608,-82.3796131029268,29.620884804703284,,
farmers market,"Mar 20th, 2023",default-farmersmarket-4-3.jpg,309289,C & L Farms and Market,,,,239-357-5952,https://www.leeclfarms.com/,https://www.facebook.com/#!/pages/C-L-Farms-and-Market/289773682264,,,,,,"20290 Palm Beach Blvd Alva, FL 33920",Florida,Alva,20290 Palm Beach Blvd,33920,-81.62702359334892,26.708485952908404,,
farmers market,"Mar 20th, 2023",default-farmersmarket-4-3.jpg,309290,Celebration Sunday Farmers' Market,,,,407-892-1135,,,,,,,,"690 Celebration Avenue Celebration, FL 34747",Florida,Celebration,690 Celebration Avenue,34747,-81.54054171783335,28.31920743979159,,
farmers market,"Mar 20th, 2023",default-farmersmarket-4-3.jpg,309291,Central Sarasota Farmers Market,,,,941-677-0078,http://centralsarasotafarmersmarket.com,http://www.facebook.com/CentralSarasotaFarmersMarket,,,,,,"4748 S Beneva Rd Sarasota, FL 34233",Florida,SARASOTA,4748 BENEVA RD,34233,-82.49756602836854,27.28498972736178,,
farmers market,"Mar 20th, 2023",default-farmersmarket-4-3.jpg,309292,CHC Farmer's Market,,,,305-279-7999,http://chcmiami.org,,,,,,,"7991 SW 117th Ave Miami Miami, FL 33183",Florida,MIAMI,7991 SW 117TH AVE,33183,-80.38198768370931,25.693811354716328,,
farmers market,"Mar 20th, 2023",default-farmersmarket-4-3.jpg,309293,Chiefland Farmer's Market,,,,352-493-1849,,http://www.facebook.com/pages/Chiefland-Farmers-Market/1505265436358960?ref=hl,,,,,,"23 SE 2nd Avenue Chiefland, FL 32626",Florida,CHIEFLAND,"23 SE 2 AVE, CHIEAND",32626,-82.85934044156859,29.477014975285083,,
farmers market,"Mar 20th, 2023",default-farmersmarket-4-3.jpg,309294,Citrus Hills Farmers Market,,,,,http://www.clubhappenings.com,,,,,,,"240 W. Fenway Dr. Hernando, FL 34442",Florida,HERNANDO,240 W FENWAY DR,34442,-82.4396616729325,28.891471198622448,,
farmers market,"Mar 20th, 2023",default-farmersmarket-4-3.jpg,309295,City Island Farmers' Market,,,chamoiscat@msn.com,386-671-3272,http://www.see-daytonabeach.com/shopping/listings/downtown-farmers-market-on-city-island/#.Ve7smdLBwXA,,,,,,,"105 E. Orange Ave., Jackie Robinson Stadium Parking Lot, Daytona Beach, FL, 32114",Florida,Daytona Beach,105 E. Orange Ave,32114,-81.01825307148808,29.20806195574425,,
farmers market,"Mar 20th, 2023",default-farmersmarket-4-3.jpg,309296,Clearwater Downtown Farmers' Market,,,pbjfernandez@gmail.com,727-461-7674,http://www.clearwaterfarmersmarketplace.com/,https://www.facebook.com/CWFarmersMarket,,,,,,"500 Block of Cleveland St., Clearwater, FL, 33755",Florida,Clearwater,500 Block of Cleveland St.,33755,-82.79991310826598,27.965628020039613,,
farmers market,"Mar 20th, 2023",default-farmersmarket-4-3.jpg,309297,Clearwater Gateway Farmers Market,,,,727-776-7932,http://www.myclearwatermarket.com,http://www.facebook.com/ClearwaterGatewayFarmersMarket,,,,,,"612 Franklin Street Clearwater, FL 33756",Florida,CLEARWATER,612 FRANKLIN ST,33756,-82.7983628799782,27.962994913111856,,
farmers market,"Mar 20th, 2023",default-farmersmarket-4-3.jpg,309298,Cocoa Farmers' Market,,,,321-917-0721,https://www.cocoafarmersmarket.com/,,,,,,,"605 Florida Avenue Cocoa, FL 32922",Florida,Cocoa,605 Florida Avenue,32922,-80.72776353582337,28.353427496504423,,
farmers market,"Mar 20th, 2023",default-farmersmarket-4-3.jpg,309299,Coconut Grove Organic Market,,,Email not found,305-238-7747,https://www.glaserorganicfarms.com/market.php,,,,,,,"3300 Grand Ave., Miami, FL, 33231",Florida,Miami,3300 Grand Ave.,33231,-80.2469014569701,25.727912551147227,,
farmers market,"Mar 20th, 2023",default-farmersmarket-4-3.jpg,309300,Coconut Point Farmers Market,,,Betsy@BuyLocalLee.com,239-218-1055,http://buylocallee.com/farmers-markets/coconut-point/,https://www.facebook.com/CoconutPointFarmersMarket,,,,,,"23106 Fashion Dr., Estero, FL, 33928",Florida,Estero,23106 Fashion Dr.,33928,-81.80727775402084,26.40447692527895,,
farmers market,"Mar 20th, 2023",default-farmersmarket-4-3.jpg,309301,Collier County Government Complex Farmers' Market,,,deborah.chesna@flhealth.gov,239-252-2594,http://collier.ifas.ufl.edu/Agriculture/Farmers-Market.shtml,,,,,,,"3335 U.S. 41 E., County Government Complex, (in parking garage), Naples, FL, 34112",Florida,Naples,3335 U.S. 41 E.,34112,-81.76546620609207,26.126465710420366,,
farmers market,"Mar 20th, 2023",default-farmersmarket-4-3.jpg,309302,Collins Park Sunday Market,,,,305-531-0038,https://www.themarketcompany.org/,,,,,,,"Collins Avenue & 22nd Street Miami Beach, FL 33139",Florida,Miami Beach,Collins Avenue & 22nd Street,33139,-80.1283300016673,25.797559994178613,,
farmers market,"Mar 20th, 2023",default-farmersmarket-4-3.jpg,309303,Coral Gables Farmers Market,,,,305-460-5607,http://www.coralgables.com,,,,,,,"405 Biltmore Way Coral Gables, FL 33134",Florida,CORAL GABLES,405 BILTMORE WAY,33134,-80.26400482766374,25.748346614139063,,
farmers market,"Mar 20th, 2023",default-farmersmarket-4-3.jpg,309304,Delray Green Market in the Park,,,,561-276-7511,https://www.delraycra.org/,,,,,,,"SE 4th Avenue & Atlantic Avenue Delray Beach, FL 33483",Florida,Delray Beach,SE 4th Avenue & Atlantic Avenue,33483,-80.06905997175214,26.46165998487811,,
farmers market,"Mar 20th, 2023",default-farmersmarket-4-3.jpg,309305,Doral Farmers' Market,,,farmersmarketdoral@gmail.com,786-553-6929,http://doralmarket.com/,https://www.facebook.com/DoralFarmersMarket,,,,,,"9659 NW 41st St., Miami, FL, 33178",Florida,Miami,9659 NW 41st St.,33178,-80.35249082474041,25.811664817217107,,
farmers market,"Mar 20th, 2023",default-farmersmarket-4-3.jpg,309306,Downtown Clearwater Farmers' Market,,,pbjfernandez@gmail.com,727-461-7674,http://www.clearwaterfarmersmarketplace.com/,https://www.facebook.com/CWFarmersMarket,,,,,,"500 Cleveland St., Downtown Clearwater, Clearwater, FL, 33755",Florida,Clearwater,"500 Cleveland St., Downtown",33755,-82.79991310826598,27.965628020039613,,
farmers market,"Mar 20th, 2023",default-farmersmarket-4-3.jpg,309307,Downtown Dadeland Market,,,,305-779-3173,http://downtowndadeland.com/,http://www.facebook.com/downtowndadelandretail,,,,,,"7250 N Kendall Dr Miami, FL 33156 Parking available in the underground parking garage. Three hour parking validation available upon request if you dine at any Downtown Dadeland restaurant.",Florida,MIAMI,7250 N KENDALL DR,33156,-80.3127016432327,25.68872999490318,,
farmers market,"Mar 20th, 2023",default-farmersmarket-4-3.jpg,309308,Downtown Daytona Beach Farmers' Market,,,,386-258-8150,https://www.downtowndaytonabeach.com/,,,,,,,"105 E. Orange Ave Daytona Beach, FL 32114",Florida,Daytona Beach,105 E. Orange Ave,32114,-81.01825307148808,29.20806195574425,,
farmers market,"Mar 20th, 2023",default-farmersmarket-4-3.jpg,309309,Downtown Farmers' and Produce Market,,,allen@downtownmarket.com,850-224-3252,http://www.downtownmarket.com,,,,,,,"115 E. Park Ave., Tallahassee, FL, 32301",Florida,Tallahassee,115 E. Park Ave.,32301,-84.28172868384266,30.44187403142108,,
farmers market,"Mar 20th, 2023",default-farmersmarket-4-3.jpg,309310,Downtown Farmers' Curb Market,,,DFCMmanager@gmail.com,863-944-7907,http://farm.lakelanddda.org/,https://www.facebook.com/FarmersCurbMarket,,,,,,"200 N. Kentucky Ave., Lakeland, FL, 33801",Florida,Lakeland,200 N. Kentucky Ave.,33801,-81.95520118149612,28.045073498286044,,
farmers market,"Mar 20th, 2023",default-farmersmarket-4-3.jpg,309311,Downtown Fernandina Beach Market Place,,,,904-557-8229,http://www.FernandinaBeachMarketPlace.com,http://www.facebook.com/FernandinaBeachMarketPlace,,,,,,"1 North 7th Street Fernandina Beach, FL 32034",Florida,FERNANDINA BCH,1 N 7TH ST,32034,-81.45940927262336,30.67200651146228,,
farmers market,"Mar 20th, 2023",default-farmersmarket-4-3.jpg,309312,Downtown Fort Walton Beach Farmers Market,,,,,http://www.downtownfwb.com,http://www.facebook.com/DowntownFWB,,,,,,"201 Miracle Strip Parkway S.E Fort Walton Beach , FL 32548",Florida,FORT WALTON BEACH,201 MIRACLE STRIP PKWY,32548,-86.6049860169203,30.403799009697423,,
farmers market,"Mar 20th, 2023",default-farmersmarket-4-3.jpg,309313,Downtown Kissimmee Farmers' Market,,,,407-892-1135,,,,,,,,"Darlington Avenue and Pleasant Street Kissimmee, FL 34741",Florida,Kissimmee,Darlington Avenue and Pleasant Street,34741,-81.40656001000039,28.292180005597032,,
farmers market,"Mar 20th, 2023",default-farmersmarket-4-3.jpg,309314,Downtown MarketPlace Tallahassee,,,,850-224-3252,http://tallahasseedowntown.com,,,,,,,"119 E Park Avenue Tallahassee, FL 32301 The Market located between two one-way streets in Downtown Tallahassee that cross Monroe Street. There are giant oak trees hanging over Monroe Street there so i",Florida,TALLAHASSEE,119 E PARK AVE,32301,-84.28168211344772,30.44187262446051,,
farmers market,"Mar 20th, 2023",default-farmersmarket-4-3.jpg,309315,Downtown Melbourne Farmers' Market,,,tcsfoods@yahoo.com,321-759-3713,,https://www.facebook.com/Downtown-Melbourne-Farmers-Market-297894340260585,,,,,,"1900 S. Harbor City Blvd., Melbourne, FL, 32901",Florida,Melbourne,1900 S. Harbor City Blvd.,32901,-80.60344385698937,28.079843598479655,,
farmers market,"Mar 20th, 2023",default-farmersmarket-4-3.jpg,309316,Downtown New Port Richey Market,,,,727-842-8066,https://www.nprmainstreet.com/,,,,,,,"Nebraska Avenue & Adams Street New Port Richey, FL 34652",Florida,New Port Richey,Nebraska Avenue & Adams Street,34652,-82.71821998186327,28.249720008228778,,
farmers market,"Mar 20th, 2023",default-farmersmarket-4-3.jpg,309317,Downtown Vero Green Market,,,,772-528-8900,https://www.mainstreetverobeach.org/FarmersMarket.html,,,,,,,"2140 14th Avenue Vero Beach, FL 32960",Florida,Vero Beach,2140 14th Avenue,32960,-80.3993290477722,27.640279296688497,,
farmers market,"Mar 20th, 2023",default-farmersmarket-4-3.jpg,309318,Dunedin Green Market,,,,727-733-4215,,,,,,,,"Main Street and Douglas Avenue Dunedin, FL 34698",Florida,Dunedin,Main Street and Douglas Avenue,34698,-82.78790997471097,28.011770014656605,,
farmers market,"Mar 20th, 2023",default-farmersmarket-4-3.jpg,309319,Eastside Farmers' Market,,,eastsidefarmersmarkettlh@gmail.com,850-590-2277,,https://www.facebook.com/eastsidefarmersmarkettallahassee,,,,,,"3725 Apalachee Pkwy., Tallahassee, FL, 32311",Florida,Tallahassee,3725 Apalachee Pkwy.,32311,-84.20865203449905,30.427863998537816,,
farmers market,"Mar 20th, 2023",default-farmersmarket-4-3.jpg,309320,Eau Gallie Farmers' Market,,,,321-917-0721,https://www.eaugalliefarmersmarket.com/,,,,,,,"Eau Gallie Boulevard and Highland Avenue Melbourne, FL 32935",Florida,Melbourne,Eau Gallie Boulevard and Highland Avenue,32935,-80.62707997887725,28.13040998677276,,
farmers market,"Mar 20th, 2023",default-farmersmarket-4-3.jpg,309321,Ellenville's Moonlit Farmers Market,,,,561-245-7347,,,,,,,,"220 NE 11th St Boca Raton, FL 33432",Florida,BOCA RATON,220 NE 11TH ST,33432,-80.08282663345304,26.360603098720848,,
farmers market,"Mar 20th, 2023",default-farmersmarket-4-3.jpg,309322,Evans Center Farmers Market,,,,562-234-2244,http://evanscenter.org/?page_id=687,http://www.facebook.com/EvansCenter/,,,,,,"1361 Florida Ave. NE Palm bay, FL 32905 Across from LIPSCOMB PARK",Florida,PALM BAY,1361 ORIDA AVE NE,32905,-80.59912079566811,28.05650534955593,,
farmers market,"Mar 20th, 2023",default-farmersmarket-4-3.jpg,309323,Farmers' Market @ Hoover's Market,,,,407-869-0000,http://www.hooversmarket.com/,,,,,,,"1035 Academy Dr., Hoover's Market, Altamonte Springs, FL, 32714",Florida,Altamonte Springs,"1035 Academy Dr., Hoover's Market",32714,-81.43101899019956,28.666051988800078,,
farmers market,"Mar 20th, 2023",default-farmersmarket-4-3.jpg,309324,Farmers' Market Oceanside,,,info@verobeachoba.com,772-532-2455,http://www.verobeachoba.com/#!farmers-market/cev,https://www.facebook.com/pages/Farmers-Market-Oceanside-Vero-Beach/152887738074704,,,,,,"Corner of Ocean Dr. and Dahlia Ln., Vero Beach, FL, 32963",Florida,Vero Beach,Ocean Dr. and Dahlia Ln.,32963,-80.35547002235216,27.649650004529235,,
farmers market,"Mar 20th, 2023",default-farmersmarket-4-3.jpg,309325,Farmers Market of San Marco,,,,,,http://www.facebook.com/pages/Farmers-Market-of-San-Marco/226953507362506,,,,,,"1620 Naldo Ave, Corner of LaSalle and Hendricks behind Regions Bank Jacksonville , FL 32207",Florida,JACKSONVILLE,1620 NALDO AVE,32207,-81.65582116084995,30.30842535535048,,
farmers market,"Mar 20th, 2023",default-farmersmarket-4-3.jpg,309326,Fatto a Mano ArtWalk Market,,,,954-394-2970,,http://www.facebook.com/BrowardEventsInc,,,,,,"3355 NE 33rd St. Fort Lauderdale, FL 33308 Take Oakland Park Blvd East to A1A and make a left. Go about 1 block to 33rd St and make a left into the North Beach Restaurants & Shoppes Plaza. You have ar",Florida,FORT LAUDERDALE,3355 NE 33RD ST,33308,-80.10104743198352,26.169076929253393,,
farmers market,"Mar 20th, 2023",default-farmersmarket-4-3.jpg,309327,Fellsmere Farmers Market and Mercado,,,,772-413-1784,,http://www.facebook.com/FellsmereFarmersMarketandMercado,,,,,,"22 S. Orange Street Fellsmere, FL 32948",Florida,FELLSMERE,22 S ORANGE ST,32948,-80.60249267143398,27.765794937944207,,
farmers market,"Mar 20th, 2023",default-farmersmarket-4-3.jpg,309328,Fellsmere Fresh Farmers' Market,,,info@fellsmerefreshmarket.com,772-925-8186,http://www.flaquaculture.com,http://www.facebook.com/fellsmerefreshmarket,,,,,,"32 N. Broadway St., Fellsmere, FL, 32948",Florida,Fellsmere,32 N. Broadway St.,32948,-80.6012132399274,27.770834174954548,,
farmers market,"Mar 20th, 2023",default-farmersmarket-4-3.jpg,309329,Fernandina Beach Market Place,,,info@fernandinabeachmarketplace.com,904-557-8229,http://fernandinabeachmarketplace.com/,https://www.facebook.com/FernandinaBeachMarketPlace,,,,,,"N. 7th St., Fernandina Beach, FL, 32034",Florida,Fernandina Beach,N. 7th St.,32034,-81.45942279611664,30.672093589892125,,
farmers market,"Mar 20th, 2023",default-farmersmarket-4-3.jpg,309330,Festival Bay Farmers' Market,,,,407-296-5882,https://www.festivalbayfarmersmarket.com/,,,,,,,"5260 International Drive Orlando, FL 32819",Florida,Orlando,5260 International Drive,32819,-81.45040369329743,28.467039176914493,,
farmers market,"Mar 20th, 2023",default-farmersmarket-4-3.jpg,309331,Flagler Beach Farmers' Market,,,,386-439-2881,https://www.flaglerbeachfarmersmarket.com/,,,,,,,"111 South Central Avenue Flagler Beach, FL 32136",Florida,Flagler Beach,111 South Central Avenue,32136,-81.12833150131569,29.480813034623008,,
farmers market,"Mar 20th, 2023",default-farmersmarket-4-3.jpg,309332,Flamingo Road Nursery and Farmers Market,,,,954-476-7878,http://flamingoroadnursery.com,,,,,,,"1655 S. Flamingo Road Davie, FL 33325",Florida,DAVIE,1655 S AMINGO RD,33325,-80.31382100019096,26.099327782881346,,
farmers market,"Mar 20th, 2023",default-farmersmarket-4-3.jpg,309333,Florida City State Farmers' Market,,,,305-246-6334,,,,,,,,"300 North Krome Avenue Florida City, FL 33034",Florida,Florida City,300 North Krome Avenue,33034,-80.47858199126952,25.45191997916062,,
farmers market,"Mar 20th, 2023",default-farmersmarket-4-3.jpg,309334,Fort Myers Beach Farmers' Market,,,timessquarefmb@aol.com,239-765-4222,http://www.fortmyersbeachfl.gov/index.aspx?nid=113,,,,,,,"2731 Oak St. , Fort Myers Beach, FL, 33931",Florida,Fort Myers Beach,2731 Oak St.,33931,-81.94006398701823,26.44881709600291,,
farmers market,"Mar 20th, 2023",default-farmersmarket-4-3.jpg,309335,Fort Myers Downtown Farmers' Market,,,breed@cityftmyers.com,239-321-7098,https://cityftmyers.com/,,,,,,,"Heitman and West First Street Fort Myers, FL 33901",Florida,Fort Myers,Heitman and West First Street,33901,-81.87271997419778,26.642769987994228,,
farmers market,"Mar 20th, 2023",default-farmersmarket-4-3.jpg,309336,Fort Pierce Farmers' Market,,,dfpfarmersmarket@yahoo.com,772-940-1145,http://www.ftpiercefarmersmarket.com,https://www.facebook.com/pages/Fort-Pierce-Farmers-Market/108901045802350,,,,,,"101 Melody Ln., along the Indian River Lagoon in Historic Downtown Fort Pierce , Fort Pierce, FL, 34950",Florida,Fort Pierce,101 Melody Ln.,34950,-80.32213603161375,27.44831099056094,,
farmers market,"Mar 20th, 2023",default-farmersmarket-4-3.jpg,309337,Fort Pierce State Farmers' Market,,,,772-468-3917,https://www.florida-agriculture.com/marketing/markets/fortpierce_market.htm,,,,,,,"3479 South Federal Highway 1 Fort Pierce, FL 34982",Florida,Fort Pierce,3479 South Federal Highway 1,34982,-80.32570834453077,27.39676442621992,,
farmers market,"Mar 20th, 2023",default-farmersmarket-4-3.jpg,309338,Founders Corner Fresh Market,,,founderscornerfreshmarket@gmail.com,727-330-8166,,https://www.facebook.com/FridayMarketFoundersCorner,,,,,,"431 Southwest Blvd. N., Saint Petersburg, FL, 33703",Florida,Saint Petersburg,431 Southwest Blvd. N.,33703,-82.63993265191455,27.827468525702415,,
farmers market,"Mar 20th, 2023",default-farmersmarket-4-3.jpg,309339,Four Corners Market,,,,352-563-0374,,http://www.facebook.com/fourcournersmarket,,,,,,"9895 N. Citrus Ave Crystal River, FL 34429",Florida,CRYSTAL RIVER,9895 N CITRUS AVE,34428,-82.56938960848404,29.006324201453282,,
farmers market,"Mar 20th, 2023",default-farmersmarket-4-3.jpg,309340,Frenchtown Heritage Market Place,,,frenchtownmarketplace@gmail.com,,http://www.frenchtownheritage.org/,https://www.facebook.com/tallyfrenchtownmarket,,,,,,"Georgia St. & Macomb St. , Tallahassee, FL, 32301",Florida,Tallahassee,Georgia St. & Macomb St.,32301,-84.28856996087757,30.447989995799958,,
farmers market,"Mar 20th, 2023",default-farmersmarket-4-3.jpg,309341,Fresh Friday Night Farmers' Market & Art,,,,727-842-8066,http://www.nprmainstreet.com,,,,,,,"6231 Grand Blvd New Port Richey, FL 34652",Florida,NEW PORT RICHEY,6231 GRAND BLVD,34652,-82.71958647158168,28.249292078442902,,
farmers market,"Mar 20th, 2023",default-farmersmarket-4-3.jpg,309342,Fresh Market at Wiregrass,,,tampabaymarkets@gmail.com,,http://tampabaymarkets.com/fresh-market-at-the-shops-at-wiregrass,https://www.facebook.com/TampaBayMarkets,,,,,,"28211 Paseo Dr., Wesley Chapel, FL, 33543",Florida,Wesley Chapel,28211 Paseo Dr.,33543,-82.35002803725658,28.18866501012289,,
farmers market,"Mar 20th, 2023",default-farmersmarket-4-3.jpg,309343,Fusion Miami Church Farmer's Market,,,,707-797-7458,http://www.fusionmiamichurch.com,,,,,,,"16325 SW 288 Street Homestead, FL 33033 ONCE A YEAR EVENT... FARMER'S MARKET AND COMMUNITY YARD SALE HAPPENING THIS SATURDAY JUNE 13TH FROM 7AM TO NOON.",Florida,HOMESTEAD,16325 SW 288TH ST,33033,-80.45646170257123,25.49927746289565,,
farmers market,"Mar 20th, 2023",default-farmersmarket-4-3.jpg,309344,Gadsden State Farmers' Market,,,,850-627-6484,https://www.florida-agriculture.com/marketing/markets/gadsden_market.htm,,,,,,,"18212 Blue Star Highway Quincy, FL 32351",Florida,Quincy,18212 Blue Star Highway,32351,-84.62377172597347,30.58866303180208,,
farmers market,"Mar 20th, 2023",default-farmersmarket-4-3.jpg,309345,Good Neighbors Famers' Market,,,info@goodneighborsmarket.com,,http://www.goodneighborsmarket.com,https://www.facebook.com/GoodNeighborsFarmersMarket,,,,,,"1101 Lloyds Ln., Oviedo, FL, 32765",Florida,Oviedo,1101 Lloyds Ln.,32765,-81.25411343108168,28.65624137348935,,
farmers market,"Mar 20th, 2023",default-farmersmarket-4-3.jpg,309346,Green Cove Springs Farmers Market,,,,904-657-1268,https://www.greencovespringsfarmersmarket.com/,,,,,,,"825 N Orange Avenue Green Cove Springs, FL 32043",Florida,Green Cove Springs,825 N Orange Avenue,32043,-81.68544607163807,30.002531456433097,,
farmers market,"Mar 20th, 2023",default-farmersmarket-4-3.jpg,309347,"Growers' Market at Purple Martin Nurseries, Inc.",,,,850-926-8335,https://purplemartinnurseries.com/,,,,,,,"1554 Crawfordville Highway Crawfordville, FL 32327",Florida,Crawfordville,1554 Crawfordville Highway,32327,-84.36241247017888,30.23951243511732,,
farmers market,"Mar 20th, 2023",default-farmersmarket-4-3.jpg,309348,Gulfport Tuesday Fresh Market,,,FreshMarket@GulfportMA.com,727-453-9093,http://www.gulfportma.com/gma-events/tuesday-fresh-market,https://www.facebook.com/gulfportfreshmarket,,,,,,"3000 Beach Blvd. S., Gulfport, FL, 33707",Florida,Gulfport,3000 Beach Blvd. S.,33707,-82.7078155618409,27.740092601654975,,
farmers market,"Mar 20th, 2023",default-farmersmarket-4-3.jpg,309349,Harvest Time Market,,,,561-641-6199,,,,,,,,"4361 Hypoluxo Road Lake Worth, FL 33463",Florida,LAKE WORTH,4361 HYPOLUXO RD,33462,-80.11154488271825,26.571971700365463,,
farmers market,"Mar 20th, 2023",default-farmersmarket-4-3.jpg,309350,"""""Health Happens"""" Farmers' Market",,,wellness@marioncountyfl.org,352-438-2360,,https://www.facebook.com/HealthHappensFarmersMarket,,,,,,"601 SE 25th Ave., McPherson Governmental Complex, Ocala, FL, 34471",Florida,Ocala,601 SE 25th Ave,34471,-82.1031857776964,29.182035451573586,,
farmers market,"Mar 20th, 2023",default-farmersmarket-4-3.jpg,309351,Heart of Christmas Farmer's Market,,,,407-512-2004,,http://www.facebook.com/hocfarms,,,,,,"21310 Fort Christmas Road Christmas, FL 32709",Florida,CHRISTMAS,21310 FORT RD,32709,-81.05924222113975,28.57956688325238,,
farmers market,"Mar 20th, 2023",default-farmersmarket-4-3.jpg,309352,Hemming Park Green Market,,,Hemmininggreenmarket@gmail.com,904-254-5472,,https://www.facebook.com/HPGMarket,,,,,,"117 W. Duval St., Jacksonville, FL, 32202",Florida,Jacksonville,117 W. Duval St.,32202,-81.6588354551695,30.329633036525646,,
farmers market,"Mar 20th, 2023",default-farmersmarket-4-3.jpg,309353,Hemming Plaza Farmers' Market,,,,904-874-9418,,,,,,,,"Monroe and North Hogan Streets Jacksonville, FL 32202",Florida,Jacksonville,Monroe and North Hogan Streets,32202,-81.65996003041974,30.329090017047292,,
farmers market,"Mar 20th, 2023",default-farmersmarket-4-3.jpg,309354,Hernando County Farmers Market,,,jamesscastillo900@outlook.com,352-232-4241,https://hernandocountyfarmersmarket.webs.com/,https://www.facebook.com/HCFarmersMarket,,,,,,"2450 US 19 Spring Hill, FL 34606",Florida,Spring Hill,2450 US 19,34606,-82.61981759994268,28.468685341931785,,
farmers market,"Mar 20th, 2023",default-farmersmarket-4-3.jpg,309355,Homestead Harvest Market & Cafe,,,,786-548-3733,https://harvestmarkets.org/,https://www.facebook.com/pages/Homestead-Harvest-Market-Cafe/156163524460541?ref=ts,,,,,,"12690 SW 280 Street Homestead, FL 33033",Florida,Homestead,12690 SW 280 Street,33033,-80.39458098839717,25.50636299676559,,
farmers market,"Mar 20th, 2023",default-farmersmarket-4-3.jpg,309356,Hunter's Creek Farmers Market,,,,407-721-6748,,http://www.facebook.com/Hunter'sCreekFarmersMarket,,,,,,"13502 Town Loop Blvd Orlando, FL 32837",Florida,ORLANDO,13502 TOWN LOOP BLVD,32837,-81.43097546689822,28.36436104864935,,
farmers market,"Mar 20th, 2023",default-farmersmarket-4-3.jpg,309357,immokalee state farmers' market,,,,239-658-3505,,,,,,,,"424 east new market road Immokalee, FL 34142",Florida,Immokalee,424 east new market road,34142,-81.41142997956436,26.42423600257571,,
farmers market,"Mar 20th, 2023",default-farmersmarket-4-3.jpg,309358,Indian River Farmers Market,,,,772-581-5688,,,,,,,,"455 58th Ave SW. Vero Beach, FL 32968",Florida,VERO BEACH,455 58TH AVE SW,32968,-80.44724461239032,27.597601176025417,,
farmers market,"Mar 20th, 2023",default-farmersmarket-4-3.jpg,309359,Indian Shores Sunday Morning Market,,,thebeachmarkets@gmail.com,800-992-9023,http://www.thebeachmarkets.com/,https://www.facebook.com/IndianShoresSundayMarket,,,,,,"19305 Gulf Blvd., Indian Shores, FL, 33785",Florida,Indian Shores,19305 Gulf Blvd.,33785,-82.84317564420658,27.847922957306903,,
farmers market,"Mar 20th, 2023",default-farmersmarket-4-3.jpg,309360,Inverness Farmers Market,,,,352-341-2777,http://invernessfarmersmarket.com,,,,,,,"212 W Main St Inverness, FL 34450",Florida,INVERNESS,212 W MAIN ST,34450,-82.33171031602122,28.83555513837771,,
farmers market,"Mar 20th, 2023",default-farmersmarket-4-3.jpg,309361,Jackson County Farmers' Market,,,,850-272-0828,,,,,,,,"Madison Street and Jackson Street Marianna, FL 32448",Florida,Marianna,Madison Street and Jackson Street,32448,-85.22566003036948,30.77303001693126,,
farmers market,"Mar 20th, 2023",default-farmersmarket-4-3.jpg,309362,Jackson Memorial Foundation Green Market,,,,305-531-0038,https://www.themarketcompany.org/,,,,,,,"1611 NW 12th Avenue Miami, FL 33136",Florida,Miami,1611 NW 12th Avenue,33136,-80.21269897008906,25.79193800026175,,
farmers market,"Mar 20th, 2023",default-farmersmarket-4-3.jpg,309363,Johnson's Family Flea and Farmers Market,,,,904-695-9979,https://www.johnsonsfamilyfleamarket.com/,,,,,,,"5800 Ramona Boulevard Jacksonville, FL 32205",Florida,Jacksonville,5800 Ramona Boulevard,32205,-81.74710059960393,30.314121643705395,,
farmers market,"Mar 20th, 2023",default-farmersmarket-4-3.jpg,309364,Jupiter Green and Artisan Market,,,hwelsh@harrysmarkets.com,203-222-3574x8203,http://harrysmarkets.webstarts.com/index.html,https://www.facebook.com/jupitergreenartisanmarket,,,,,,"150 S. US Hwy. 1, under Indiantown Bridge, Jupiter, FL, 33477",Florida,Jupiter,150 S. US Hwy. 1,33477,-80.08022066308367,26.93255170439314,,
farmers market,"Mar 20th, 2023",default-farmersmarket-4-3.jpg,309365,Kendall Farmers Market,,,,,http://www.kendallfarmersmarket.com,http://www.facebook.com/KendallFarmersMarket,,,,,,"8789 SW 117 Avenue MIAMI, FL 33183 BY CAR Turnpike South Bound; Head south and get off at Exit 20 Kendall Drive/SW 88 Street. Turn left (east), going under Turnpike. You will pass through two lights,",Florida,MIAMI,8789 SW 117TH AVE,33183,-80.38454932593763,25.686590529606324,,
farmers market,"Mar 20th, 2023",default-farmersmarket-4-3.jpg,309366,King Street Farmers Market,,,,,http://www.kingstreetfarmersmarket.com,http://www.facebook.com/KingStreetFarmersMarket,,,,,,"1021 King Street Jacksonville, FL 32204",Florida,JACKSONVILLE,1021 KING ST,32204,-81.6955111425269,30.31314529810627,,
farmers market,"Mar 20th, 2023",default-farmersmarket-4-3.jpg,309367,Lake DeSoto Farmers Market,,,airport@lcfla.com,386-719-5766,https://www.lcfla.com/farmersmarket.htm,https://www.facebook.com/lakedesotofarmersmarket/,,,,,,"778 NE Lake DeSoto Circle Lake City, FL 32055",Florida,Lake City,778 NE Lake DeSoto Circle,32055,-82.63398992062771,30.192533793205293,,
farmers market,"Mar 20th, 2023",default-farmersmarket-4-3.jpg,309368,Lake Ella Growers' Market,,,,850-224-2518,,https://www.facebook.com/LakeEllaGrowersMarket,,,,,,"229 Lake Ella Dr., Tallahassee, FL, 32303",Florida,Tallahassee,229 Lake Ella Dr.,32303,-84.27995916447628,30.462482540925834,,
farmers market,"Mar 20th, 2023",default-farmersmarket-4-3.jpg,309369,Lake Wales Downtown Farmers Market,,,,863-676-8782,,http://www.facebook.com/Lake-Wales-Downtown-Farmers-Market-176844102408866/,,,,,,"20 Market St. Lake Wales, FL 33853",Florida,LAKE WALES,20 N MARKET ST,33853,-81.5881649547939,27.901408970507298,,
farmers market,"Mar 20th, 2023",default-farmersmarket-4-3.jpg,309370,Lake Worth Farmers' Market,,,peter@lakeworthfarmersmarket.com,561-283-5856,http://www.lakeworthfarmersmarket.com/,https://www.facebook.com/pages/Lake-Worth-Farmers-Market/185534338138863,,,,,,"1 S Ocean Blvd., Lake Worth, FL, 33460",Florida,Lake Worth,1 S Ocean Blvd.,33460,-80.03869266395562,26.614846029019176,,
farmers market,"Mar 20th, 2023",default-farmersmarket-4-3.jpg,309371,Lakewood Ranch Farmers' Market,,,,727-461-7674,,,,,,,,"Main Street Lakewood Ranch, FL 34202",Florida,Lakewood Ranch,Main Street,34202,-82.43490699999995,27.394007000000045,,
farmers market,"Mar 20th, 2023",default-farmersmarket-4-3.jpg,309372,Lakewood Ranch Outdoor Market,,,,,http://www.jens-market.com/market-locations.html,,,,,,,"11315 Palmbrush Trl., Lakewood Ranch, FL, 34202",Florida,Lakewood Ranch,11315 Palmbrush Trl.,34202,-82.43096305447268,27.430504853898025,,
farmers market,"Mar 20th, 2023",default-farmersmarket-4-3.jpg,309373,Las Olas Farmers Market,,,,954-214-9933,,,,,,,,"333 E. Las Olas Blvd. Fort Lauderdale, FL 33301",Florida,Fort Lauderdale,333 E. Las Olas Blvd.,33301,-80.14000320923031,26.11916254488177,,
farmers market,"Mar 20th, 2023",default-farmersmarket-4-3.jpg,309374,Las Olas Outdoor Gourmet Market,,,,305-531-0038,https://www.themarketcompany.org/,,,,,,,"1201 E Las Olas Boulevard Fort Lauderdale, FL 33301",Florida,Fort Lauderdale,1201 E Las Olas Boulevard,33301,-80.13125565143338,26.119344444417514,,
farmers market,"Mar 20th, 2023",default-farmersmarket-4-3.jpg,309375,Levy County Farmers' Market,,,,352-486-6229,,,,,,,,"401 S.E. 6th Avenue Williston, FL 32696",Florida,Williston,401 S.E. 6th Avenue,32696,-82.44298401402449,29.380213985862312,,
farmers market,"Mar 20th, 2023",default-farmersmarket-4-3.jpg,309376,Lincoln Road Farmers Market,,,,305-775-2166,http://www.themarketcompany.org,,,,,,,"730 Lincoln Road - South Beach Miami Beach, FL 33139",Florida,MIAMI BEACH,730 LINCOLN RD,33139,-80.13579248040726,25.790566902566848,,
farmers market,"Mar 20th, 2023",default-farmersmarket-4-3.jpg,309377,Live Oak Farmers' Market,,,,,http://liveoakfarmersmarket.com/,,,,,,,"115 Howard St. W., Festival Park, Live Oak, FL, 32064",Florida,Live Oak,115 Howard St. W.,32064,-82.98515501571129,30.29631899683565,,
farmers market,"Mar 20th, 2023",default-farmersmarket-4-3.jpg,309378,Longleaf Farmers' Market,,,,727-808-2690,https://www.longleafmarket.com/,,,,,,,"3101 Town Avenue New Port Richey, FL 34655",Florida,New Port Richey,3101 Town Avenue,34655,-82.64424456879857,28.205146767367353,,
farmers market,"Mar 20th, 2023",default-farmersmarket-4-3.jpg,309379,Lynn Haven Farmers Market,,,,850-265-2961,http://www.lynnhavenmainstreet.com,,,,,,,"903 Ohio Ave. Lynn Haven, FL 32444",Florida,LYNN HAVEN,903 OHIO AVE,32444,-85.64858352696717,30.24516147761643,,
farmers market,"Mar 20th, 2023",default-farmersmarket-4-3.jpg,309380,M.O.M.'s Friday Night Market,,,,727-697-7294,http://MONsFridayNIghtMarket.com,http://www.facebook.com/MOM'sFridayNighMarket,,,,,,"5546 Main Street New Port Richey, FL 34654",Florida,NEW PORT RICHEY,5546 MAIN ST,34652,-82.72330247814621,28.250222666694572,,
farmers market,"Mar 20th, 2023",default-farmersmarket-4-3.jpg,309381,Mandarin Farmers' Market by the Whole Foods Market,,,,904-236-9966,https://www.mandarinfarmersmarket.com/,,,,,,,"10601 San Jose Boulevard Jacksonville, FL 32257",Florida,Jacksonville,10601 San Jose Boulevard,32257,-81.62841438732342,30.18517032486845,,
farmers market,"Mar 20th, 2023",default-farmersmarket-4-3.jpg,309382,Marco Island Farmers' Market,,,,239-642-0575,https://www.marcoislandfarmersmarket.com/,,,,,,,"Park Avenue & Elkcam Circle Marco Island, FL 34145",Florida,Marco Island,Park Avenue & Elkcam Circle,34145,-81.72723000018263,25.951459992654364,,
farmers market,"Mar 20th, 2023",default-farmersmarket-4-3.jpg,309383,Marianna City Farmers Market,,,,850-209-4694,http://mariannacityfarmersmarket.com,http://www.facebook.com/mariannacityfarmersmarket/,,,,,,"2844 Madison Street Marianna, FL 32448 We are located at the Madison Street Park. Great place to bring your children. Splash pad, bathrooms, picnic tables.",Florida,MARIANNA,2844 MADISON ST,32446,-85.22564932371512,30.773647149275277,,
farmers market,"Mar 20th, 2023",default-farmersmarket-4-3.jpg,309384,Marion Street Farmers' Market,,,,352-222-2301,https://www.lakecitydowntown.com/,,,,,,,"Duval Street and North Marion Ave Lake City, FL 32025",Florida,Lake City,Duval Street and North Marion Ave,32025,-82.63714996289329,30.189349986700975,,
farmers market,"Mar 20th, 2023",default-farmersmarket-4-3.jpg,309385,Market at Rockledge Gardens,,,info@rockledgegardens.com,321-636-7662,http://www.rockledgegardens.com/the-farm-market/,,,,,,,"2153 US Hwy. 1, Rockledge, FL, 32955",Florida,Rockledge,2153 US Hwy. 1,32955,-80.71571835813637,28.322458074151044,,
farmers market,"Mar 20th, 2023",default-farmersmarket-4-3.jpg,309386,Market at the Depot in Inverness,,,,352-726-3913,http://www.inverness-fl.gov,http://www.facebook.com/cityofinvernessfl,,,,,,"286 N. Apopka Avenue Inverness, FL 34450",Florida,INVERNESS,286 N APOPKA AVE,34450,-82.33019440479633,28.839499818989303,,
farmers market,"Mar 20th, 2023",default-farmersmarket-4-3.jpg,309387,Market in the Breeze,,,info@marketinthebreeze.com,,http://www.marketinthebreeze.com/,https://www.facebook.com/marketinthebreeze,,,,,,"800 Shoreline Dr., Gulf Breeze, FL, 32561",Florida,Gulf Breeze,800 Shoreline Dr.,32561,-87.17628786867976,30.35458176599766,,
farmers market,"Mar 20th, 2023",default-farmersmarket-4-3.jpg,309388,Market In The Park,,,,727-733-4215,,,,,,,,"11909 - 125th Street Largo, FL 33774",Florida,Largo,11909 - 125th Street,33774,-82.80941701624981,27.884993016666257,,
farmers market,"Mar 20th, 2023",default-farmersmarket-4-3.jpg,309389,Mayfair Green Market,,,,305-531-0038,https://www.themarketcompany.org/,,,,,,,"2911 Grand Avenue Coconut Grove, FL 33133",Florida,Coconut Grove,2911 Grand Avenue,33133,-80.24064432599278,25.728211445183458,,
farmers market,"Mar 20th, 2023",default-farmersmarket-4-3.jpg,309390,MidTown Farmers Market at Lake Ella,,,,850-412-5260,,,,,,,,"229 Lake Ella Drive. Near the Black Dog Cafe. Tallahassee, FL 32303",Florida,TALLAHASSEE,229 LAKE ELLA DR,32303,-84.27995916447628,30.462482540925834,,
farmers market,"Mar 20th, 2023",default-farmersmarket-4-3.jpg,309391,Mid-Week Madeira Beach Market,,,TheBeachMarkets@gmail.com,,http://www.thebeachmarkets.com/,https://www.facebook.com/madeirabeachmarkets,,,,,,"15004 Madeira Way, FL, Madeira Beach, FL, 33708",Florida,Madeira Beach,"15004 Madeira Way, FL",33708,-82.8002836150254,27.802111396992398,,
farmers market,"Mar 20th, 2023",default-farmersmarket-4-3.jpg,309392,Milton ReStore Farm Market,,,,850-434-5456x120,http://www.pensacola.habitatrestores.org,http://www.facebook.com/pensacolarestore,,,,,,"6606 Elva Street Milton, FL 32570",Florida,MILTON,6606 ELVA ST,32570,-87.0470734073402,30.622656808956467,,
farmers market,"Mar 20th, 2023",default-farmersmarket-4-3.jpg,309393,Monticello Saturday Main Street Market,,,,850-997-5552,,,,,,,,"Pearl & Jefferson Street Monticello, FL 32344",Florida,Monticello,Pearl & Jefferson Street,32344,-83.87016002269003,30.54661000172915,,
farmers market,"Mar 20th, 2023",default-farmersmarket-4-3.jpg,309394,Normandy Village Marketplace,,,,305-775-2166,http://www.themarketcompany.org,,,,,,,"1025 71st St. Miami Beach, FL 33141",Florida,MIAMI BEACH,1025 71ST ST,33141,-80.12898792610156,25.855190629160383,,
farmers market,"Mar 20th, 2023",default-farmersmarket-4-3.jpg,309395,Oakleaf Green Market,,,,904-742-3101,https://www.oakleafgreenmarket.com/,,,,,,,"8380 Merchants Way Jacksonville, FL 32222",Florida,Jacksonville,8380 Merchants Way,32222,-81.82883754683967,30.191330457826336,,
farmers market,"Mar 20th, 2023",default-farmersmarket-4-3.jpg,309396,Oceanside Farmers' Market,,,,561-547-3100,https://www.oceanside-farmersmarket.com/,,,,,,,"S. Ocean Blvd. Lake Worth, FL 33480",Florida,Lake Worth,S. Ocean Blvd.,33480,-80.04117089129615,26.56457858841552,,
farmers market,"Mar 20th, 2023",default-farmersmarket-4-3.jpg,309397,Okaloosa Farmers' Market,,,gedmondson@co.okaloosa.fl.us,850-689-5850,,https://www.facebook.com/OkaloosaFarmersMarkets,,,,,,"1954 Lewis Turner Blvd., Fort Walton Beach, FL, 32547",Florida,Fort Walton Beach,1954 Lewis Turner Blvd.,32547,-86.61634260269011,30.466180895853803,,
farmers market,"Mar 20th, 2023",default-farmersmarket-4-3.jpg,309398,Old - Town Farmers' Market,,,,407-296-5882,https://www.old-townfarmersmarket.com/,,,,,,,"5770 Irlo Bronson Memorial Highway Kissimmee, FL 34746",Florida,Kissimmee,5770 Irlo Bronson Memorial Highway,34746,-81.51686523361239,28.332711593982648,,
farmers market,"Mar 20th, 2023",default-farmersmarket-4-3.jpg,309399,Old Miakka Farmer's Market,,,,941-322-1014,,http://www.facebook.com/OldMiakkaFarmersMarket,,,,,,"1620 Myakka Rd (Old Miakka United Methodist Church) Sarasota, FL 34240",Florida,LAKEWOOD RCH,1620 MYAKKA RD,34240,-82.26698454889345,27.31682358496786,,
farmers market,"Mar 20th, 2023",default-farmersmarket-4-3.jpg,309400,Oldsmar Downtown Fresh Market,,,,727-733-4215,,,,,,,,"100 State Street West Oldsmar, FL 34677",Florida,Oldsmar,100 State Street West,34677,-82.66335221984293,28.037401593675646,,
farmers market,"Mar 20th, 2023",default-farmersmarket-4-3.jpg,309401,Orange City Farmers' Market,,,,386-775-5410,,,,,,,,"205 E. Graves Ave., Dickinson Park, Orange City, FL, 32763",Florida,Orange City,"205 E. Graves Ave., Dickinson Park",32763,-81.2976400024722,28.948770006077968,,
farmers market,"Mar 20th, 2023",default-farmersmarket-4-3.jpg,309402,Orlando Farmers Market,,,,,http://www.orlandofarmersmarket.com,,,,,,,"195 North Rosalind Ave. Orlando, FL 32801",Florida,ORLANDO,195 N ROSALIND AVE,32801,-81.37587613683259,28.5426339842455,,
farmers market,"Mar 20th, 2023",default-farmersmarket-4-3.jpg,309403,Orlando Farmers Market at Lake Eola,,,,321-202-5855,https://www.orlandofarmersmarket.com/,,,,,,,"E. Central Boulevard and N. Eola Drive Orlando, FL 32801",Florida,Orlando,E. Central Boulevard and N. Eola Drive,32801,-81.36989999626293,28.54229000329147,,
farmers market,"Mar 20th, 2023",default-farmersmarket-4-3.jpg,309404,Palafox Market,,,info@palafoxmarket.com,850-434-5371,http://www.palafoxmarket.com,https://www.facebook.com/palafoxmarket,,,,,,"N. Palafox St. and Wright St., Martin Luther King Plaza, Pensacola, FL, 32501",Florida,Pensacola,N. Palafox St. and Wright St.,32501,-87.21633001566694,30.416640001543158,,
farmers market,"Mar 20th, 2023",default-farmersmarket-4-3.jpg,309405,Palatka Farmers Market,,,,386-467-8969,,,,,,,,"111 Yelvington Road East Palatka, FL 32131",Florida,Palatka,111 Yelvington Road East,32131,-81.58804598338345,29.642858994027065,,
farmers market,"Mar 20th, 2023",default-farmersmarket-4-3.jpg,309406,Palatka State Farmers' Market,,,,386-329-3713,https://www.florida-agriculture.com/marketing/markets/palatka_market.htm,,,,,,,"225 U.S. Highway 17, South East Palatka, FL 32131",Florida,East Palatka,"225 U.S. Highway 17, South",32131,-81.59874900318624,29.646689984782924,,
farmers market,"Mar 20th, 2023",default-farmersmarket-4-3.jpg,309407,Palm Beach Gardens Green Market,,,cwolnewitz@pbgfl.com,561-630-1100,http://www.pbgfl.com/707/Summer-GreenMarket,,,,,,,"11010 N. Military Trl., Palm Beach, FL, 33410",Florida,Palm Beach,11010 N. Military Trl.,33410,-80.10448499587574,26.841864998844386,,
farmers market,"Mar 20th, 2023",default-farmersmarket-4-3.jpg,309408,Palm City Farms Produce & Market,,,,772-888-3103,http://palmcityfarmsproduce.com,http://www.facebook.com/Palm-City-Farms-Produce-Market-1899356043676021/,,,,,,"3706 SW Citrus Blvd Palm City, FL 34990 At the corner of SW Citrus Boulevard and SW Martin Highway (SR-714) in Palm City, FL,34990. One mile west of the Florida Turnpike Entrance and SW Martin Downs B",Florida,PALM CITY,3706 SW CITRUS BLVD,34990,-80.31890569084638,27.160888349876018,,
farmers market,"Mar 20th, 2023",default-farmersmarket-4-3.jpg,309409,Pensacola Growers' Retail Farmers' Market,,,,251-960-1089,,,,,,,,"4905 N. Palafox Street Pensacola, FL 32505",Florida,Pensacola,4905 N. Palafox Street,32505,-87.24087408035025,30.462486903295865,,
farmers market,"Mar 20th, 2023",default-farmersmarket-4-3.jpg,309410,Perry Downtown Farmers' Market,,,,850-843-1279,,https://www.facebook.com/Perry-Downtown-Farmers-Market-170124233038373,,,,,,"603 S. Jefferson St., Perry, FL, 32347",Florida,Perry,603 S. Jefferson St.,32347,-83.58211371493688,30.113515228421512,,
farmers market,"Mar 20th, 2023",default-farmersmarket-4-3.jpg,309411,Plant City Farmers Market,,,,813-752-4670,http:// www.plantcitymarket.com,,,,,,,"708 W. Sam Allen Rd Plant City, FL 33565",Florida,PLANT CITY,708 W SAM ALLEN RD,33565,-82.13117697149175,28.047521792809896,,
farmers market,"Mar 20th, 2023",default-farmersmarket-4-3.jpg,309412,Plant City State Farmers' Market,,,,813-757-9027,https://www.florida-agriculture.com/marketing/markets/plantcity_market.htm,,,,,,,"1305 West Dr. Martin Luther King Jr. Blvd Plant City, FL 33563",Florida,Plant City,1305 West Dr. Martin Luther King Jr. Blvd,33563,-82.13519411902143,28.012289041066,,
farmers market,"Mar 20th, 2023",default-farmersmarket-4-3.jpg,309413,Plantation Community Farmers Market,,,,954-540-6593,http://www.Plantation.org,,,,,,,"12050 W. Sunrise Blvd. Plantation, FL 33323",Florida,PLANTATION,12050 W SUNRISE BLVD,33323,-80.31398086018802,26.14569992098985,,
farmers market,"Mar 20th, 2023",default-farmersmarket-4-3.jpg,309414,Pompano Beach Green Market,,,greenmarketpompano@gmail.com,954-609-7974,http://www.pompanohistory.com/green_market,https://www.facebook.com/PompanoBeachGreenMarket,,,,,,"Atlantic Blvd. and SE 1st Ave., Pompano Beach, FL, 33060",Florida,Pompano Beach,Atlantic Blvd. and SE 1st Ave.,33060,-80.11655008532553,26.230782512336518,,
farmers market,"Mar 20th, 2023",default-farmersmarket-4-3.jpg,309415,Pompano State Farmers' Market,,,,954-786-4828,https://www.florida-agriculture.com/marketing/markets/pompano_market.htm,,,,,,,"1255 West Atlantic Boulevard Pompano Beach, FL 33069",Florida,Pompano Beach,1255 West Atlantic Boulevard,33069,-80.14097653598617,26.231547540130716,,
farmers market,"Mar 20th, 2023",default-farmersmarket-4-3.jpg,309416,Ponte Vedra YMCA Farmers' Market,,,,904-543-9622,http://acaneva@firstcoastymca.org,,,,,,,"170 Landrum Lane Ponte Vedra Beach, FL 32082",Florida,PONTE VEDRA BEACH,170 LANDRUM LN,32082,-81.38726400883887,30.16445466064743,,
farmers market,"Mar 20th, 2023",default-farmersmarket-4-3.jpg,309417,Port Orange Green Market,,,,,http://portorangegreenmarket.com,,,,,,,"5501 S. Williamson Blvd Port Orange, FL 32128",Florida,PORT ORANGE,5501 S WILLIAMSON BLVD,32128,-81.03636231305893,29.10920941198029,,
farmers market,"Mar 20th, 2023",default-farmersmarket-4-3.jpg,309418,punta gorda farmers market,,,,941-391-4856,,,,,,,,"307 taylor street Punta Gorda, FL 33950",Florida,Punta Gorda,307 taylor street,33950,-82.05004959132289,26.93410676383296,,
farmers market,"Mar 20th, 2023",default-farmersmarket-4-3.jpg,309419,Red Hills Online Market,,,,,http://www.rhomarket.com,,,,,,,"[Pick up site for online orders] 915 Railroad Ave. Tallahassee, FL 32310",Florida,TALLAHASSEE,915 RAILROAD AVE,32310,-84.28939901492065,30.43399598935339,,
farmers market,"Mar 20th, 2023",default-farmersmarket-4-3.jpg,309420,Riverwalk Market,,,,850-626-6246,https://www.mainstreetmilton.org/,,,,,,,"Willing Street Milton, FL 32570",Florida,Milton,Willing Street,32570,-87.03565068338038,30.62271600795586,,
farmers market,"Mar 20th, 2023",default-farmersmarket-4-3.jpg,309421,Salt Air Farmers' Market,,,julieolsson22@gmail.com,,http://www.saltairfarmersmarket.com/,https://www.facebook.com/saltairfarmersmarket,,,,,,"101 Tolstoy Ln., Saint Augustine, FL, 32080",Florida,Saint Augustine,101 Tolstoy Ln.,32080,-81.21494973501429,29.669674226147357,,
farmers market,"Mar 20th, 2023",default-farmersmarket-4-3.jpg,309422,SaltAir Farmers Market,,,,,http://www.saltairmarket.com/,,,,,,,"Port St., Joe, Florida 32456",Florida,Joe,Port St.,32456,-85.30058999999994,29.815015000000074,,
farmers market,"Mar 20th, 2023",default-farmersmarket-4-3.jpg,309423,Sanford State Farmers' Market,,,,407-330-6783,https://www.florida-agriculture.com/marketing/markets/sanford_market.htm,,,,,,,"1300-1A South French Avenue Sanford, FL 32771",Florida,Sanford,1300-1A South French Avenue,32771,-81.27308631970081,28.80066299733115,,
farmers market,"Mar 20th, 2023",default-farmersmarket-4-3.jpg,309424,Sanibel Island Farmers Market,,,,,http://BuyLocalLee.com,http://www.facebook.com/Sanibelislandfarmersmarket,,,,,,"800 Dunlop Road Sanibel, FL 33957 Overflow parking can be found at The Sanibel Library and BIG Arts.",Florida,SANIBEL,800 DUNLOP RD,33957,-82.07428977403764,26.439618643273192,,
farmers market,"Mar 20th, 2023",default-farmersmarket-4-3.jpg,309425,Santini Farmers Market Ft. Myers Beach,,,,,http://www.41markets.com,http://www.facebook.com/santinifarmersmarketfortmyersbeach,,,,,,"7205 Estero Boulevard Fort Myers Beach, FL 33931 Free Parking in the Santini Marina Plaza",Florida,FORT MYERS BEACH,7205 ESTERO BLVD,33931,-81.8999944557177,26.413016271971205,,
farmers market,"Mar 20th, 2023",default-farmersmarket-4-3.jpg,309426,Sarasota Downtown Farmers' Market,,,,941-951-2656,,,,,,,,"Lemon Avenue and Main Street Sarasota, FL 34236",Florida,Sarasota,Lemon Avenue and Main Street,34236,-82.54069001532191,27.336489990044612,,
farmers market,"Mar 20th, 2023",default-farmersmarket-4-3.jpg,309427,Seaside Farmers Market,,,,850-687-3494,,http://www.facebook.com/seasidefarmersmarket,,,,,,"2217 E County Hwy 30A Santa Rosa Beach, FL 32459",Florida,SANTA ROSA BEACH,2217 E CO HWY 30A,32459,-86.13813089484331,30.319891529865686,,
farmers market,"Mar 20th, 2023",default-farmersmarket-4-3.jpg,309428,Seminole Heights Sunday Morning Market,,,tampabaymarkets@gmail.com,,http://tampabaymarkets.com/seminole-heights-sunday-morning-market,https://www.facebook.com/SeminoleHeightsSundayMorningMarket,,,,,,"5000 N.Central Ave., Tampa, FL, 33603",Florida,Tampa,5000 N.Central Ave.,33603,-82.45527484347461,27.991127791876533,,
farmers market,"Mar 20th, 2023",default-farmersmarket-4-3.jpg,309429,Shoppes at Vanderbilt Farmers' Market,,,,239-273-2350,,https://www.facebook.com/Shoppesatvanderbiltfarmersmarket,,,,,,"2355 Vanderbilt Beach Rd., Naples, FL, 34109",Florida,Naples,2355 Vanderbilt Beach Rd.,34109,-81.77338562837976,26.243801662238006,,
farmers market,"Mar 20th, 2023",default-farmersmarket-4-3.jpg,309430,Spring Hill Farmers Market,,,,352-345-1446,http://www.farmersmarketspringhill.com,http://www.facebook.com/farmersmarketspringhillfl,,,,,,"3021 Commercial Way Spring Hill, FL 34606 The market is located in The Town Square Mall parking lot next to Chilis on Commercial Way.",Florida,SPRING HILL,3021 COMMERCIAL WAY,34606,-82.61164219902244,28.477962887510376,,
farmers market,"Mar 20th, 2023",default-farmersmarket-4-3.jpg,309431,St. Andrews Waterfront Farmers' Market,,,,850-872-7208,http://www.historicstandrews.com/market,http://www.facebook.com/St.Andrews.Waterfront.Farmers.Market,,,,,,"3151 W 10th St Panama City, FL 32401",Florida,PANAMA CITY,3151 W 10TH ST,32401,-85.70301215016458,30.167594605480282,,
farmers market,"Mar 20th, 2023",default-farmersmarket-4-3.jpg,309432,Starke State Farmers' Market,,,,386-329-3713,https://www.florida-agriculture.com/marketing/markets/starke_market.htm,,,,,,,"2222 North Temple Highway Starke, FL 32091",Florida,Starke,2222 North Temple Highway,32091,-82.10295748732753,29.967615439951306,,
farmers market,"Mar 20th, 2023",default-farmersmarket-4-3.jpg,309433,Stetson Farmers Market,,,,,http://stetson.orgsync.com/org/hatterharvest,https://www.facebook.com/HatterHarvest,,,,,,"234 E Michigan Ave, Deland FL 32723",Florida,Deland,234 E Michigan Ave,32723,-81.30088476005382,29.033531209645936,,
farmers market,"Mar 20th, 2023",default-farmersmarket-4-3.jpg,309434,Stuart Green Market,,,,772-940-1145,,,,,,,,"121 SW Flagler Avenue Stuart, FL 34994",Florida,Stuart,121 SW Flagler Avenue,34994,-80.25523485574453,27.199897092799333,,
farmers market,"Mar 20th, 2023",default-farmersmarket-4-3.jpg,309435,Sumter County Farmers' Market,,,,352-793-2021,https://www.sumtercountyfarmersmarket.com/,,,,,,,"524 North Market Boulevard Webster, FL 33597",Florida,Webster,524 North Market Boulevard,33597,-82.05472928464924,28.616913144306082,,
farmers market,"Mar 20th, 2023",default-farmersmarket-4-3.jpg,309436,Suwannee County Farmers' Market,,,,386-362-1728,,,,,,,,"208 N Ohio Avenue Live Oak, FL 32060",Florida,Live Oak,208 N Ohio Avenue,32060,-82.98243468106573,30.299868328707664,,
farmers market,"Mar 20th, 2023",default-farmersmarket-4-3.jpg,309437,Suwannee Valley State Farmers' Market,,,,386-963-5903,https://www.florida-agriculture.com/marketing/markets/suwanneevalley_market.htm,,,,,,,"2758 County Road 136 White Springs, FL 32096",Florida,White Springs,2758 County Road 136,32096,-82.80049927946752,30.32015532384427,,
farmers market,"Mar 20th, 2023",default-farmersmarket-4-3.jpg,309438,Tampa Bay Farmers Market,,,,,http://www.tampabayfarmersmarket.com,http://www.facebook.com/tampabayfm,,,,,,"10001 North Armenia Avenue Tampa, FL 33612",Florida,TAMPA,10001 N ARMENIA AVE,33612,-82.4798077551521,28.040456778733887,,
farmers market,"Mar 20th, 2023",default-farmersmarket-4-3.jpg,309439,Tampa Downtown Market,,,,813-649-8747,https://www.tampadowntownmarket.com/,,,,,,,"300 Madison Street Tampa, FL 33602",Florida,Tampa,300 Madison Street,33602,-82.45821627779264,27.948464228843054,,
farmers market,"Mar 20th, 2023",default-farmersmarket-4-3.jpg,309440,Taste of the Gardens Green Market,,,signaturecity@pbgfl.com,561-722-6435,https://www.pbgfl.com/,,,,,,,"10500 North Military Trail Palm Beach Gardens, FL 33410",Florida,Palm Beach Gardens,10500 North Military Trail,33410,-80.10220201690784,26.832845987208586,,
farmers market,"Mar 20th, 2023",default-farmersmarket-4-3.jpg,309441,Temple Terrace Farmers Market,,,,786-842-7909,http://www.ttfarmersmarket.com,http://www.facebook.com/ttfarmersmarket,,,,,,"11302 N 56th St Temple Terrace, FL 33617 Between City Hall and Outback Steakhouse on 56th St, one block south of Fowler Ave.",Florida,TEMPLE TER,11302 N 56TH ST,33617,-82.3936621876748,28.050925058258507,,
farmers market,"Mar 20th, 2023",default-farmersmarket-4-3.jpg,309442,The Green Marketplace at Adamson Road,,,kari@naturewiseplants.com,321-536-1410,https://www.naturewiseplants.com/,,,,,,,"3910 N Highway US 1 Cocoa, FL 32926",Florida,Cocoa,3910 N Highway US 1,32926,-80.75902858432637,28.42927153410881,,
farmers market,"Mar 20th, 2023",default-farmersmarket-4-3.jpg,309443,The Vilano Beach Sunday Market,,,,904-540-5797,https://www.thesundaymarket.com/,,,,,,,"260 Vilano Road Saint Augustine, FL 32084",Florida,Saint Augustine,260 Vilano Road,32084,-81.29741860872176,29.916696180132092,,
farmers market,"Mar 20th, 2023",default-farmersmarket-4-3.jpg,309444,Third Street South Farmers Market,,,,239-649-6707,,,,,,,,"255 13th Ave So Naples, FL 34102",Florida,NAPLES,255 13TH AVE S,34102,-81.80241809715159,26.130918582984158,,
farmers market,"Mar 20th, 2023",default-farmersmarket-4-3.jpg,309445,Tioga Monday Farmers' Market,,,rmludlam97@windstream.net,386-209-1246,https://sites.google.com/site/tiogamondaymarket/,https://www.facebook.com/TiogaMondayMarket,,,,,,"105 SW 128th St., Tioga Town Center, Tioga, FL, 32669",Florida,Tioga,105 SW 128th St.,32669,-82.47887424290587,29.65754231431734,,
farmers market,"Mar 20th, 2023",default-farmersmarket-4-3.jpg,309446,Titusville Farmers Market,,,,321-615-8183,,http://www.facebook.com/Titusvillemarket,,,,,,"3550 S. Washington Ave. Searstown mall Titusville, FL 32780",Florida,TITUSVILLE,3550 SOUTH ST,32780,-80.84704459558931,28.579440645730465,,
farmers market,"Mar 20th, 2023",default-farmersmarket-4-3.jpg,309447,Trenton Community Farmers' Market,,,,352-472-7632,https://groups.yahoo.com/trentoncommunityfarmersmarket/,,,,,,,"419 N. Main Street Trenton, FL 32693",Florida,Trenton,419 N. Main Street,32693,-82.81837930574085,29.616731231823845,,
farmers market,"Mar 20th, 2023",default-farmersmarket-4-3.jpg,309448,Tuesday Marketplace,,,,386-362-1776,,,,,,,,"208 Ohio Avenue N Live Oak, FL 32064",Florida,Live Oak,208 Ohio Avenue N,32064,-82.98374022735912,30.297257849438658,,
farmers market,"Mar 20th, 2023",default-farmersmarket-4-3.jpg,309449,Tuesday's Growers Market at Purple Martin Nurseries,,,,850-412-5260,,,,,,,,"1554 Crawfordville Highway (Highway 319) Crawfordville, FL 32327",Florida,CRAWFORDVILLE,1554 HWY,32327,-84.36241247017888,30.23951243511732,,
farmers market,"Mar 20th, 2023",default-farmersmarket-4-3.jpg,309450,Union Street Farmers' Market,,,,386-462-3192,https://www.unionstreetfarmersmkt.com/,,,,,,,"111 East University Avenue Gainesville, FL 32601",Florida,Gainesville,111 East University Avenue,32601,-82.32382694749192,29.65195085814133,,
farmers market,"Mar 20th, 2023",default-farmersmarket-4-3.jpg,309451,University of South Florida Farmer's Market,,,,,,http://www.facebook.com/farmusf,,,,,,"4202 E Fowler Ave Tampa, FL 33620",Florida,TAMPA,4202 E FOWLER AVE,33612,-82.41437173930784,28.05446161225916,,
farmers market,"Mar 20th, 2023",default-farmersmarket-4-3.jpg,309452,Upper East Side Green Market,,,,305-551-0038,https://www.themarketcompany.org/,,,,,,,"5556 N. E. 4th Court Miami, FL 33137",Florida,Miami,5556 N. E. 4th Court,33137,-80.18732703299602,25.827038016089716,,
farmers market,"Mar 20th, 2023",default-farmersmarket-4-3.jpg,309453,Upper Eastside Farmers' Market,,,theedibleyardmiami@gmail.com,786-427-4698,,https://www.facebook.com/UpperEastSideFarmersMarket,,,,,,"NE 66th St. and Biscayne Blvd. , Miami, FL, 33138",Florida,Miami,NE 66th St. and Biscayne Blvd.,33138,-80.1841900219136,25.83657000019987,,
farmers market,"Mar 20th, 2023",default-farmersmarket-4-3.jpg,309454,Village Farmers' Market,,,,561-547-3100,,,,,,,,"11001 Southern Blvd. Royal Palm Beach, FL 33411",Florida,Royal Palm Beach,11001 Southern Blvd.,33411,-80.22008581055502,26.681063078821843,,
farmers market,"Mar 20th, 2023",default-farmersmarket-4-3.jpg,309455,Village Park Market,,,,407-585-7118,http://www.thevillagehc.com,,,,,,,"13586 South John Young Parkway Orlando, FL 32837",Florida,ORLANDO,13586 S JOHN YOUNG PKWY,32837,-81.42591221075784,28.375176236982007,,
farmers market,"Mar 20th, 2023",default-farmersmarket-4-3.jpg,309456,Volusia County Farm Bureau Farmers' Market,,,,386-734-1612,http://www.volusiacountyfarmbureau.com/?page_id=27,,,,,,,"3050 E. New York Ave., DeLand, FL, 32724",Florida,DeLand,3050 E. New York Ave.,32724,-81.22515067310398,29.01807293068243,,
farmers market,"Mar 20th, 2023",default-farmersmarket-4-3.jpg,309457,Wauchula State Farmers' Market,,,,863-773-9850,https://www.florida-agriculture.com/marketing/markets/wauchula_market.htm,,,,,,,"535 South 6th Ave. Ste. #101 Wauchula, FL 33873",Florida,Wauchula,535 South 6th Ave,33873,-81.81080503473561,27.5407029909737,,
farmers market,"Mar 20th, 2023",default-farmersmarket-4-3.jpg,309458,Wednesday Green Market,,,,772-971-8480,,http://www.facebook.com/wednesdaygreenmarket,,,,,,"101 Melody Lane Ft. Pierce, FL 34950 State road 95 to Orange Ave Exit in Fort Pierce, FL, Go East until you hit the Waterfront and the Fort Pierce Marina Square",Florida,FORT PIERCE,101 MELODY LN,34950,-80.32170127548207,27.44816794801878,,
farmers market,"Mar 20th, 2023",default-farmersmarket-4-3.jpg,309459,Wellington Green Market,,,wellingtongreenmarket@gmail.com,561-283-5856,http://www.wellingtongreenmarket.com/,,,,,,,"12300 Forest Hill Blvd., Wellington, FL, 33414",Florida,Wellington,12300 Forest Hill Blvd.,33414,-80.23780629049884,26.654955682649728,,
farmers market,"Mar 20th, 2023",default-farmersmarket-4-3.jpg,309460,West Palm Beach Green Market,,,,561-822-1520,http://wpb.org/greenmarket/,http://www.facebook.com/CityOfWestPalmBeachGreenMarket,,,,,,"100 Clematis Street West Palm Beach, FL 33401",Florida,WEST PALM BCH,100 N CLEMATIS ST,33401,-80.04922880154345,26.71380329683579,,
farmers market,"Mar 20th, 2023",default-farmersmarket-4-3.jpg,309461,West Palm Beach Green Market,,,822@wpb.org,561-822-1515,https://www.wpb.org/greenmarket,,,,,,,"Narcissus Avenue and Second Street West Palm Beach, FL 33402",Florida,West Palm Beach,Narcissus Avenue and Second Street,33402,-80.05066999236618,26.71522999029385,,
farmers market,"Mar 20th, 2023",default-farmersmarket-4-3.jpg,309462,White Springs Farmers' Market,,,,386-755-3107,,,,,,,,"Highway 136 & US 41 White Springs, FL 32096",Florida,White Springs,Highway 136 & US 41,32096,-82.75902995968192,30.32980998062054,,
farmers market,"Mar 20th, 2023",default-farmersmarket-4-3.jpg,309463,Wilton Manors Farmers' Market,,,,754-235-4205,,https://www.facebook.com/WiltonManorsGreenMarket,,,,,,"2020 Wilton Dr., Hagen Park, Wilton Manors, FL, 33069",Florida,Wilton Manors,"2020 Wilton Dr., Hagen Park",33069,-80.13991001999933,26.153800979328253,,
farmers market,"Mar 20th, 2023",default-farmersmarket-4-3.jpg,309464,Winter Haven Farmers' Market,,,,863-291-5870,,,,,,,,"Third Street NW and Avenue G NW Winter Haven, FL 33880",Florida,Winter Haven,Third Street NW and Avenue G NW,33880,-81.73038997767976,28.028469992814806,,
farmers market,"Mar 20th, 2023",default-farmersmarket-4-3.jpg,309465,Winter Park Farmers' Market,,,rmoore@cityofwinterpark.org,407-599-3275,https://cityofwinterpark.org/departments/parks-recreation/activities-events/saturday-farmers-market/,,,,,,,"200 W. New England Ave., Winter Park, FL, 32789",Florida,Winter Park,200 W. New England Ave.,32789,-81.35253436482964,28.595920793318225,,
farmers market,"Mar 20th, 2023",default-farmersmarket-4-3.jpg,309466,Woolbright Farmers Market,,,,561-732-2454,http://woolbrightfarmersmarket.com,,,,,,,"141 W. Woolbright Rd. Boynton Beach, FL 33435",Florida,BOYNTON BEACH,141 W WOOLBRIGHT RD,33435,-80.06472036431116,26.51454415241411,,
farmers market,"Mar 20th, 2023",default-farmersmarket-4-3.jpg,309467,Ybor City Farmers' Market,,,info@ybormarket.com,813-241-2442,http://www.ybormarket.com/,https://www.facebook.com/ybormarket/,,,,,,"1800 E. 8th Ave., Tampa, FL, 33605",Florida,Tampa,1800 E. 8th Ave.,33605,-82.43912621446144,27.960987495735065,,
farmers market,"Mar 20th, 2023",default-farmersmarket-4-3.jpg,309468,Ybor City Fresh Market,,,,813-241-2442,https://www.ybormarket.com/,,,,,,,"Eighth Avenue and 19th Street Tampa, FL 33605",Florida,Tampa,Eighth Avenue and 19th Street,33605,-82.43801999950689,27.96097999809355,,
farmers market,"Mar 31st, 2022",farmersmarket_301610_10992_20220331160447.png,301610,Koreshan State Park Farmers Market,,Cynthia Cloughly,friendsofkoreshan@gmail.com,2399920311,https://friendsofkoreshan.org/Farmers-Market,,,,,,,"Koreshan State Park, 3800 Corkscrew Rd, Estero FL 33928",Florida,Estero,3800 Corkscrew Road,33928,-81.8156127,26.434777,Year-round,"Fresh fruits, Fresh vegetables, Baked goods, Canned or preserved fruits/vegetables, Coffee/tea, Crafts/woodworking items, Honey, Juices/non-alcoholic ciders, Pet food, Prepared foods, Soap/body care products"
farmers market,"Sep 11th, 2020",default-farmersmarket-4-3.jpg,300242,Airport Farmers and Flea Market,,Emily & James,airportfarmersfleamarket@gmail.com,352-796-0268,,https://www.facebook.com/airportfarmersandfleamarket,,,,,,"17375 Spring Hill Dr, Brooksville, Florida 34604",Florida,Brooksville,17375 Spring Hill Dr,34604,-82.441514,28.481294,Year-round,"Fresh fruits, Fresh vegetables, Baked goods, Bedding plants, Canned or preserved fruits/vegetables, Coffee/tea, Crafts/woodworking items, Cut flowers, Dairy products., Eggs, Fish/seafood, Fresh/dried herbs, Honey, Juices/non-alcoholic ciders, Maple products, Nursery stock, Nuts, Pet food, Prepared foods, Soap/body care products, Wild harvested forest products, Wine, spirits, beer, hard cider"
farmers market,"Sep 12th, 2020",default-farmersmarket-4-3.jpg,300599,Brooksville Farmers' Market,,Michael Sundquist,Markets@hernandogrowers.org,3522703071,www.hernandogrowers.org,facebook.com/hernandogrowers,twitter.com/HernandoGrowers,,,,,"15487 Citrus Way, Brooksville, Florida 34614",Florida,Brooksville,15487 Citrus Way,34614,-82.449304,28.654639,Year-round,"Fresh fruits, Fresh vegetables, Baked goods, Bedding plants, Canned or preserved fruits/vegetables, Crafts/woodworking items, Dairy products., Eggs, Fish/seafood, Fresh/dried herbs, Honey, Nursery stock, Poultry/fowl meat and products, Red/other non-poultry meat and products, Soap/body care products, Tofu/non-animal protein"
on-farm market,"Apr 12th, 2022",default-onfarmmarket-4-3.jpg,701532,Momma G Farms,Momma G Farms is a 501c3 not for profit farm that is dedicated to educating the community how to grow and use nutrient dense plants that can improve their health and their food security.,Melissa Goltermann,MOMMAGFARMS@GMAIL.COM,3523570427,www.mommagfarms.org,https://www.facebook.com/mommagfarm,,https://www.instagram.com/mommagfarms,,,,"36815 LESLYE LN, EUSTIS, Florida 32736",Florida,EUSTIS,36815 LESLYE LN,32736,-81.529005,28.884393,,
on-farm market,"Apr 16th, 2019",default-onfarmmarket-4-3.jpg,701477,Heirloom Country Farms,,Katharine Lune,heirloomcountryfarms@yahoo.com,352-307-7364,www.heirloomcountryfarms.com,Heirloom Countryfarms,Heirloom Cntry Farms,,,,,"15880 SE 36th Ave, Summerfield, Florida 34491",Florida,Summerfield,15880 SE 36th Ave,34491,-82.089987,28.991447,,
on-farm market,"Apr 19th, 2017",default-onfarmmarket-4-3.jpg,701403,Gray's and Danny's Meat Plant,,Rosie Garcia,gdmeatplant@gmail.com,7863671877,http://www.GDMeatPlant.com/,www.Facebook.com/GDMeatPlant,,,,,,"29513 US Highway 27th Moore Haven, FL, Moore Haven , Florida 33471",Florida,Moore Haven,"29513 US Highway 27th Moore Haven, FL",33471,-81.082060,26.7822802,,
on-farm market,"Apr 27th, 2017",default-onfarmmarket-4-3.jpg,701404,Wingspread Farm,,andrea schielka,andreaschielka@gmail.com,8133234944,https://wingspread.farm/farmstand/,https://www.facebook.com/WingspreadFarm-739542422837766/,,,,,https://wingspread.farm/blog/,"3003 Pearson Road, Valrico, Florida 33596",Florida,Valrico,3003 Pearson Road,33596,-82.226861,27.9007480,,
on-farm market,"Apr 27th, 2022",onfarmmarket_700625_13410_20220427192656.png,700625,Rooney's Front Porch Farm,"Rooney\'s Front Porch Farm\'s season is June to mid July.  We offer U-Pick blueberries, blackberries and sunflowers.  There is ample parking and a clean restroom.  Fun for the whole family.  Check our website for lots of pictures.",Scott & Billie Rooney,billie.rooney@gmail.com,386-590-9053,https://www.rooneyfarm.com,https://www.facebook.com/rooneysfarm,,,,,,"8611 47th Drive, Live Oak, Florida 32060",Florida,Live Oak,8611 47th Drive,32060,-82.843306,30.294693,,
on-farm market,"Apr 8th, 2015",default-onfarmmarket-4-3.jpg,700491,D&K Upick Blueberries,,DkBlueberries,dkblueberries@hotmail.com,813-802-0406,,,,,,,,"1615 U.s. Highway 92 East, Seffner, Florida 33584",Florida,Seffner,1615 U.s. Highway 92 East,33584,-82.255264,28.013423,,
on-farm market,"Aug 13th, 2014",default-onfarmmarket-4-3.jpg,700484,Carlton Myers Nursery and Orchard,,Carlton Myers,ecarltonm@gmail.com,352-463-6602,,https://www.facebook.com/carltonmyerspersimmon,,,,,,"14451 NE County Road 339, Trenton, Florida 32693",Florida,Trenton,14451 NE County Road 339,32693,-82.750581,29.5425110,,
on-farm market,"Aug 13th, 2014",default-onfarmmarket-4-3.jpg,700662,Rebman Farms Llc.,,Mark Rebman,merker95@yahoo.com,813-928-6953,Merker95@yahoo.com,,,,,,,"3604 Barjar Place, Plant City, Florida 33565",Florida,Plant City,3604 Barjar Place,33565,-82.208963,28.0531100,,
on-farm market,"Aug 13th, 2014",default-onfarmmarket-4-3.jpg,700759,Heart of Christmas Farms LLC,,Richard Kann,heartofchristmasfarms@gmail.com,407-512-2004,www.hocfarms.com,www.facebook.com/hocfarms,,,,,http://hocf.blogspot.com/,"21310 Fort Christmas Rd, Christmas, Florida 32709",Florida,Christmas,21310 Fort Christmas Rd,32709,-81.057472,28.574788,,
on-farm market,"Aug 14th, 2014",default-onfarmmarket-4-3.jpg,700085,Aquaponic Lynx LLC,,Aleece Landis,tclynx@aquaponiclynx.com,407-342-8515,http://www.aquaponiclynx.com/,https://www.facebook.com/pages/Aquaponic-Lynx-LLC/120267698035287?ref=hl,,,,,,"8748 Guava St, Yalaha, Florida 34797",Florida,Yalaha,8748 Guava St,34797,-81.807912,28.737419,,
on-farm market,"Aug 1st, 2014",default-onfarmmarket-4-3.jpg,700084,Beasley Farm of Brooksville,,Joann Beasley,beas9781@bellsouth.net,352-799-6752,beasleyfarmbrooksville.blogspot.com or Beasley Farm facebook,https://www.facebook.com/pages/Beasley-Farms/246402592050005?fref=ts,,,,,beasleyfarmbrooksville.blogspot.com,"10137 Preston Rd. just off Mondon Hill Road, Brooksville, Florida 34601",Florida,Brooksville,10137 Preston Rd. just off Mondon Hill Road,34601,-82.338054,28.5530743,,
on-farm market,"Aug 21st, 2014",default-onfarmmarket-4-3.jpg,700866,Jonesville Persimmons,,ken hawes,cementdust@gmail.com,3524723928,,,,,,,,"17010 West Newberry Road, Newberry, Florida 32669",Florida,Newberry,17010 West Newberry Road,32669,-82.524445,29.6545260,,
on-farm market,"Aug 22nd, 2014",default-onfarmmarket-4-3.jpg,700877,Liberty Farms of Florida,,Madison,ultrafresh@libertyfarms.info,3213455813,http://libertyfarms.info/home,https://www.facebook.com/libertyfarmsflorida,,,,,,"4540 Corey Road, Grant-Valkaria, Florida 32950",Florida,Grant-Valkaria,4540 Corey Road,32950,-80.590126,27.9454762,,
on-farm market,"Aug 22nd, 2014",default-onfarmmarket-4-3.jpg,700884,South Moon Farms,,Daniel Anson,southmoonfarmsfl@gmail.com,352-466-0105,http://upickblueberriesgainesville.com,https://www.facebook.com/SouthMoonFarms,,,,,,"15912 S County Road 325, Hawthorne, Florida 32640",Florida,Hawthorne,15912 S County Road 325,32640,-82.167327,29.4863878,,
on-farm market,"Aug 24th, 2014",default-onfarmmarket-4-3.jpg,700913,Hancock Groves,,Joseph Hancock,jhan105127@aol.com,352-588-3801,,,,,,,,"31107 Blanton Road, Dade CIty, Florida 33523",Florida,Dade CIty,31107 Blanton Road,33523,-82.302178,28.420417,,
on-farm market,"Aug 26th, 2014",default-onfarmmarket-4-3.jpg,700944,Bender's Tropical Grove,,Michael Bender,bendersgrove@aol.com,954-471-0763,Bendersgrove.com,https://www.facebook.com/pages/Benders-Tropical-Grove/119092214773666,https://www.twitter.com/bendersgrove,,,,,"14800 sw 31st ct, Davie , Florida 33331",Florida,Davie,14800 sw 31st ct,33331,-80.346566,26.081398,,
on-farm market,"Aug 26th, 2014",default-onfarmmarket-4-3.jpg,700947,The Farmers Market at Flamingo Road Nursery,,James Dezell,dfloridafresh@aol.com,954-235-9397,www.flamingoroadnursery.com,https://www.facebook.com/FlamingoRoadNursery,,,,,,"1655 Flamingo Road, Davie, Florida 33325",Florida,Davie,1655 Flamingo Road,33325,-80.315158,26.0989820,,
on-farm market,"Aug 28th, 2014",default-onfarmmarket-4-3.jpg,700974,Hiamonee Farms,,Clarke Parker,parker0800@embarqmail.com,850-893-7099,,https://www.facebook.com/pages/Hiamonee-Farms/172018742823967?ref=bookmarks,,,,,,"13170 N. Meridian Rd., Tallahassee , Florida 32312",Florida,Tallahassee,13170 N. Meridian Rd.,32312,-84.282286,30.640816,,
on-farm market,"Aug 31st, 2014",default-onfarmmarket-4-3.jpg,700665,Meadors Blueberry Farm,,Valarie Meadors,meadorsblueberryfarm@gmail.com,407-383-6639,,www.facebook.com/MeadorsBlueberryFarm,,,,,,"3685 Orlando Avenue, Mims, Florida 32754",Florida,Mims,3685 Orlando Avenue,32754,-80.85993,28.715838,,
on-farm market,"Aug 3rd, 2014",default-onfarmmarket-4-3.jpg,700230,Shockley Springs Blueberry Farm,,Mark Davis,shockleysprings@gmail.com,850-902-0160,http://shockleysprings.com,https://www.facebook.com/pages/Shockley-Springs-Nursery/83091184375?ref=hl&ref_type=bookmark,,,,,,"7097 Old River Road, Baker, Florida 32531",Florida,Baker,7097 Old River Road,32531,-86.597905,30.888099,,
on-farm market,"Aug 7th, 2014",default-onfarmmarket-4-3.jpg,700065,"Persimmony Snickets, LLC.",,Nicole Paquette,persimmonysnickets@gmail.com,863-531-5142,www.persimmonysnickets.com,https://www.facebook.com/PersimmonySnicketsFarm,https://www.twitter.com/PSnickets,,,,,"102 Palm Beach St, Lake Placid, Florida 33852",Florida,Lake Placid,102 Palm Beach St,33852,-81.315715,27.2238330,,
on-farm market,"Aug 9th, 2015",default-onfarmmarket-4-3.jpg,701294,Criswell Farms,,Kevin Quigley,kevin@criswellfarm.com,954-667-7611,,https://www.facebook.com/pages/Criswell-Farms-LLC/1375826332671388?fref=ts,,,,,,"24 NW 6th Avenue, Fort Lauderdale, Florida 33311",Florida,Fort Lauderdale,24 NW 6th Avenue,33311,-80.149529,26.1225240,,
on-farm market,"Dec 1st, 2014",default-onfarmmarket-4-3.jpg,701175,"Ridge Island Groves, Inc.",,Chad Ritch,chad@ridgeislandgroves.com,863422033,http://www.ridgeislandgroves.com,https://www.facebook.com/RidgeIslandGroves,,,,,,"6000 Polk City Road, Haines City, Florida 33844",Florida,Haines City,6000 Polk City Road,33844,-81.677643,28.158483,,
on-farm market,"Dec 29th, 2019",default-onfarmmarket-4-3.jpg,701495,Eden Gardens Jax,,Tim Lovelace,Info@glodev.org,904-333-2080,Https://edengardensjax.org,Http://Facebook.com/edengardensjax,,,,,,"9179 Garden St, Jacksonville , Florida 32219",Florida,Jacksonville,9179 Garden St,32219,-81.811935,30.408552,,
on-farm market,"Feb 10th, 2021",default-onfarmmarket-4-3.jpg,701582,Redland Forest Farm,,Enrique Delgado,enrique@public.farm,305-397-9082,,,,,,,,"18575 SW 280th Street, Homestead, Florida 33031",Florida,Homestead,18575 SW 280th Street,33031,-80.493758,25.506419,,
on-farm market,"Feb 21st, 2016",default-onfarmmarket-4-3.jpg,701266,The Flyin D Ranch,,Randy and Tracey Duncan,Flyindranch@wildblue.net,903 456 3546 or 850 ,TheFlyinDRanch.com,,,,,,,"4166 Millside Road, Laurel Hill , Florida 32567",Florida,Laurel Hill,4166 Millside Road,32567,-86.455150,30.929088,,
on-farm market,"Feb 21st, 2018",default-onfarmmarket-4-3.jpg,701442,"Southern Hill Farms, Inc.",,Brooke Hill,brooke@southernhillfarms.com,407-986-5806,https://southernhillfarms.com,www.facebook.com/southernhillfarms,www.twitter.com/shfblueberries,,,,https://southernhillfarms.com/blog,"16651 Schofield Road, Clermont, Florida 34714",Florida,Clermont,16651 Schofield Road,34714,-81.679880,28.4488130,,
on-farm market,"Feb 3rd, 2021",default-onfarmmarket-4-3.jpg,701579,The Villages Grown Retail Store,,Tracey Herrera,tracey.herrera@thevillagesgrown.com,352-775-7866,www.TheVillagesGrown.com,,,,,,,"2666 West Torch Lake Dr, The Villages, Florida 32163",Florida,The Villages,2666 West Torch Lake Dr,32163,-82.080985,28.7047131,,
on-farm market,"Jan 27th, 2015",default-onfarmmarket-4-3.jpg,700488,Bellablue Berry Farm,,Doug Melcher,doug.bellablueberryfarm@gmail.com,727-364-4899,www.bellablueberryfarm.com,BellaBlue Berry Farm,,,,,,"43405 State Road 64 East, Myakka Head, Florida 34251",Florida,Myakka Head,43405 State Road 64 East,34251,-82.096539,27.459539,,
on-farm market,"Jan 28th, 2019",default-onfarmmarket-4-3.jpg,701469,Sustainable Seasons Farm,,Patrick Humphrey,patrickhumphrey94@gmail.com,7276430511,www.sustainableseasons.com,,,,,,,", Lake Wales, Florida 33898",Florida,Lake Wales,,33898,-81.596409,27.924955,,
on-farm market,"Jul 26th, 2014",default-onfarmmarket-4-3.jpg,700315,Laughing Chicken Farm,,Bill and Robin Popp,info@laughingchickenfarm.com,352-472-1315,www.laughingchickenfarm.com,https://www.facebook.com/pages/Laughing-Chicken-Farm/108558185834354,,,,,,"2397 SE 37th Avenue, Trenton, Florida 32693",Florida,Trenton,2397 SE 37th Avenue,32693,-82.745686,29.703875,,
on-farm market,"Jul 26th, 2014",default-onfarmmarket-4-3.jpg,700490,Loftus Family Farm,,Loftus Family Farm,donloftus@yahoo.com,352-214-1028,www.loftusfamilyfarm.com/,,,,,,,"15585 NW 29 Street, Gainesville, Florida 32609",Florida,Gainesville,15585 NW 29 Street,32609,-82.367138,29.7986300,,
on-farm market,"Jul 26th, 2014",default-onfarmmarket-4-3.jpg,700521,LE Farms LLC,,David English,chestnutsrus@yahoo.com,850 566 7092,www.chestnutsrus.com,,,,,,,"2763 Caniehead Rd, Campbellton, Florida 32416",Florida,Campbellton,2763 Caniehead Rd,32416,-85.365221,30.9599602,,
on-farm market,"Jul 26th, 2014",default-onfarmmarket-4-3.jpg,700562,Bramble Bush Farm,,,sandyhillfarm@gmail.com,352-799-5973,,,,,,,,"27400 Old Trilby Road, Brooksville, Florida 34602",Florida,Brooksville,27400 Old Trilby Road,34602,-82.282849,28.5061180,,
on-farm market,"Jul 26th, 2014",default-onfarmmarket-4-3.jpg,700582,Genes Patch,,Rick Meredith,R_Meredith29@yahoo.com,813-527-6324,,,,,,,,"6381 Tulip Drive, Wesley Chapel, Florida 33544",Florida,Wesley Chapel,6381 Tulip Drive,33544,-82.382689,28.2494100,,
on-farm market,"Jul 26th, 2014",default-onfarmmarket-4-3.jpg,700681,Cypress Cattle and Produce,,,luke@cypresscattle.com,850-685-5890,www.cypresscattle.com,,,,,,,"2980 R.M. Ward Road, Ponce De Leon, Florida 32455",Florida,Ponce De Leon,2980 R.M. Ward Road,32455,-85.875196,30.703488,,
on-farm market,"Jul 26th, 2014",default-onfarmmarket-4-3.jpg,700712,High Springs Orchard Bakery LLC,,Jenny Franklin,jenny@highspringsorchard.com,352 222 1343,www.highspringsorchard.com,https://www.facebook.com/pages/High-Springs-Orchard-Bakery/147947418567459,,,,,,"10804 Nw Sr 45, High Springs, Florida 32643",Florida,High Springs,10804 Nw Sr 45,32643,-82.610296,29.7548850,,
on-farm market,"Jul 27th, 2014",default-onfarmmarket-4-3.jpg,700022,The Farm,,Stacie Blank,ffproduce@hotmail.com,,thefarm-estero .com,https://www.facebook.com/TheFarmEstero,,,,,,"9050 Corkscrew Road, Estero, Florida 33928",Florida,Estero,9050 Corkscrew Road,33928,-81.804158,26.4303040,,
on-farm market,"Jul 27th, 2014",default-onfarmmarket-4-3.jpg,700075,"Pine Island Botanicals, Inc",,Michael Wallace,info@pineislandbotanicals.com,239-222-9494,http://www.pineislandbotanicals.com,https://www.facebook.com/pages/Pine-Island-Botanicals/306895999417914?fref=ts,,,,,,"12571 Aubrey Ln, Bokeelia, Florida 33922",Florida,Bokeelia,12571 Aubrey Ln,33922,-82.122561,26.6449070,,
on-farm market,"Jul 27th, 2014",default-onfarmmarket-4-3.jpg,700087,Osceola Organic Farm,,Kevin O\'Dare,kevin@osceolaorganicfarm.com,772-567-1530,osceolaorganicfarm.com,https://www.facebook.com/osceolaorganicfarm,,,,,kevin.osceolaorganicfarm.com,"6980 33rd street, Vero Beach, Florida 32966",Florida,Vero Beach,6980 33rd street,32966,-80.470328,27.653808,,
on-farm market,"Jul 27th, 2014",default-onfarmmarket-4-3.jpg,700213,Hydro Harvest Farms,,John Lawson,terrie@hydroharvestfarms.com,813-645-6574,http://www.hydroharvestfarms.com/,https://www.facebook.com/hydroharvestfarms,,,,,,"1101 Shell Point Rd East, Ruskin, Florida 33570",Florida,Ruskin,1101 Shell Point Rd East,33570,-82.420079,27.7205480,,
on-farm market,"Jul 27th, 2014",default-onfarmmarket-4-3.jpg,700273,Goat First Network:Mahan Farms Enterperises,,Uford Madden,maddenua@embarqmail.com,850-907-9781,goatfirstnetwork.com,,,,,,,"16824 Mahan Drive, Tallahassee, Florida 32309",Florida,Tallahassee,16824 Mahan Drive,32309,-83.995597,30.528972,,
on-farm market,"Jul 27th, 2014",default-onfarmmarket-4-3.jpg,700600,Pattys Patch Blueberry Upick,,Patricia Mudge,pattyspatchblues@gmail.com,863-675-1105,www.pattyspatch.com,https://www.facebook.com/PattysPatchBlueberryUPick,,,,,,"1320 Hog Wallow Lane SW, Labelle, Florida 33935",Florida,Labelle,1320 Hog Wallow Lane SW,33935,-81.471965,26.821593,,
on-farm market,"Jul 27th, 2014",default-onfarmmarket-4-3.jpg,700650,Abshier Blueberry Farm,,,Abshierblueberryfarm@gmail.com,352-817-2660,Www.abshierblueberryfarm.com,www.facebook.com/pages/Abshier-Blueberry-Farm/295455157137236pages/Abshier-Blueberry-Farm/295455157137236,,,,,,"3960 SE 115th Street, Belleview, Florida 34420",Florida,Belleview,3960 SE 115th Street,34420,-82.081751,29.0533560,,
on-farm market,"Jul 27th, 2014",default-onfarmmarket-4-3.jpg,700651,Al and MLiss Grissom,,William Grissom,1110wwag@att.net,325-799-1110,,,,,,,,"3261 Endsley Road, Brooksville, Florida 34604",Florida,Brooksville,3261 Endsley Road,34604,-82.387655,28.481463,,
on-farm market,"Jul 27th, 2014",default-onfarmmarket-4-3.jpg,700652,Blueberry Hill Farm Inc.,,Donald Cowern,ndbp2k@yahoo.com,386-559-0408,,https://www.facebook.com/pages/Blueberry-Hill-Farm/353380774779857,,,,,,"1522 CR 308, Crescent City, Florida 32112",Florida,Crescent City,1522 CR 308,32112,-81.571514,29.442212,,
on-farm market,"Jul 27th, 2014",default-onfarmmarket-4-3.jpg,700720,Windy Hill Vineyard,,Kim Anderson,info@windyhillvineyard.com,803-634-4695,windyhillvineyard.com,,,,,,,"14663 Mahan Drive, Tallahassee, Florida 32309",Florida,Tallahassee,14663 Mahan Drive,32309,-84.029641,30.5220880,,
on-farm market,"Jul 27th, 2014",default-onfarmmarket-4-3.jpg,700750,Honeyside Farms,,,honeysidefarms@gmail.com,941-405-0015,www.honeysidefarms.com,https://www.facebook.com/HoneysideFarms,,,,,,"8276 Ibis Street, Sarasota, Florida 34241",Florida,Sarasota,8276 Ibis Street,34241,-82.434218,27.239731,,
on-farm market,"Jul 28th, 2014",default-onfarmmarket-4-3.jpg,700024,The Back Acres Farm,,Susan Williams,susan@thebackacresfarm.com,386-647-7042,http://thebackacresfarm.com,https://www.facebook.com/thebackacresfarm,,,,,,"8335 240th Street, O\'Brien, Florida 32071",Florida,O\'Brien,8335 240th Street,32071,-82.917384,30.0142258,,
on-farm market,"Jul 28th, 2014",default-onfarmmarket-4-3.jpg,700401,"Big Bear Farms, Inc.",,Kenneth Der,bigbearfarms@verizon.net,813-986-1152,BIGBEARFARMS.MYSITE.COM,,,,,,,"7606 Kinard Rd., Plant City, Florida 33565",Florida,Plant City,7606 Kinard Rd.,33565,-82.232089,28.065417,,
on-farm market,"Jul 28th, 2014",default-onfarmmarket-4-3.jpg,700540,Brads Organic Blueberries,,BRAD LINGO,bradsblueberries@wildblue.net,352-486-4367,,,,,,,,"7450 Ne 135th Street, Bronson, Florida 32621",Florida,Bronson,7450 Ne 135th Street,32621,-82.652593,29.531500,,
on-farm market,"Jul 28th, 2014",default-onfarmmarket-4-3.jpg,700784,Fresh Start Farm Inc,,,freshstartfarm@att.net,407-359-8933,,,,,,,,"2331 Red Ember Road, Oviedo, Florida 32765",Florida,Oviedo,2331 Red Ember Road,32765,-81.161499,28.6241510,,
on-farm market,"Jul 30th, 2014",default-onfarmmarket-4-3.jpg,700382,Colusa Farms,,Isabel Way,colusafarms@gmail.com,239-300-8416,www.colusafarms.com,,,,,,,", Naples, Florida",Florida,Naples,,,-81.794810,26.1420358,,
on-farm market,"Jul 30th, 2014",default-onfarmmarket-4-3.jpg,700668,Mitillini Vineyards,,Michael Bresk,mbresk@yahoo.com,386 364-1773,http://www.mitillinivineyards.com/,https://www.facebook.com/pages/Mitillini-Vineyards/101321156639678?ref=hl,,,,,,"17569 76th Street, Live Oak, Florida 32060",Florida,Live Oak,17569 76th Street,32060,-83.114041,30.313149,,
on-farm market,"Jul 31st, 2014",default-onfarmmarket-4-3.jpg,700150,Great Tasting Pigs,,Donnie Weaver,greattastingpigs@gmail.com,352-672-5796,greattastingpigs.com,https://www.facebook.com/greattastingpigs,,,,,,"16323 NW 37 Dr, Gainesville, Florida 32609",Florida,Gainesville,16323 NW 37 Dr,32609,-82.382328,29.806093,,
on-farm market,"Jul 4th, 2015",default-onfarmmarket-4-3.jpg,701281,Peach Pit Farms,,Jeff Lewis,tropicbeauty12@gmail.com,8136346222,,,,,,,,"11106 State Road 674, lithia, Florida 33547",Florida,lithia,11106 State Road 674,33547,-82.190870,27.705119,,
on-farm market,"Jun 21st, 2016",default-onfarmmarket-4-3.jpg,701342,"Twelve Oaks Community Farms, Inc.",,Michael DeFelice,twelveoakscommunityfarms@gmail.com,727-422-3360,,,,,,,,"5344 White Road, Brooksville , Florida 34602",Florida,Brooksville,5344 White Road,34602,-82.278176,28.5093419,,
on-farm market,"Jun 8th, 2015",default-onfarmmarket-4-3.jpg,700761,Stetson Farmers Market,,Sarah Coffey,hatterharvest@gmail.com,,http://stetson.orgsync.com/org/hatterharvest,https://www.facebook.com/HatterHarvest,,,,,,"234 E Michigan Ave, Deland, Florida 32723",Florida,Deland,234 E Michigan Ave,32723,-81.300512,29.032739,,
on-farm market,"Mar 23rd, 2015",default-onfarmmarket-4-3.jpg,700042,Sampson Family Farm,,Jeff and Janet Sampson,sampsonfamilyfarm@gmail.com,386-330-2302,sampsonfamilyfarm.com,https://www.facebook.com/sampsonfamilyfarm,,,,,,"17790 96th St., Live Oak, Florida 32060",Florida,Live Oak,17790 96th St.,32060,-83.117329,30.275264,,
on-farm market,"Mar 23rd, 2015",default-onfarmmarket-4-3.jpg,700414,Green Meadows Farm,,Delores Green,annadgreen@gmail.com,850-997-4886,localharvest.org/greenmeadowsfarm,GreenMeadowsFarm,,,,,,"177 East Bluebird Road, Monticello, Florida 32344",Florida,Monticello,177 East Bluebird Road,32344,-83.926417,30.532259,,
on-farm market,"Mar 23rd, 2015",default-onfarmmarket-4-3.jpg,700648,Allison Family Farm LLC.,,Virgil Allison,allisonfamilyfarm@gmail.com,904-591-1515,http://allisonfamilyfarm.com/,,,,,,,"124 Diamond Lake Lane, Crescent City, Florida 32112",Florida,Crescent City,124 Diamond Lake Lane,32112,-81.577329,29.422782,,
on-farm market,"Mar 24th, 2015",default-onfarmmarket-4-3.jpg,700131,Hardy Farms LLC,,Mark Jordan,Berta@HardyPalmTrees.com,813-763-5107,www.hardypalmtrees.com,https://www.facebook.com/hardypalmtrees,,,,,,"2102 N Shannon Ave, Plant City, Florida 33563",Florida,Plant City,2102 N Shannon Ave,33563,-82.119575,28.0325360,,
on-farm market,"Mar 26th, 2015",default-onfarmmarket-4-3.jpg,700214,The Showcase of Citrus,,Tara Boshell,tarashowcaseofcitrus@gmail.com,352-394-4377,www.showcaseofcitrus.com,https://www.facebook.com/pages/The-Showcase-of-Citrus/357567637588517,,,,,,"5010 Highway 27, Clermont, Florida 34714",Florida,Clermont,5010 Highway 27,34714,-81.705697,28.419663,,
on-farm market,"May 1st, 2015",default-onfarmmarket-4-3.jpg,701251,Sandy Acre Avocado & Mango Farm,,Sandy Robinson,sandyacreredland@bellsouth.net,305-542-0535,,,,,,,,"23515 S.W. 162 Ave, Homestead , Florida 33031",Florida,Homestead,23515 S.W. 162 Ave,33031,-80.453495,25.547377,,
on-farm market,"May 31st, 2015",default-onfarmmarket-4-3.jpg,700440,Wakulla Berries,,Hillary Brigham,hillaryb@embarqmail.com,850-228-7942,,Facebook/Wakullaberries,,,,,,"252 Wakulla Springs Road, Crawfordville, Florida 32327",Florida,Crawfordville,252 Wakulla Springs Road,32327,-84.314653,30.2932220,,
on-farm market,"May 4th, 2018",default-onfarmmarket-4-3.jpg,701451,Abundant Gardens,,Duane Piercey,AbundantGardensPC@gmail.com,813-716-7835,https://www.abundantgardens.net/,https://www.facebook.com/AbundantGardensPlantCity/,,,,,,"1211 W. Terrace Dr, Plant City, Florida 33563",Florida,Plant City,1211 W. Terrace Dr,33563,-82.134727,28.0394270,,
on-farm market,"Nov 23rd, 2018",default-onfarmmarket-4-3.jpg,701464,CoLab Farms,,Allison Linn,colabfarms@icloud.com,5612625113,www.colabfarms.com,www.facebook.com/colabfarms,,,,,,"12951 SW Paddock Dr, Indiantown, Florida 34956",Florida,Indiantown,12951 SW Paddock Dr,34956,-80.477947,27.047453,,
on-farm market,"Nov 29th, 2020",default-onfarmmarket-4-3.jpg,701569,Naga Gardens,,Ravi Tella,nagagardensllc@gmail.com,5612474423,https://nagagardens.com/,https://www.facebook.com/NagaGardens/,,,,,,"3160 D Road, Loxahatchee, Florida 33470",Florida,Loxahatchee,3160 D Road,33470,-80.272914,26.723246,,
on-farm market,"Nov 3rd, 2014",default-onfarmmarket-4-3.jpg,701162,Maggies Herb Farm LLC,,Maggies Herb Farm LLC,maggiesherbs@aol.com,904-829-0722,http://maggiesherbfarm.com,maggies herb farm,,,,,,"11400 County Road 13N, Saint Augusrine, Florida 32092",Florida,Saint Augusrine,11400 County Road 13N,32092,-81.592435,29.908869,,
on-farm market,"Oct 21st, 2014",default-onfarmmarket-4-3.jpg,701148,Shepperds Farms,,Bruce Douglas,Joylynne@windstream.net,904-879-7559,Shepperdsfarms@gmail.com,,,,,,,"35622 Braddock Road, Callahan, Florida 32011",Florida,Callahan,35622 Braddock Road,32011,-81.864069,30.611727,,
on-farm market,"Oct 30th, 2014",default-onfarmmarket-4-3.jpg,701157,Brown's Country Market,,Alisha Brown,info@brownandbrownfarms.com,352.303.1550,http://www.brownandbrownfarms.com/browns-country-market,https://www.facebook.com/pages/Browns-Country-Market/162179200496592,,,,,,"13992 North U.S. 301, Oxford, Florida 34484",Florida,Oxford,13992 North U.S. 301,34484,-82.037570,28.9490610,,
on-farm market,"Oct 8th, 2014",default-onfarmmarket-4-3.jpg,701130,"Shadowood Farm, Inc.",,Sarah W. Fenton,shadowoodfarm@gmail.com,772-781-5777,http://www.shadowoodfarm.com/,,,,,,,"6220 SW Martin Highway, Palm City, Florida 34990",Florida,Palm City,6220 SW Martin Highway,34990,-80.337821,27.161413,,
on-farm market,"Sep 16th, 2014",default-onfarmmarket-4-3.jpg,700671,Marks Upick Blueberries,,Mark McCaffrey,marksblueberries@aol.com,352-394-2135,www.marksblueberries.com,,,,,,,"18900 County Road  561, Clermont, Florida 34715",Florida,Clermont,18900 County Road  561,34715,-81.757577,28.6212576,,
on-farm market,"Sep 17th, 2014",default-onfarmmarket-4-3.jpg,700476,Glovers Blueberries,,Richard Glover,Stanair@aol.com,813-763-0399,stanair@aol.com,,,,,,,"4612 S. Calhoun Road, Plant City, Florida 33567",Florida,Plant City,4612 S. Calhoun Road,33567,-82.165974,27.9509030,,
on-farm market,"Sep 18th, 2020",default-onfarmmarket-4-3.jpg,701557,"East Fork Creek, Inc.",,Frans Kox,orders@eastforkcreek.com,239-345-3276,https://eastforkcreek.com/,https://facebook.com/eastforkcreekfarm,,,,,,"6901 Hendry Creek Drive, Fort Myers, Florida 33908",Florida,Fort Myers,6901 Hendry Creek Drive,33908,-81.868391,26.516756,,
on-farm market,"Sep 19th, 2014",default-onfarmmarket-4-3.jpg,700585,Tom West Blueberries,,Susan Hembree,Susan@tomwestblueberries.com,407-656-3223,www.tomwestblueberries.com,facebook.com/tomwestblueberries.,,,,,,"324 E. Orlando Avenue, Ocoee, Florida 34761",Florida,Ocoee,324 E. Orlando Avenue,34761,-81.539775,28.563578,,
on-farm market,"Sep 23rd, 2014",default-onfarmmarket-4-3.jpg,700865,Baker U-Pick Blueberries,,John Richardson,oldjohn63@gmail.com,850-537-0340,,,,,,,,"5949 Dairy Road, baker, Florida",Florida,baker,5949 Dairy Road,,-86.673081,30.8061770,,
on-farm market,"Sep 30th, 2014",default-onfarmmarket-4-3.jpg,700536,Brook Hollow Hydroponics Strawberry Farm,,Ellen Annis,BrookHollowFarm@cfl.rr.com,407-234-9877,www.thebrookhollowfarm.com,www.facebook.com/thebrookhollowfarm,,,,,,"8505 Silver Star Road, Orlando, Florida 32818",Florida,Orlando,8505 Silver Star Road,32818,-81.501306,28.577967,,
on-farm market,"Sep 4th, 2015",default-onfarmmarket-4-3.jpg,701296,Valley View Vineyards,,Tracey Estok,traceyestok@valleyviewvineyards.com,3522434032,,Valley View Vineyards,,,,,,"22310 County Road 455, Howey in the Hills, Florida 34737",Florida,Howey in the Hills,22310 County Road 455,34737,-81.766621,28.667251,,
on-farm market,"Sep 6th, 2014",default-onfarmmarket-4-3.jpg,701029,Tropical Acres Farms Inc,,Alexander Salazar,Tropicalacresfarms@gmail.com,561-358-8566,,Facebook.com/TropicalAcresFarms,,,,,,"1010 Camellia road, West Palm Beach , Florida 33405",Florida,West Palm Beach,1010 Camellia road,33405,-80.066421,26.6720180,,
on-farm market,"Sep 7th, 2014",default-onfarmmarket-4-3.jpg,701033,"Vo-LaSalle Farms, Inc",,Steve Crump,Stevenscrump@hotmail.com,386-985-0046,Www.giftfruitfromflorida.com,Vo-LaSalle Farms,,,,,,"601 Johnson Lake Rd, DeLeon Springs, Florida 32130",Florida,DeLeon Springs,601 Johnson Lake Rd,32130,-81.348352,29.154785,,
